Street,City,State,Zip
Mühlenstrasse 65,Würzburg,Freistaat Bayern,97001
Chausseestr. 29,Pinneberg,Schleswig-Holstein,25409
Buelowstrasse 80,Niederroßbach,Rheinland-Pfalz,56479
Schoenebergerstrasse 79,Stralsund,Mecklenburg-Vorpommern,18412
Langenhorner Chaussee 86,Piding,Freistaat Bayern,83449
Oldesloer Strasse 32,Suhl,Freistaat Thüringen,98501
Albrechtstrasse 84,Nußdorf,Freistaat Bayern,83131
Leipziger Strasse 3,Minden Aminghausen,Nordrhein-Westfalen,32423
Gruenauer Strasse 59,Buxtehude,Niedersachsen,21614
Prager Str 23,Weßling,Freistaat Bayern,82231
Anhalter Strasse 18,Hauptstuhl,Rheinland-Pfalz,66851
Lange Strasse 31,Ottobrunn,Freistaat Bayern,85501
Lützowplatz 25,Irsch,Rheinland-Pfalz,54451
Kurfürstenstraße 33,Erligheim,Baden-Württemberg,74391
Hedemannstasse 68,Wittlingen,Baden-Württemberg,79599
Karl-Liebknecht-Strasse 69,Affing,Freistaat Bayern,86442
Gruenauer Strasse 29,Oldendorf,Niedersachsen,21726
Kantstraße 48,Gersdorf,Freistaat Sachsen,9355
Hans-Grade-Allee 39,Alt Mölln,Schleswig-Holstein,23881
Sonnenallee 88,Augsburg,Freistaat Bayern,86015
Leopoldstraße 97,Berlin Friedrichsfelde,Berlin,10315
Chausseestr. 36,Halstenbek,Schleswig-Holstein,25469
Schmarjestrasse 75,Zahna,Sachsen-Anhalt,6892
Charlottenstrasse 72,Cottbus,Brandenburg,3003
Hoheluftchaussee 36,Wittstock,Brandenburg,16901
Neue Roßstr. 2,Esslingen Hegensberg,Baden-Württemberg,73732
Schmarjestrasse 32,Arensdorf,Sachsen-Anhalt,6369
Los-Angeles-Platz 20,Norderstedt,Schleswig-Holstein,22809
Charlottenstrasse 31,Cottbus,Brandenburg,3050
Pasewalker Straße 61,Pforzheim Brötzingen,Baden-Württemberg,75179
Hardenbergstraße 2,Bosenbach,Rheinland-Pfalz,66887
Rudower Chaussee 81,Hallstadt,Freistaat Bayern,96100
Nuernbergerstrasse 16,Friedeburg,Niedersachsen,26446
Paderborner Strasse 56,Bobingen,Freistaat Bayern,86399
Karl-Liebknecht-Strasse 94,Prinzhöfte,Niedersachsen,27243
Stuttgarter Platz 43,Olfen,Nordrhein-Westfalen,59399
An Der Urania 7,Kellinghusen,Schleswig-Holstein,25543
Park Str. 79,Solingen Burg,Nordrhein-Westfalen,42659
Hollander Strasse 45,Stadtallendorf,Hessen,35260
Kurfürstenstraße 33,Erligheim,Baden-Württemberg,74391
Eichendorffstr. 79,Hagnau,Baden-Württemberg,88709
Guentzelstrasse 99,Sinntal,Hessen,36391
Luetzowplatz 6,Minderlittgen,Rheinland-Pfalz,54518
Prager Str 89,Gröbenzell,Freistaat Bayern,82182
Heinrich Heine Platz 50,Löbau,Freistaat Sachsen,2704
Fugger Strasse 86,Koblenz Oberwerth,Rheinland-Pfalz,56075
Michaelkirchstr. 2,Spangenberg,Hessen,34286
Kirchenallee 75,Deggendorf,Freistaat Bayern,94454
Schoenebergerstrasse 79,Stralsund,Mecklenburg-Vorpommern,18412
Bayreuther Strasse 92,Ulm Lehr,Baden-Württemberg,89081
Pohlstrasse 96,Ohrum,Niedersachsen,38312
Schoenebergerstrasse 95,Saal,Freistaat Bayern,93342
Bleibtreustrasse 36,Paderborn Elsen,Nordrhein-Westfalen,33104
Genterstrasse 69,Kiel,Schleswig-Holstein,24113
Straße der Pariser Kommune 36,Münster,Nordrhein-Westfalen,48149
Paderborner Strasse 56,Bobingen,Freistaat Bayern,86399
Pohlstrasse 30,Denkte,Niedersachsen,38321
Kantstrasse 16,Nürnberg,Freistaat Bayern,90227
Hedemannstasse 62,Grenzach-Wyhlen,Baden-Württemberg,79639
Hedemannstasse 40,Eichstegen,Baden-Württemberg,88361
Konstanzer Strasse 58,Linsengericht,Hessen,63589
Landhausstraße 48,Fürstenwalde,Brandenburg,15501
Langenhorner Chaussee 11,Übersee,Freistaat Bayern,83236
Hardenbergstraße 58,Knopp-Labach,Rheinland-Pfalz,66917
Sonnenallee 46,Augsburg,Freistaat Bayern,86046
Alsterkrugchaussee 95,Bissingen,Freistaat Bayern,86656
Hoheluftchaussee 12,Meyenburg,Brandenburg,16942
Kurfürstenstraße 89,Affalter,Freistaat Sachsen,8294
Ufnau Strasse 67,Eggenthal,Freistaat Bayern,87653
Meininger Strasse 90,Riegelsberg,Saarland,66292
Genterstrasse 22,Stockelsdorf,Schleswig-Holstein,23613
Mellingburgredder 54,Effeltrich,Freistaat Bayern,91090
An der Alster 69,Barkow,Mecklenburg-Vorpommern,19372
Motzstr. 12,Sponheim,Rheinland-Pfalz,55595
Mellingburgredder 54,Effeltrich,Freistaat Bayern,91090
Hedemannstasse 21,Kandern,Baden-Württemberg,79400
Flughafenstrasse 38,Windischeschenbach,Freistaat Bayern,92670
Michaelkirchstr. 86,Leese,Niedersachsen,31633
Leopoldstraße 80,Berlin Borsigwalde,Berlin,13509
Paderborner Strasse 75,Langweid,Freistaat Bayern,86460
Jahnstrasse 32,Bruckmühl,Freistaat Bayern,83046
Scharnweberstrasse 15,Schwalbach am Taunus,Hessen,65824
Koenigstrasse 26,Weimar,Freistaat Thüringen,99408
Lietzenburger Strasse 29,Marienheide,Nordrhein-Westfalen,51709
Mollstrasse 21,Hofheim,Freistaat Bayern,97457
Rosenstrasse 67,München,Freistaat Bayern,81613
Hochstrasse 46,Ahneby,Schleswig-Holstein,24996
Charlottenstrasse 80,Cottbus,Brandenburg,3014
Feldstrasse 40,Arneburg,Sachsen-Anhalt,39592
Friedrichstrasse 28,Düsseldorf Gerresheim,Nordrhein-Westfalen,40627
Knesebeckstrasse 33,Bitzen,Rheinland-Pfalz,57539
Gubener Str. 90,Rotwandhaus,Freistaat Bayern,83727
Schmarjestrasse 72,Dallgow,Brandenburg,14624
Büsingstrasse 82,Gilching,Freistaat Bayern,82205
Karl-Liebknecht-Strasse 66,Syke,Niedersachsen,28857
Pasewalker Straße 61,Pforzheim Brötzingen,Baden-Württemberg,75179
Flughafenstrasse 14,Oberviechtach,Freistaat Bayern,92526
Fischerinsel 67,Mönchengladbach Hardt,Nordrhein-Westfalen,41169
Rudower Chaussee 80,Bamberg,Freistaat Bayern,96052
Hoheluftchaussee 9,Ablaß,Freistaat Sachsen,4769
Boxhagener Str. 59,Hamburg Dulsberg,Hamburg,22049
Fontenay 68,Hohenberg,Freistaat Bayern,95691
Bayreuther Strasse 32,Frankfurt,Brandenburg,15207
Kieler Strasse 31,Aufkirchen,Freistaat Bayern,82282
Kantstraße 29,Annaberg-Buchholz,Freistaat Sachsen,9449
Hans-Grade-Allee 49,Todendorf,Schleswig-Holstein,22965
Ufnau Strasse 89,Memmingen,Freistaat Bayern,87681
Büsingstrasse 20,Gilching,Freistaat Bayern,82195
Flughafenstrasse 38,Windischeschenbach,Freistaat Bayern,92670
Anhalter Strasse 63,Mertesheim,Rheinland-Pfalz,67271
Pasewalker Straße 33,Baden-Baden,Baden-Württemberg,76534
Unter den Linden 37,Magdeburg,Sachsen-Anhalt,39005
Am Borsigturm 17,Neuss Erfttal,Nordrhein-Westfalen,41469
Motzstr. 98,Sankt Katharinen,Rheinland-Pfalz,55595
Schaarsteinweg 29,Mötzing,Freistaat Bayern,93099
Ansbacher Strasse 95,Krummenau,Rheinland-Pfalz,55483
Bayreuther Strasse 9,Reutlingen Storlach,Baden-Württemberg,72760
Fugger Strasse 45,Münster,Nordrhein-Westfalen,48167
Feldstrasse 72,Etgersleben,Sachsen-Anhalt,39448
Schaarsteinweg 76,Falkenstein,Freistaat Bayern,93165
Lietzenburger Straße 75,Bodenteich,Niedersachsen,29389
Büsingstrasse 4,Vierkirchen,Freistaat Bayern,85256
Jenaer Strasse 39,Duisburg,Nordrhein-Westfalen,47166
Marseiller Strasse 11,Hohenthann,Freistaat Bayern,84098
Gotzkowskystrasse 5,Waldmühlen,Rheinland-Pfalz,56479
Lützowplatz 2,Onsdorf,Rheinland-Pfalz,54456
Meininger Strasse 15,Leisel,Rheinland-Pfalz,55767
Pappelallee 94,Adorf,Freistaat Sachsen,8622
Boxhagener Str. 55,Hamburg Hohenfelde,Hamburg,22087
Gruenauer Strasse 40,Schwarzenbek,Schleswig-Holstein,21485
Lietzenburger Strasse 90,Euskirchen,Nordrhein-Westfalen,53881
Hallesches Ufer 91,Perl,Saarland,66706
Hochstrasse 41,Nebel,Schleswig-Holstein,25946
Augsburger Strasse 88,Bereborn,Rheinland-Pfalz,56769
Invalidenstrasse 61,Sankt Martin,Rheinland-Pfalz,67488
Mohrenstrasse 19,Eschbronn,Baden-Württemberg,78664
Bleibtreustrasse 7,Gütersloh Ebbesloh,Nordrhein-Westfalen,33334
Fugger Strasse 7,Potsdam,Brandenburg,14404
Sonnenallee 63,Augsburg,Freistaat Bayern,86010
Chausseestr. 37,Pinneberg,Schleswig-Holstein,25412
Langenhorner Chaussee 41,Altötting,Freistaat Bayern,84496
Hochstrasse 93,Glücksburg,Schleswig-Holstein,24960
Oldesloer Strasse 44,Triptis,Freistaat Thüringen,7817
Rathausstrasse 49,Fürth,Freistaat Bayern,90727
Am Borsigturm 61,Dormagen Stürzelberg,Nordrhein-Westfalen,41541
Neue Roßstr. 12,Esslingen Serach,Baden-Württemberg,73732
Kirchenallee 16,Eichendorf,Freistaat Bayern,94428
Billwerder Neuer Deich 7,Hof,Freistaat Bayern,95005
Bleibtreustraße 55,Volkertshausen,Baden-Württemberg,78269
Karl-Liebknecht-Strasse 11,Affing,Freistaat Bayern,86444
Kurfürstenstraße 68,Möglingen,Baden-Württemberg,71696
Amsinckstrasse 62,Bagenz,Brandenburg,3130
Jenaer Strasse 85,Mülheim an der Ruhr,Nordrhein-Westfalen,45470
Koepenicker Str. 54,Vollmersbach,Rheinland-Pfalz,55758
Jenaer Strasse 16,Essen,Nordrhein-Westfalen,45141
Fischerinsel 8,Viersen Lind,Nordrhein-Westfalen,41751
An Der Urania 57,Hattstedt,Schleswig-Holstein,25856
Neue Roßstr. 83,Trier Olewig,Rheinland-Pfalz,54296
Stresemannstr. 53,Nohfelden,Freistaat Thüringen,66625
Prager Str 63,Gröbenzell,Freistaat Bayern,82183
Jenaer Strasse 76,Oberhausen Alstaden,Nordrhein-Westfalen,46049
Rudower Chaussee 80,Bamberg,Freistaat Bayern,96052
Flughafenstrasse 48,Kümmersbruck,Freistaat Bayern,92245
Lietzensee-Ufer 92,Plessa,Brandenburg,4926
Michaelkirchstr. 56,Felsberg,Hessen,34587
Fugger Strasse 11,Koblenz Goldgrube,Rheinland-Pfalz,56073
Schillerstrasse 57,Gablingen,Freistaat Bayern,86454
Storkower Strasse 7,Plaidt,Rheinland-Pfalz,56637
Gotthardstrasse 28,Erfurt,Freistaat Thüringen,99040
Park Str. 68,Köln Innenstadt,Nordrhein-Westfalen,50672
Knesebeckstrasse 64,Honerath,Rheinland-Pfalz,53518
Luetzowplatz 41,Geichlingen,Rheinland-Pfalz,54675
Gotzkowskystrasse 48,Liebenscheid,Rheinland-Pfalz,56479
Waßmannsdorfer Chaussee 73,Eichwalde,Brandenburg,15728
Rudower Strasse 13,Krautscheid,Rheinland-Pfalz,54673
Hallesches Ufer 91,Schmelz,Freistaat Thüringen,66835
Charlottenstrasse 31,Cottbus,Brandenburg,3050
Grolmanstraße 89,Bremen Tenever,Freie Hansestadt Bremen,28325
Prenzlauer Allee 54,Leipzig,Freistaat Sachsen,4233
Paderborner Strasse 63,Bobingen,Freistaat Bayern,86399
Oldesloer Strasse 44,Triptis,Freistaat Thüringen,7817
Oldesloer Strasse 32,Suhl,Freistaat Thüringen,98501
An Der Urania 55,Stelle-Wittenwurth,Schleswig-Holstein,25795
Holstenwall 71,Mücheln,Sachsen-Anhalt,6249
Reeperbahn 60,Bad Schussenried,Baden-Württemberg,88427
Gubener Str. 21,Oberaudorf,Freistaat Bayern,83076
Invalidenstrasse 18,Hainfeld,Rheinland-Pfalz,76835
Ellmenreichstrasse 18,Neudrossenfeld,Freistaat Bayern,95512
Chausseestr. 93,Witzhave,Schleswig-Holstein,22969
Brandenburgische Straße 20,Berlin Lichtenberg,Berlin,10367
Inge Beisheim Platz 23,Handorf,Niedersachsen,21447
Holstenwall 4,Löbejün,Sachsen-Anhalt,6191
Langenhorner Chaussee 2,Bischofswiesen,Freistaat Bayern,83483
Hardenbergstraße 88,Kirrweiler,Rheinland-Pfalz,67744
Luebecker Strasse 43,Bundorf,Freistaat Bayern,97494
An der Alster 24,Langenhagen,Niedersachsen,30855
Invalidenstrasse 19,Altdorf,Baden-Württemberg,71155
Hoheluftchaussee 87,Laucha,Sachsen-Anhalt,6634
Mühlenstrasse 74,Margetshöchheim,Freistaat Bayern,97276
Billwerder Neuer Deich 19,Hof,Freistaat Bayern,95013
Stuttgarter Platz 1,Senden,Nordrhein-Westfalen,48308
Budapester Strasse 61,Langwedel,Niedersachsen,27299
Hoheluftchaussee 9,Altgarz,Brandenburg,16845
Scharnweberstrasse 13,Heiligkreuzsteinach,Baden-Württemberg,69253
Flotowstr. 56,Beyernaumburg,Sachsen-Anhalt,6528
Schaarsteinweg 29,Mötzing,Freistaat Bayern,93099
Schoenebergerstrasse 79,Stralsund,Mecklenburg-Vorpommern,18412
Rohrdamm 42,Höfer,Niedersachsen,29361
Fischerinsel 22,Viersen Beberich,Nordrhein-Westfalen,41747
An Der Urania 17,Itzehoe,Schleswig-Holstein,25504
Alsterkrugchaussee 95,Bissingen,Freistaat Bayern,86656
Knesebeckstraße 62,Geilenkirchen,Nordrhein-Westfalen,52511
An der Alster 77,Holzhausen,Freistaat Sachsen,4454
Pappelallee 9,Kuhschnappel,Freistaat Sachsen,9356
An der Alster 24,Langenhagen,Niedersachsen,30855
Gotthardstrasse 92,Chemnitz,Freistaat Sachsen,9039
Pappelallee 24,Adorf,Freistaat Sachsen,8621
Kantstrasse 81,Nürnberg,Freistaat Bayern,90431
Meinekestraße 42,Georgsmarienhütte,Niedersachsen,49124
Schmarjestrasse 32,Arensdorf,Sachsen-Anhalt,6369
Stuttgarter Platz 11,Becheln,Rheinland-Pfalz,56132
Ufnau Strasse 34,Osterberg,Freistaat Bayern,89296
Paul-Nevermann-Platz 91,Aura,Freistaat Bayern,97773
Luebecker Strasse 11,Burglengenfeld,Freistaat Bayern,93129
Stuttgarter Platz 1,Senden,Nordrhein-Westfalen,48308
Prenzlauer Allee 17,Halle,Sachsen-Anhalt,6015
Genterstrasse 71,Kiel,Schleswig-Holstein,24123
Charlottenstrasse 44,Dresden,Freistaat Sachsen,1281
Meinekestraße 99,Gehrde,Niedersachsen,49596
Buelowstrasse 89,Höchstberg,Rheinland-Pfalz,56767
Augsburger Strasse 30,Friedewald,Rheinland-Pfalz,57520
Prenzlauer Allee 7,Halle,Sachsen-Anhalt,6013
Landsberger Allee 35,München,Freistaat Bayern,80077
Luebeckertordamm 25,Kirchensittenbach,Freistaat Bayern,91241
Leipziger Strasse 33,Schwienau,Niedersachsen,29593
Konstanzer Strasse 39,Dieburg,Hessen,64807
Paul-Nevermann-Platz 76,Bad Neustadt,Freistaat Bayern,97602
Hollander Strasse 69,Weroth,Rheinland-Pfalz,56414
Guentzelstrasse 15,Hüffelsheim,Rheinland-Pfalz,55595
Lietzenburger Straße 59,Soltendieck,Niedersachsen,29594
Kurfürstenstraße 96,Erligheim,Baden-Württemberg,74391
Konstanzer Strasse 84,Ortenburg,Freistaat Bayern,94493
An der Alster 62,Amt Neuhaus,Niedersachsen,19273
Meinekestraße 33,Eggermühlen,Niedersachsen,49577
Amsinckstrasse 62,Bagenz,Brandenburg,3130
Lietzenburger Strasse 29,Marienheide,Nordrhein-Westfalen,51709
Schoenebergerstrasse 97,Grevesmühlen,Mecklenburg-Vorpommern,23932
Langenhorner Chaussee 2,Bischofswiesen,Freistaat Bayern,83483
Langenhorner Chaussee 11,Übersee,Freistaat Bayern,83236
Inge Beisheim Platz 7,Tangstedt,Schleswig-Holstein,22889
Rudower Strasse 79,Niederpierscheid,Rheinland-Pfalz,54649
Schoenebergerstrasse 33,Netzschkau,Freistaat Sachsen,8486
Knesebeckstrasse 4,Obersteinebach,Rheinland-Pfalz,56593
Jahnstrasse 26,Bad Endorf,Freistaat Bayern,83093
Potsdamer Platz 12,Gestratz,Freistaat Bayern,88167
Messedamm 97,Halle,Sachsen-Anhalt,6045
Kurfürstendamm 87,Rostock,Mecklenburg-Vorpommern,18004
Mühlenstrasse 64,Bamberg,Freistaat Bayern,96017
An Der Urania 66,Oldersbek,Schleswig-Holstein,25873
Michaelkirchstr. 8,Porta Westfalica,Nordrhein-Westfalen,32457
Mellingburgredder 86,Heroldsbach,Freistaat Bayern,91336
Holstenwall 4,Löbejün,Sachsen-Anhalt,6191
Holstenwall 26,Mücheln,Sachsen-Anhalt,6248
Sömmeringstr. 96,Germersheim,Rheinland-Pfalz,76726
Luebecker Strasse 11,Burglengenfeld,Freistaat Bayern,93129
Alt Reinickendorf 92,Burgberg,Freistaat Bayern,87545
Leopoldstraße 96,Berlin Buchholz,Berlin,13127
Luetzowplatz 41,Geichlingen,Rheinland-Pfalz,54675
Joachimstaler Str. 25,Hasselbach,Rheinland-Pfalz,56288
Fasanenstrasse 16,Hamburg Niendorf,Hamburg,22459
Hedemannstasse 54,Lörrach Stetten,Baden-Württemberg,79539
Amsinckstrasse 66,Abtsbessingen,Freistaat Thüringen,99713
Feldstrasse 62,Benneckenstein,Sachsen-Anhalt,38877
Prenzlauer Allee 78,Leipzig,Freistaat Sachsen,4259
Alsterkrugchaussee 83,Wemding,Freistaat Bayern,86648
Unter den Linden 32,Schwerin,Mecklenburg-Vorpommern,19033
Joachimstaler Str. 46,Rödern,Rheinland-Pfalz,55481
Koepenicker Str. 76,Oberbachheim,Rheinland-Pfalz,56355
Jenaer Strasse 76,Oberhausen Alstaden,Nordrhein-Westfalen,46049
Borstelmannsweg 81,Coburg,Freistaat Bayern,96405
Flughafenstrasse 14,Oberviechtach,Freistaat Bayern,92526
Augsburger Strasse 43,Molzhain,Rheinland-Pfalz,57520
Kantstrasse 64,Nürnberg,Freistaat Bayern,90491
Schoenebergerstrasse 25,Stralsund,Mecklenburg-Vorpommern,18410
Mühlenstrasse 4,Würzburg,Freistaat Bayern,97082
Meinekestraße 47,Bad Laer,Niedersachsen,49196
Hermannstrasse 9,Heidelberg Boxberg,Baden-Württemberg,69126
Gotthardstrasse 97,Chemnitz,Freistaat Sachsen,9111
Sömmeringstr. 54,Pforzheim Weststadt,Baden-Württemberg,75172
Chausseestr. 39,Pinneberg,Schleswig-Holstein,25410
Rhinstrasse 75,München,Freistaat Bayern,81301
Alsterkrugchaussee 85,Wemding,Freistaat Bayern,86650
Anhalter Strasse 25,Oberndorf,Niedersachsen,21787
Oldesloer Strasse 19,Lobenstein,Freistaat Thüringen,7352
Knesebeckstrasse 64,Honerath,Rheinland-Pfalz,53518
Kurfürstendamm 35,Rostock,Mecklenburg-Vorpommern,18055
Scharnweberstrasse 49,Mannheim Fahrlach,Baden-Württemberg,68165
Pohlstrasse 6,Hornburg,Niedersachsen,38315
Schaarsteinweg 54,Perkam,Freistaat Bayern,94368
Messedamm 94,Dresden,Freistaat Sachsen,1109
Am Borsigturm 76,Neuss Grimlinghausen,Nordrhein-Westfalen,41468
Kurfuerstendamm 52,Ismaning,Freistaat Bayern,85737
Motzstr. 84,Gensingen,Rheinland-Pfalz,55457
Borstelmannsweg 7,Coburg,Freistaat Bayern,96418
Scharnweberstrasse 84,Schwetzingen,Baden-Württemberg,68723
Fasanenstrasse 82,Hamburg Sankt Pauli,Hamburg,22767
Chausseestr. 35,Aumühle,Schleswig-Holstein,21518
Bleibtreustrasse 77,Gütersloh Spexard,Nordrhein-Westfalen,33334
Pasewalker Straße 33,Baden-Baden,Baden-Württemberg,76534
Guentzelstrasse 15,Hüffelsheim,Rheinland-Pfalz,55595
Lietzensee-Ufer 88,Görlitz,Freistaat Sachsen,2816
Straße der Pariser Kommune 48,Münster,Nordrhein-Westfalen,48151
Holstenwall 26,Mücheln,Sachsen-Anhalt,6248
Alt-Moabit 75,Wildau,Brandenburg,15745
Brandenburgische Str. 36,Talheim,Baden-Württemberg,74388
Storkower Strasse 18,Leutesdorf,Rheinland-Pfalz,56599
Ufnau Strasse 2,Memmingen,Freistaat Bayern,87683
Büsingstrasse 4,Vierkirchen,Freistaat Bayern,85256
Fischerinsel 83,Viersen Rahser,Nordrhein-Westfalen,41747
Koenigstrasse 26,Weimar,Freistaat Thüringen,99408
Knesebeckstrasse 4,Woldert,Rheinland-Pfalz,57614
Schillerstrasse 57,Gablingen,Freistaat Bayern,86454
Invalidenstrasse 95,Hornbach,Rheinland-Pfalz,66500
Nuernbergerstrasse 20,Wildeshausen,Niedersachsen,27793
Kieler Strasse 30,Mühldorf,Freistaat Bayern,84444
Ufnau Strasse 27,Schwangau,Freistaat Bayern,87645
Genterstrasse 59,Kiel,Schleswig-Holstein,24116
Neuer Jungfernstieg 84,Geisenhausen,Freistaat Bayern,84144
Kieler Strasse 31,Aufkirchen,Freistaat Bayern,82282
Kantstraße 60,Zschopau,Freistaat Sachsen,9401
Lützowplatz 2,Onsdorf,Rheinland-Pfalz,54456
Los-Angeles-Platz 84,Braunschweig,Niedersachsen,38116
Reeperbahn 18,Heringsdorf,Schleswig-Holstein,23777
Rohrdamm 27,Wendeburg,Niedersachsen,38176
Hans-Grade-Allee 99,Böklund,Schleswig-Holstein,24858
Mellingburgredder 1,Eckental,Freistaat Bayern,90542
Bleibtreustraße 30,Hasel,Baden-Württemberg,79686
Pohlstrasse 30,Denkte,Niedersachsen,38321
Genslerstraße 91,Berlin Weißensee,Berlin,13088
Hallesches Ufer 32,Wendlingen,Baden-Württemberg,73240
Marseiller Strasse 13,Hainsfarth,Freistaat Bayern,86744
Scharnweberstrasse 8,Mannheim Industriehafen,Baden-Württemberg,68169
Michaelkirchstr. 50,Bad Oeynhausen Innenstadt,Nordrhein-Westfalen,32547
Hollander Strasse 69,Weroth,Rheinland-Pfalz,56414
Rathausstrasse 71,Nürnberg,Freistaat Bayern,90020
Kurfürstendamm 73,Rostock,Mecklenburg-Vorpommern,18013
Rosenstrasse 49,München,Freistaat Bayern,81545
Brandenburgische Strasse 20,Weisenheim am Berg,Rheinland-Pfalz,67273
Langenhorner Chaussee 66,Saaldorf,Freistaat Bayern,83416
Mellingburgredder 86,Heroldsbach,Freistaat Bayern,91336
Boxhagener Str. 50,Hamburg Fuhlsbüttel,Hamburg,22335
Invalidenstrasse 61,Sankt Martin,Rheinland-Pfalz,67488
Marseiller Strasse 13,Hainsfarth,Freistaat Bayern,86744
Büsingstrasse 31,Dachau,Freistaat Bayern,85207
Flughafenstrasse 37,Kemnath,Freistaat Bayern,95478
Holstenwall 73,Berga,Freistaat Thüringen,7977
Boxhagener Str. 17,Hamburg Eidelstedt,Hamburg,22547
Leipziger Straße 16,Wollbrandshausen,Niedersachsen,37434
Unter den Linden 37,Magdeburg,Sachsen-Anhalt,39005
Jenaer Strasse 76,Oberhausen Alstaden,Nordrhein-Westfalen,46049
Langenhorner Chaussee 5,Bad Reichenhall,Freistaat Bayern,83431
Rhinstrasse 96,München,Freistaat Bayern,81241
Lietzenburger Strasse 18,Königswinter,Nordrhein-Westfalen,53639
Charlottenstrasse 80,Cottbus,Brandenburg,3014
Spresstrasse 84,Bielefeld Brönninghausen,Nordrhein-Westfalen,33719
Esplanade 66,Barbing,Freistaat Bayern,93092
Alt-Moabit 59,Ebersbach,Freistaat Sachsen,2728
Budapester Strasse 61,Langwedel,Niedersachsen,27299
Mellingburgredder 2,Herzogenaurach,Freistaat Bayern,91065
Reeperbahn 87,Barth,Mecklenburg-Vorpommern,18352
Hoheluftchaussee 36,Burgscheidungen,Sachsen-Anhalt,6636
Augsburger Strasse 12,Schutzbach,Rheinland-Pfalz,57520
Storkower Strasse 7,Plaidt,Rheinland-Pfalz,56637
Ufnau Strasse 27,Schwangau,Freistaat Bayern,87645
Messedamm 75,Halle,Sachsen-Anhalt,6041
Holstenwall 92,Freist,Sachsen-Anhalt,6347
Schmarjestrasse 75,Langerwisch,Brandenburg,14557
Kurfuerstendamm 24,Heilbronn Sontheim,Baden-Württemberg,74081
Ruschestrasse 7,Gleviner Burg,Mecklenburg-Vorpommern,18273
Kieler Strasse 69,Reit im Winkl,Freistaat Bayern,83237
An Der Urania 51,Breitenberg,Schleswig-Holstein,25597
Eichendorffstr. 98,Konstanz Dingelsdorf,Baden-Württemberg,78465
Rathausstrasse 71,Nürnberg,Freistaat Bayern,90020
Mellingburgredder 1,Eckental,Freistaat Bayern,90542
Jenaer Strasse 85,Mülheim an der Ruhr,Nordrhein-Westfalen,45470
An Der Urania 89,Hohenlockstedt,Schleswig-Holstein,25549
Leipziger Strasse 3,Minden Aminghausen,Nordrhein-Westfalen,32423
Paul-Nevermann-Platz 74,Poppenhausen,Freistaat Bayern,97490
Waldowstr. 6,Ilshofen,Baden-Württemberg,74532
Lietzensee-Ufer 94,Olbersdorf,Freistaat Sachsen,2783
Buelowstrasse 89,Höchstberg,Rheinland-Pfalz,56767
An Der Urania 86,Wewelsfleth,Schleswig-Holstein,25599
Schmarjestrasse 79,Buckau,Brandenburg,14793
Ruschestrasse 63,Stendal,Sachsen-Anhalt,39560
Hollander Strasse 45,Stadtallendorf,Hessen,35260
An der Alster 96,Neustrelitz,Mecklenburg-Vorpommern,17223
Mühlenstrasse 74,Margetshöchheim,Freistaat Bayern,97276
Invalidenstrasse 62,Trulben,Rheinland-Pfalz,66957
Langenhorner Chaussee 2,Bischofswiesen,Freistaat Bayern,83483
Kastanienallee 86,Wymeer,Niedersachsen,26831
Lützowplatz 29,Taben-Rodt,Rheinland-Pfalz,54441
Hardenbergstraße 2,Bosenbach,Rheinland-Pfalz,66887
Rankestraße 85,Greding,Freistaat Bayern,91171
Luebecker Strasse 5,Bundorf,Freistaat Bayern,97494
Landhausstraße 89,Bernau,Baden-Württemberg,79872
Grolmanstraße 86,Bremen Hohentor,Freie Hansestadt Bremen,28199
An der Alster 47,Werder,Brandenburg,14536
Los-Angeles-Platz 69,Braunschweig,Niedersachsen,38102
Ellmenreichstrasse 51,Kulmbach,Freistaat Bayern,95306
Stresemannstr. 53,Nohfelden,Freistaat Thüringen,66625
Schönwalder Allee 51,Osdorf,Schleswig-Holstein,24251
Lietzensee-Ufer 92,Kamenz,Freistaat Sachsen,1911
Alsterkrugchaussee 85,Wemding,Freistaat Bayern,86650
Rudolstaedter Strasse 23,Aschaffenburg,Freistaat Bayern,63708
Joachimstaler Str. 25,Hasselbach,Rheinland-Pfalz,56288
Flotowstr. 83,Wolfen,Sachsen-Anhalt,6755
Heinrich Heine Platz 5,Bad Langensalza,Freistaat Thüringen,99943
Fischerinsel 81,Niederkrüchten,Nordrhein-Westfalen,41372
Waßmannsdorfer Chaussee 5,Ammersbek,Schleswig-Holstein,22947
Eschenweg 71,Ilmenau,Freistaat Thüringen,98684
Luckenwalder Strasse 91,Surwold,Niedersachsen,26903
Kurfuerstendamm 52,Ismaning,Freistaat Bayern,85737
Leopoldstraße 68,Bochum,Nordrhein-Westfalen,44801
Bayreuther Strasse 74,Reutlingen Betzingen,Baden-Württemberg,72770
Kieler Strasse 94,Waldkraiburg,Freistaat Bayern,84470
Scharnweberstrasse 37,Mannheim Schwetzingerstadt,Baden-Württemberg,68161
Paul-Nevermann-Platz 74,Poppenhausen,Freistaat Bayern,97490
Hallesches Ufer 12,Dettingen,Baden-Württemberg,72581
Landhausstraße 29,Fürstenwalde,Brandenburg,15517
Frankfurter Allee 89,Stutensee,Baden-Württemberg,76297
Schoenebergerstrasse 66,Bockau,Freistaat Sachsen,8322
Bissingzeile 3,Bramstedt,Niedersachsen,27628
Hochstrasse 93,Glücksburg,Schleswig-Holstein,24960
Motzstr. 98,Sankt Katharinen,Rheinland-Pfalz,55595
Ansbacher Strasse 30,Oberkirn,Rheinland-Pfalz,55624
Genterstrasse 62,Schwanewede,Niedersachsen,28790
Eichendorffstr. 29,Meersburg,Baden-Württemberg,88709
Genterstrasse 15,Kiel,Schleswig-Holstein,24146
Hollander Strasse 27,Hadamar,Hessen,65589
Koepenicker Str. 54,Vollmersbach,Rheinland-Pfalz,55758
Bayreuther Strasse 71,Frankfurt,Brandenburg,15203
Rhinstrasse 11,München,Freistaat Bayern,81304
Jahnstrasse 32,Bruckmühl,Freistaat Bayern,83046
Hochstrasse 57,Rantum,Schleswig-Holstein,25980
Rosenstrasse 89,München,Freistaat Bayern,81520
Lützowplatz 29,Taben-Rodt,Rheinland-Pfalz,54441
Alt-Moabit 99,Brandenburg,Brandenburg,14732
Sömmeringstr. 72,Illertissen,Freistaat Bayern,89253
Schmarjestrasse 72,Dallgow,Brandenburg,14624
Adenauerallee 57,Adamshof,Mecklenburg-Vorpommern,17091
Luebeckertordamm 89,Iphofen,Freistaat Bayern,97346
Messedamm 51,Coswig,Freistaat Sachsen,1640
Waßmannsdorfer Chaussee 73,Eichwalde,Brandenburg,15728
Michaelkirchstr. 86,Leese,Niedersachsen,31633
Spresstrasse 96,Bremerhaven Fischereihafen,Freie Hansestadt Bremen,27572
Kastanienallee 59,Wirdum,Niedersachsen,26529
Meininger Strasse 15,Leisel,Rheinland-Pfalz,55767
An Der Urania 55,Stelle-Wittenwurth,Schleswig-Holstein,25795
Feldstrasse 18,Beelitz,Brandenburg,14547
Rankestraße 24,Karlshuld,Freistaat Bayern,86668
Frankfurter Allee 89,Stutensee,Baden-Württemberg,76297
Kieler Strasse 76,Reit im Winkl,Freistaat Bayern,83242
Eschenweg 71,Ilmenau,Freistaat Thüringen,98684
Sonnenallee 46,Augsburg,Freistaat Bayern,86046
Schmarjestrasse 53,Kremmen,Brandenburg,16763
An Der Urania 43,Breitenberg,Freistaat Bayern,94139
Nuernbergerstrasse 67,Großenkneten,Niedersachsen,26197
Gotthardstrasse 68,Erfurt,Freistaat Thüringen,99091
Flotowstr. 92,Naumburg,Sachsen-Anhalt,6607
Mollstrasse 50,Nackenheim,Rheinland-Pfalz,55299
Meinekestraße 33,Eggermühlen,Niedersachsen,49577
Ansbacher Strasse 79,Schwerbach,Rheinland-Pfalz,55624
Am Borsigturm 17,Neuss Erfttal,Nordrhein-Westfalen,41469
Hedemannstasse 62,Grenzach-Wyhlen,Baden-Württemberg,79639
Potsdamer Platz 12,Gestratz,Freistaat Bayern,88167
Fasanenstrasse 18,Hamburg Lokstedt,Hamburg,22527
Genterstrasse 87,Kiel,Schleswig-Holstein,24042
Am Borsigturm 76,Neuss Grimlinghausen,Nordrhein-Westfalen,41468
Eichendorffstr. 14,Bisingen,Baden-Württemberg,72406
Hoheluftchaussee 36,Wittstock,Brandenburg,16901
Fugger Strasse 9,Koblenz Asterstein,Rheinland-Pfalz,56077
Eichendorffstr. 98,Konstanz Dingelsdorf,Baden-Württemberg,78465
Gotzkowskystrasse 68,Mündersbach,Rheinland-Pfalz,56271
Motzstr. 34,Lorch,Hessen,65391
Schaarsteinweg 54,Perkam,Freistaat Bayern,94368
Ansbacher Strasse 26,Schönecken,Rheinland-Pfalz,54614
Amsinckstrasse 49,Hosena,Brandenburg,1996
Kurfürstendamm 87,Rostock,Mecklenburg-Vorpommern,18004
Lietzensee-Ufer 48,Görlitz,Freistaat Sachsen,2808
Esplanade 61,Maxhütte-Haidhof,Freistaat Bayern,93139
Augsburger Strasse 45,Fuchshof,Freistaat Bayern,91344
Schönhauser Allee 74,Eichstetten,Baden-Württemberg,79356
Genterstrasse 71,Kiel,Schleswig-Holstein,24123
Schönwalder Allee 35,Osterrönfeld,Schleswig-Holstein,24783
Alt Reinickendorf 90,Salgen,Freistaat Bayern,87775
Fischerinsel 81,Niederkrüchten,Nordrhein-Westfalen,41372
Schoenebergerstrasse 36,Bockau,Freistaat Sachsen,8324
Schoenebergerstrasse 98,Stralsund,Mecklenburg-Vorpommern,18413
Bleibtreustraße 72,Bad Säckingen,Baden-Württemberg,79713
Jahnstrasse 83,Lengdorf,Freistaat Bayern,84435
Paul-Nevermann-Platz 57,Bad Königshofen,Freistaat Bayern,97628
Eichendorffstr. 99,Wörnersberg,Baden-Württemberg,72299
Bayreuther Strasse 9,Reutlingen Storlach,Baden-Württemberg,72760
Motzstr. 23,Schornsheim,Rheinland-Pfalz,55288
Pohlstrasse 74,Cramme,Niedersachsen,38312
Oldesloer Strasse 58,Schömberg,Baden-Württemberg,72355
Lützowplatz 7,Neroth,Rheinland-Pfalz,54570
Ansbacher Strasse 39,Maring-Noviand,Rheinland-Pfalz,54484
Jenaer Strasse 7,Königslutter am Elm,Niedersachsen,38154
Boxhagener Str. 3,Hamburg Eidelstedt,Hamburg,22527
Ansbacher Strasse 30,Oberkirn,Rheinland-Pfalz,55624
Gruenauer Strasse 40,Schwarzenbek,Schleswig-Holstein,21485
Genterstrasse 58,Bad Schwartau,Schleswig-Holstein,23603
Messedamm 50,Dresden,Freistaat Sachsen,1097
Langenhorner Chaussee 53,Freilassing,Freistaat Bayern,83388
Alsterkrugchaussee 42,Wilhermsdorf,Freistaat Bayern,91452
Genslerstraße 79,Berlin Wedding,Berlin,13409
Joachimstaler Str. 90,Riesweiler,Rheinland-Pfalz,55499
Waßmannsdorfer Chaussee 5,Ammersbek,Schleswig-Holstein,22947
Fugger Strasse 97,Koblenz Ehrenbreitstein,Rheinland-Pfalz,56076
Inge Beisheim Platz 9,Artlenburg,Niedersachsen,21380
Eschenweg 44,Jena,Freistaat Thüringen,7705
Mühlenstrasse 21,Veitshöchheim,Freistaat Bayern,97206
Koepenicker Str. 93,Breitenthal,Freistaat Bayern,86488
Chausseestr. 35,Aumühle,Schleswig-Holstein,21518
Kantstraße 73,Meiningen,Freistaat Thüringen,98601
Paul-Nevermann-Platz 70,Bad Neustadt,Freistaat Bayern,97606
Gotthardstrasse 88,Kirchheim,Freistaat Bayern,85547
Hedemannstasse 10,Ostrach,Baden-Württemberg,88356
Bayreuther Strasse 32,Frankfurt,Brandenburg,15207
Los-Angeles-Platz 20,Norderstedt,Schleswig-Holstein,22809
Sömmeringstr. 32,Rheinzabern,Rheinland-Pfalz,76764
Nuernbergerstrasse 67,Großenkneten,Niedersachsen,26197
An Der Urania 51,Breitenberg,Schleswig-Holstein,25597
Hoheluftchaussee 60,Schkeuditz,Freistaat Sachsen,4431
Ziegelstr. 19,Pfarrkirchen,Freistaat Bayern,84344
Kantstrasse 64,Nürnberg,Freistaat Bayern,90491
Rosenstrasse 47,München,Freistaat Bayern,81308
Lietzensee-Ufer 85,Pirna,Freistaat Sachsen,1781
Mellingburgredder 73,Erlangen,Freistaat Bayern,91002
Brandenburgische Straße 20,Berlin Lichtenberg,Berlin,10367
Straße der Pariser Kommune 36,Münster,Nordrhein-Westfalen,48149
Messedamm 5,Halle,Sachsen-Anhalt,6112
Karl-Liebknecht-Strasse 94,Prinzhöfte,Niedersachsen,27243
Pappelallee 2,Leubsdorf,Rheinland-Pfalz,53547
Eichendorffstr. 8,Konstanz Litzelstetten,Baden-Württemberg,78464
Joachimstaler Str. 30,Geisig,Rheinland-Pfalz,56357
Hans-Grade-Allee 23,Husum,Niedersachsen,31632
Gruenauer Strasse 92,Stemmen,Niedersachsen,27389
Lange Strasse 12,Schwarmstedt,Niedersachsen,29690
Augsburger Straße 4,Hamm,Rheinland-Pfalz,67580
Eichendorffstr. 52,Hergatz,Freistaat Bayern,88143
Hollander Strasse 96,Buseck,Hessen,35418
Amsinckstrasse 11,Annaburg,Sachsen-Anhalt,6925
Landsberger Allee 63,München,Freistaat Bayern,80098
Schönwalder Allee 70,Eckernförde,Schleswig-Holstein,24331
Flughafenstrasse 53,Amberg,Freistaat Bayern,92224
Fugger Strasse 46,Potsdam,Brandenburg,14478
Amsinckstrasse 28,Glashütte,Freistaat Sachsen,1766
Waßmannsdorfer Chaussee 5,Ammersbek,Schleswig-Holstein,22947
Unter den Linden 38,Magdeburg,Sachsen-Anhalt,39017
Amsinckstrasse 40,Prettin,Sachsen-Anhalt,6920
Ziegelstr. 5,Jandelsbrunn,Freistaat Bayern,94118
Gotzkowskystrasse 41,Bachenberg,Rheinland-Pfalz,57610
Gotzkowskystrasse 68,Mündersbach,Rheinland-Pfalz,56271
Kantstraße 48,Gersdorf,Freistaat Sachsen,9355
Hochstrasse 93,Glücksburg,Schleswig-Holstein,24960
Brandenburgische Str 38,Norath,Rheinland-Pfalz,56291
Heinrich Heine Platz 50,Löbau,Freistaat Sachsen,2704
Alt-Moabit 43,Grimma,Freistaat Sachsen,4661
Waldowstr. 6,Ilshofen,Baden-Württemberg,74532
Paul-Nevermann-Platz 64,Bad Neustadt,Freistaat Bayern,97603
Prager Str 89,Gröbenzell,Freistaat Bayern,82182
Nuernbergerstrasse 16,Friedeburg,Niedersachsen,26446
Ruschestrasse 32,Stendal,Sachsen-Anhalt,39560
Rathausstrasse 85,Nürnberg,Freistaat Bayern,90122
Pohlstrasse 30,Denkte,Niedersachsen,38321
Spresstrasse 96,Bremerhaven Fischereihafen,Freie Hansestadt Bremen,27572
Invalidenstrasse 39,Lindenberg,Rheinland-Pfalz,67473
Lange Strasse 77,München,Freistaat Bayern,81927
Stresemannstr. 17,Tholey,Saarland,66636
Sonnenallee 63,Augsburg,Freistaat Bayern,86010
Gotzkowskystraße 52,Salzkotten,Nordrhein-Westfalen,33154
Schoenebergerstrasse 63,Erlabrunn,Freistaat Bayern,97250
Sömmeringstr. 19,Weißenhorn,Freistaat Bayern,89258
Invalidenstrasse 61,Sankt Martin,Rheinland-Pfalz,67488
Rudolstaedter Strasse 31,Schöllkrippen,Freistaat Bayern,63821
Rudower Chaussee 35,Bad Kissingen,Freistaat Bayern,97672
Hoheluftchaussee 60,Schkeuditz,Freistaat Sachsen,4431
Invalidenstrasse 19,Altdorf,Baden-Württemberg,71155
An der Schillingbrucke 92,Riesbürg,Baden-Württemberg,73469
Gruenauer Strasse 59,Buxtehude,Niedersachsen,21614
Ansbacher Strasse 26,Schönecken,Rheinland-Pfalz,54614
Rudolstaedter Strasse 31,Schöllkrippen,Freistaat Bayern,63821
Grolmanstraße 4,Bremen Blockdiek,Freie Hansestadt Bremen,28327
Kurfuerstendamm 49,Germering,Freistaat Bayern,82104
Fugger Strasse 54,Dessau,Sachsen-Anhalt,6812
Sonnenallee 88,Augsburg,Freistaat Bayern,86015
Oldesloer Strasse 19,Lobenstein,Freistaat Thüringen,7352
Wallstrasse 47,Müllenbach,Rheinland-Pfalz,56761
Fischerinsel 66,Mönchengladbach Hardt,Nordrhein-Westfalen,41169
Prenzlauer Allee 78,Leipzig,Freistaat Sachsen,4259
Marseiller Strasse 47,Unterammergau,Freistaat Bayern,82497
Rudolstaedter Strasse 33,Friedrichsdorf,Hessen,61381
Hoheluftchaussee 87,Laucha,Sachsen-Anhalt,6634
Gubener Str. 90,Rotwandhaus,Freistaat Bayern,83727
Joachimstaler Str. 15,Wüschheim,Rheinland-Pfalz,55471
Bleibtreustrasse 83,Bad Lippspringe,Nordrhein-Westfalen,33175
Lietzensee-Ufer 88,Görlitz,Freistaat Sachsen,2816
Lange Strasse 6,Planegg,Freistaat Bayern,82143
Michaelkirchstr. 26,Minden Päpinghausen,Nordrhein-Westfalen,32425
Stuttgarter Platz 6,Everswinkel,Nordrhein-Westfalen,48351
Oldesloer Strasse 44,Triptis,Freistaat Thüringen,7817
Hallesches Ufer 32,Wendlingen,Baden-Württemberg,73240
Michaelkirchstr. 8,Porta Westfalica,Nordrhein-Westfalen,32457
Motzstr. 45,Geisenheim,Hessen,65366
Alt Reinickendorf 48,Lengenwang,Freistaat Bayern,87663
Paul-Nevermann-Platz 64,Bad Neustadt,Freistaat Bayern,97603
Marseiller Strasse 95,Hainsfarth,Freistaat Bayern,86744
Waßmannsdorfer Chaussee 33,Berlin Zehlendorf,Berlin,14167
Adenauerallee 57,Adamshof,Mecklenburg-Vorpommern,17091
Gotthardstrasse 27,Erfurt,Freistaat Thüringen,99022
Holstenwall 33,Helbra,Sachsen-Anhalt,6311
Hedemannstasse 28,Krauchenwies,Baden-Württemberg,72505
Rudolstaedter Strasse 56,Pohlheim,Hessen,35415
Lietzensee-Ufer 85,Pirna,Freistaat Sachsen,1781
Buelowstrasse 27,Uersfeld,Rheinland-Pfalz,56767
Prenzlauer Allee 7,Halle,Sachsen-Anhalt,6013
Rosenstrasse 47,München,Freistaat Bayern,81506
An der Alster 34,Gommern,Sachsen-Anhalt,39242
Landhausstraße 48,Fürstenwalde,Brandenburg,15501
Wallstrasse 6,Urmersbach,Rheinland-Pfalz,56761
Waßmannsdorfer Chaussee 62,Barsbüttel,Schleswig-Holstein,22881
Marseiller Strasse 95,Hainsfarth,Freistaat Bayern,86744
Genslerstraße 96,Berlin Schöneberg,Berlin,12103
Leipziger Strasse 35,Wiesbaden,Hessen,65191
Lange Strasse 12,Schwarmstedt,Niedersachsen,29690
Leopoldstraße 62,Berlin Dahlem,Berlin,14195
Kirchenallee 75,Deggendorf,Freistaat Bayern,94454
Luetzowplatz 53,Steinborn,Rheinland-Pfalz,54655
Eichendorffstr. 68,Amtzell,Baden-Württemberg,88279
Alsterkrugchaussee 83,Wemding,Freistaat Bayern,86648
Sömmeringstr. 96,Germersheim,Rheinland-Pfalz,76726
Gruenauer Strasse 21,Sauensiek,Niedersachsen,21644
Michaelkirchstr. 8,Bad Karlshafen,Hessen,34385
Meinekestraße 99,Gehrde,Niedersachsen,49596
Konstanzer Strasse 56,Rothenberg,Hessen,64757
Lietzenburger Strasse 90,Euskirchen,Nordrhein-Westfalen,53881
Albrechtstrasse 55,Traunstein,Freistaat Bayern,83267
Leipziger Strasse 86,Minden,Rheinland-Pfalz,54310
Luebecker Strasse 11,Burglengenfeld,Freistaat Bayern,93129
Brandenburgische Strasse 85,Burrweiler,Rheinland-Pfalz,76835
Leipziger Strasse 86,Minden,Rheinland-Pfalz,54310
Rosenstrasse 52,München,Freistaat Bayern,81458
Luebecker Strasse 62,Burglengenfeld,Freistaat Bayern,93129
Ziegelstr. 96,Aidenbach,Freistaat Bayern,94497
Alter Wall 41,Burgsinn,Freistaat Bayern,97775
Landhausstraße 92,Oranienburg,Brandenburg,16501
Landhausstraße 52,Stahnsdorf,Brandenburg,14526
Stresemannstr. 55,Nohfelden,Freistaat Thüringen,66624
Lietzenburger Straße 75,Bodenteich,Niedersachsen,29389
Fasanenstrasse 93,Hamburg Rönneburg,Hamburg,21079
Rudolstaedter Strasse 85,Aschaffenburg,Freistaat Bayern,63723
Mollstrasse 48,Flörsheim am Main,Hessen,65439
Scharnweberstrasse 8,Mannheim Industriehafen,Baden-Württemberg,68169
Ansbacher Strasse 2,Schneppenbach,Rheinland-Pfalz,55608
Stresemannstr. 38,Gersheim,Saarland,66453
Flotowstr. 83,Wolfen,Sachsen-Anhalt,6755
Hoheluftchaussee 87,Laucha,Sachsen-Anhalt,6634
Straße der Pariser Kommune 90,Bonn,Nordrhein-Westfalen,53119
Fugger Strasse 69,Grube,Brandenburg,14469
Anhalter Strasse 18,Hauptstuhl,Rheinland-Pfalz,66851
Paul-Nevermann-Platz 20,Poppenhausen,Freistaat Bayern,97489
Oldesloer Strasse 5,Mühltroff,Freistaat Sachsen,7917
Lützowplatz 73,Mückeln,Rheinland-Pfalz,54558
Spresstrasse 84,Bielefeld Brönninghausen,Nordrhein-Westfalen,33719
Ansbacher Strasse 95,Krummenau,Rheinland-Pfalz,55483
Waßmannsdorfer Chaussee 5,Ammersbek,Schleswig-Holstein,22947
Prenzlauer Allee 17,Halle,Sachsen-Anhalt,6015
Motzstr. 24,Frei-Laubersheim,Rheinland-Pfalz,55546
Pasewalker Straße 37,Pforzheim Innenstadt,Baden-Württemberg,75175
Koenigstrasse 26,Weimar,Freistaat Thüringen,99408
Eschenweg 94,Elsterberg,Freistaat Sachsen,7982
Guentzelstrasse 24,Wartenberg,Freistaat Bayern,85453
Boxhagener Str. 50,Hamburg Fuhlsbüttel,Hamburg,22335
Pohlstrasse 6,Hornburg,Niedersachsen,38315
Bleibtreustrasse 7,Gütersloh Ebbesloh,Nordrhein-Westfalen,33334
Luetzowplatz 6,Minderlittgen,Rheinland-Pfalz,54518
Inge Beisheim Platz 52,Wriedel,Niedersachsen,29565
Mohrenstrasse 19,Eschbronn,Baden-Württemberg,78664
Anhalter Strasse 30,Mittelbrunn,Rheinland-Pfalz,66851
Charlottenstrasse 31,Cottbus,Brandenburg,3050
Knesebeckstraße 93,Iserlohn,Nordrhein-Westfalen,58644
Chausseestr. 93,Witzhave,Schleswig-Holstein,22969
Lietzenburger Strasse 29,Marienheide,Nordrhein-Westfalen,51709
Schaarsteinweg 26,Straßkirchen,Freistaat Bayern,94340
Flotowstr. 45,Beyernaumburg,Sachsen-Anhalt,6528
Holstenwall 33,Helbra,Sachsen-Anhalt,6311
Unter den Linden 37,Magdeburg,Sachsen-Anhalt,39005
Pappelallee 51,Dermbach,Freistaat Thüringen,36466
Spresstrasse 89,Bielefeld Innenstadt,Nordrhein-Westfalen,33611
Invalidenstrasse 39,Lindenberg,Rheinland-Pfalz,67473
Knesebeckstrasse 4,Woldert,Rheinland-Pfalz,57614
Straße der Pariser Kommune 36,Münster,Nordrhein-Westfalen,48149
Paul-Nevermann-Platz 57,Bad Königshofen,Freistaat Bayern,97628
Amsinckstrasse 40,Prettin,Sachsen-Anhalt,6920
Spresstrasse 61,Bremerhaven Mitte,Freie Hansestadt Bremen,27576
Ansbacher Strasse 78,Gösenroth,Rheinland-Pfalz,55624
Eichendorffstr. 8,Konstanz Litzelstetten,Baden-Württemberg,78464
Genslerstraße 63,Berlin Spandau,Berlin,13593
Grolmanstraße 65,Bremen Buntentor,Freie Hansestadt Bremen,28201
Pohlstrasse 25,Bad Harzburg,Niedersachsen,38667
Hollander Strasse 45,Stadtallendorf,Hessen,35260
Augsburger Strasse 43,Molzhain,Rheinland-Pfalz,57520
Potsdamer Platz 88,Altusried,Freistaat Bayern,87452
Park Str. 68,Köln Innenstadt,Nordrhein-Westfalen,50672
Stuttgarter Platz 77,Selm,Nordrhein-Westfalen,59379
Heinrich Heine Platz 34,Aspach,Freistaat Thüringen,99880
Paul-Nevermann-Platz 24,Hammelburg,Freistaat Bayern,97756
Kastanienallee 30,Lehe,Niedersachsen,26892
Stuttgarter Platz 2,Oberwies,Rheinland-Pfalz,56379
Michaelkirchstr. 26,Minden Päpinghausen,Nordrhein-Westfalen,32425
Genterstrasse 22,Stockelsdorf,Schleswig-Holstein,23613
Fasanenstrasse 38,Hamburg Osdorf,Hamburg,22547
Ansbacher Strasse 57,Hahn,Rheinland-Pfalz,56850
Paderborner Strasse 41,Apfeltrach,Freistaat Bayern,87742
Boxhagener Str. 16,Hamburg Hammerbrook,Hamburg,20537
Paderborner Strasse 40,Fuchstal,Freistaat Bayern,86925
Flughafenstrasse 69,Tirschenreuth,Freistaat Bayern,95637
Invalidenstrasse 16,Hainfeld,Rheinland-Pfalz,76835
Joachimstaler Str. 84,Keidelheim,Rheinland-Pfalz,55471
Kastanienallee 85,Friedrichstadt,Schleswig-Holstein,25838
Stuttgarter Platz 14,Untershausen,Rheinland-Pfalz,56412
Gotzkowskystraße 52,Salzkotten,Nordrhein-Westfalen,33154
Friedrichstrasse 38,Düsseldorf Hellerhof,Nordrhein-Westfalen,40595
Grolmanstraße 42,Bremen Neue Vahr Südost,Freie Hansestadt Bremen,28327
Hardenbergstraße 1,Erdesbach,Rheinland-Pfalz,66887
Waldowstr. 16,Obergröningen,Baden-Württemberg,73569
Rohrdamm 90,Lachendorf,Niedersachsen,29331
Rudower Chaussee 80,Bamberg,Freistaat Bayern,96052
Oldesloer Strasse 58,Braunsdorf,Freistaat Sachsen,1737
Leipziger Straße 16,Wollbrandshausen,Niedersachsen,37434
Heinrich Heine Platz 92,Neusalza-Spremberg,Freistaat Sachsen,2740
Stuttgarter Platz 77,Selm,Nordrhein-Westfalen,59379
Mellingburgredder 95,Langensendelbach,Freistaat Bayern,91094
Rudolstaedter Strasse 15,Bawinkel,Niedersachsen,49844
Billwerder Neuer Deich 11,Naila,Freistaat Bayern,95112
Stuttgarter Platz 14,Untershausen,Rheinland-Pfalz,56412
Hans-Grade-Allee 99,Böklund,Schleswig-Holstein,24858
Nuernbergerstrasse 60,Scharbeutz,Schleswig-Holstein,23677
Joachimstaler Str. 74,Geisig,Rheinland-Pfalz,56357
Spresstrasse 61,Bremerhaven Mitte,Freie Hansestadt Bremen,27576
Feldstrasse 18,Beelitz,Brandenburg,14547
Luetzowplatz 53,Steinborn,Rheinland-Pfalz,54655
Rathausstrasse 16,Asbach-Bäumenheim,Freistaat Bayern,86663
Paul-Nevermann-Platz 20,Poppenhausen,Freistaat Bayern,97489
Chausseestr. 29,Pinneberg,Schleswig-Holstein,25409
Leipziger Straße 89,Pegestorf,Niedersachsen,37619
Landsberger Allee 67,München,Freistaat Bayern,80528
Stuttgarter Platz 19,Sulzbach,Rheinland-Pfalz,56379
Flotowstr. 47,Merseburg,Sachsen-Anhalt,6203
Gotthardstrasse 28,Erfurt,Freistaat Thüringen,99040
Gotzkowskystrasse 61,Hemmelzen,Rheinland-Pfalz,57612
Holstenwall 90,Allstedt,Sachsen-Anhalt,6542
Motzstr. 45,Geisenheim,Hessen,65366
Koenigstrasse 52,Zimmern,Baden-Württemberg,72369
Landhausstraße 89,Bernau,Baden-Württemberg,79872
Rudower Strasse 99,Fischbach-Oberraden,Rheinland-Pfalz,54675
Landhausstraße 52,Stahnsdorf,Brandenburg,14526
Eichendorffstr. 73,Friedrichshafen Schnetzenhausen,Baden-Württemberg,88045
Lützowplatz 99,Onsdorf,Rheinland-Pfalz,54456
Messedamm 5,Halle,Sachsen-Anhalt,6112
Schillerstrasse 33,Landsberg,Freistaat Bayern,86896
Wallstrasse 72,Kaifenheim,Rheinland-Pfalz,56761
An der Schillingbrucke 68,Drackenstein,Baden-Württemberg,73345
Landhausstraße 48,Fürstenwalde,Brandenburg,15501
Gubener Str. 21,Oberaudorf,Freistaat Bayern,83076
Karl-Liebknecht-Strasse 69,Affing,Freistaat Bayern,86442
Karl-Liebknecht-Strasse 94,Prinzhöfte,Niedersachsen,27243
Kantstraße 60,Zschopau,Freistaat Sachsen,9401
Holstenwall 28,Selbitz,Freistaat Bayern,95147
Gruenauer Strasse 17,Ahlerstedt,Niedersachsen,21702
Schmarjestrasse 31,Bahro,Brandenburg,15898
Fischerinsel 81,Niederkrüchten,Nordrhein-Westfalen,41372
Charlottenstrasse 30,Tharandt,Freistaat Sachsen,1735
Holstenwall 73,Berga,Freistaat Thüringen,7977
Hardenbergstraße 85,Kollweiler,Rheinland-Pfalz,66879
Michaelkirchstr. 49,Bad Oeynhausen Lohe,Nordrhein-Westfalen,32545
Heinrich Heine Platz 34,Aspach,Freistaat Thüringen,99880
Leipziger Strasse 18,Osnabrück,Niedersachsen,49074
Lietzenburger Straße 75,Bodenteich,Niedersachsen,29389
Scharnweberstrasse 37,Mannheim Schwetzingerstadt,Baden-Württemberg,68161
Bleibtreustraße 36,Oberwolfach,Baden-Württemberg,77709
Grolmanstraße 76,Bremen Borgfeld,Freie Hansestadt Bremen,28357
Gruenauer Strasse 52,Geesthacht,Schleswig-Holstein,21495
Langenhorner Chaussee 41,Altötting,Freistaat Bayern,84496
Hedemannstasse 78,Veringenstadt,Baden-Württemberg,72519
Jahnstrasse 32,Bruckmühl,Freistaat Bayern,83046
Chausseestr. 36,Quickborn,Schleswig-Holstein,25443
Schoenebergerstrasse 25,Stralsund,Mecklenburg-Vorpommern,18410
Ellmenreichstrasse 50,Hiltpoltstein,Freistaat Bayern,91355
Neuer Jungfernstieg 92,Landshut,Freistaat Bayern,84003
Heinrich Heine Platz 93,Heilbad Heiligenstadt,Freistaat Thüringen,37301
Paderborner Strasse 2,Schrobenhausen,Freistaat Bayern,86521
Kantstraße 73,Meiningen,Freistaat Thüringen,98601
Hans-Grade-Allee 39,Alt Mölln,Schleswig-Holstein,23881
Hermannstrasse 9,Heidelberg Boxberg,Baden-Württemberg,69126
Langenhorner Chaussee 5,Bad Reichenhall,Freistaat Bayern,83431
Langenhorner Chaussee 5,Bad Reichenhall,Freistaat Bayern,83431
Bleibtreustraße 36,Oberwolfach,Baden-Württemberg,77709
Hedemannstasse 57,Isny,Baden-Württemberg,88316
Meinekestraße 55,Barnstorf,Niedersachsen,49406
Mollstrasse 85,Wackernheim,Rheinland-Pfalz,55263
An Der Urania 92,Brunsbüttel,Schleswig-Holstein,25536
Storkower Strasse 13,Neuhäusel,Rheinland-Pfalz,56335
Fugger Strasse 97,Koblenz Ehrenbreitstein,Rheinland-Pfalz,56076
Meinekestraße 8,Bippen,Niedersachsen,49626
Brandenburgische Straße 20,Berlin Lichtenberg,Berlin,10367
Marseiller Strasse 47,Unterammergau,Freistaat Bayern,82497
Knesebeckstrasse 41,Oberlahr,Rheinland-Pfalz,57641
Albrechtstrasse 90,Traunstein,Freistaat Bayern,83269
Hedemannstasse 79,Hettingen,Baden-Württemberg,72513
Mühlenstrasse 74,Margetshöchheim,Freistaat Bayern,97276
Landsberger Allee 63,München,Freistaat Bayern,80098
Straße der Pariser Kommune 48,Münster,Nordrhein-Westfalen,48151
Hallesches Ufer 12,Dettingen,Baden-Württemberg,72581
Guentzelstrasse 60,Feusdorf,Rheinland-Pfalz,54584
An der Schillingbrucke 68,Drackenstein,Baden-Württemberg,73345
Jenaer Strasse 59,Wuppertal Elberfeld,Nordrhein-Westfalen,42115
Rathausstrasse 85,Nürnberg,Freistaat Bayern,90122
Meinekestraße 70,Lienen,Nordrhein-Westfalen,49536
Schönwalder Allee 99,Neukirchen,Freistaat Sachsen,8457
Lietzenburger Straße 59,Soltendieck,Niedersachsen,29594
Fasanenstrasse 93,Hamburg Rönneburg,Hamburg,21079
Rhinstrasse 89,München,Freistaat Bayern,80997
Knesebeckstrasse 41,Oberlahr,Rheinland-Pfalz,57641
Kieler Strasse 94,Waldkraiburg,Freistaat Bayern,84470
Kieler Strasse 76,Reit im Winkl,Freistaat Bayern,83242
Billwerder Neuer Deich 15,Warmensteinach,Freistaat Bayern,95485
Lietzenburger Strasse 2,Lohmar,Nordrhein-Westfalen,53797
Ansbacher Strasse 78,Gösenroth,Rheinland-Pfalz,55624
Ufnau Strasse 82,Füssen,Freistaat Bayern,87622
Alt Reinickendorf 76,Balzhausen,Freistaat Bayern,86483
Rudolstaedter Strasse 85,Aschaffenburg,Freistaat Bayern,63723
Meininger Strasse 49,Marpingen,Freistaat Thüringen,66646
Landhausstraße 55,Zehdenick,Brandenburg,16787
Koepenicker Str. 92,Reichenbach,Baden-Württemberg,73262
Augsburger Strasse 34,Pomster,Rheinland-Pfalz,53534
Gotzkowskystrasse 32,Binningen,Rheinland-Pfalz,56754
Hochstrasse 51,Westerland,Schleswig-Holstein,25963
Kurfürstenstraße 33,Erligheim,Baden-Württemberg,74391
Ufnau Strasse 82,Füssen,Freistaat Bayern,87622
Knesebeckstrasse 74,Forst,Brandenburg,3141
Fugger Strasse 54,Dessau,Sachsen-Anhalt,6812
Schmarjestrasse 7,Buckau,Brandenburg,14793
Ellmenreichstrasse 61,Forchheim,Freistaat Bayern,91291
Ufnau Strasse 27,Schwangau,Freistaat Bayern,87645
Jenaer Strasse 16,Essen,Nordrhein-Westfalen,45141
Marseiller Strasse 91,Murnau,Freistaat Bayern,82413
Mellingburgredder 3,Heroldsbach,Freistaat Bayern,91336
Paul-Nevermann-Platz 24,Hammelburg,Freistaat Bayern,97756
Rudolstaedter Strasse 71,Frammersbach,Freistaat Bayern,97830
Luebeckertordamm 47,Vorra,Freistaat Bayern,91247
Oldesloer Strasse 39,Lobenstein,Freistaat Thüringen,7351
Gotzkowskystrasse 61,Hemmelzen,Rheinland-Pfalz,57612
Lietzenburger Strasse 77,Euskirchen,Nordrhein-Westfalen,53881
Brandenburgische Str 90,Becherbach bei Kirn,Rheinland-Pfalz,55608
Prenzlauer Allee 54,Leipzig,Freistaat Sachsen,4233
Gotthardstrasse 68,Erfurt,Freistaat Thüringen,99091
Jahnstrasse 45,Wurmsham,Freistaat Bayern,84189
Brandenburgische Strasse 34,Ranschbach,Rheinland-Pfalz,76829
Eichendorffstr. 73,Friedrichshafen Schnetzenhausen,Baden-Württemberg,88045
Leopoldstraße 62,Berlin Dahlem,Berlin,14195
Spresstrasse 78,Bremerhaven Wulsdorf,Freie Hansestadt Bremen,27572
Bissingzeile 31,Helgoland,Schleswig-Holstein,27484
Mühlenstrasse 93,Regensburg,Freistaat Bayern,93027
Paderborner Strasse 68,Oberrieden,Freistaat Bayern,87769
Sonnenallee 50,Augsburg,Freistaat Bayern,86032
Holstenwall 28,Selbitz,Freistaat Bayern,95147
Rankestraße 74,Lenting,Freistaat Bayern,85099
Los-Angeles-Platz 62,Hamburg Winterhude,Hamburg,22305
Schoenebergerstrasse 95,Saal,Freistaat Bayern,93342
Büsingstrasse 91,Hebertshausen,Freistaat Bayern,85239
Brandenburgische Straße 64,Berlin Kaulsdorf,Berlin,12621
Anhalter Strasse 25,Oberndorf,Niedersachsen,21787
Flotowstr. 45,Wolfen,Sachsen-Anhalt,6756
Fontenay 5,Pottenstein,Freistaat Bayern,91278
Karl-Liebknecht-Strasse 11,Affing,Freistaat Bayern,86444
Rhinstrasse 9,München,Freistaat Bayern,81203
Invalidenstrasse 18,Hainfeld,Rheinland-Pfalz,76835
Jenaer Strasse 59,Wuppertal Elberfeld,Nordrhein-Westfalen,42115
Neue Roßstr. 10,Bad Kreuznach Planig,Rheinland-Pfalz,55545
Bleibtreustrasse 39,Nieheim,Nordrhein-Westfalen,33039
Guentzelstrasse 26,Gutenberg,Rheinland-Pfalz,55595
Wallstrasse 41,Breitscheid,Rheinland-Pfalz,53547
Kantstraße 73,Meiningen,Freistaat Thüringen,98601
Ufnau Strasse 2,Memmingen,Freistaat Bayern,87683
Landsberger Allee 63,München,Freistaat Bayern,80068
Hans-Grade-Allee 23,Husum,Niedersachsen,31632
Lietzensee-Ufer 94,Olbersdorf,Freistaat Sachsen,2783
Potsdamer Platz 24,Mörnsheim,Freistaat Bayern,91804
Hermannstrasse 40,Heidelberg Ziegelhausen,Baden-Württemberg,69118
Ufnau Strasse 67,Eggenthal,Freistaat Bayern,87653
Oldesloer Strasse 22,Crossen,Freistaat Sachsen,8129
Gruenauer Strasse 50,Trittau,Schleswig-Holstein,22943
Am Borsigturm 75,Neuss Stadionviertel,Nordrhein-Westfalen,41464
Grolmanstraße 19,Bremen Aumund-Hammersbeck,Freie Hansestadt Bremen,28755
Flotowstr. 45,Wolfen,Sachsen-Anhalt,6756
Pasewalker Straße 28,Birkenfeld,Baden-Württemberg,75217
Gotzkowskystraße 65,Bad Endbach,Hessen,35080
Bleibtreustraße 72,Bad Säckingen,Baden-Württemberg,79713
Fugger Strasse 5,Potsdam,Brandenburg,14471
Flughafenstrasse 88,Ensdorf,Saarland,66806
Fischerinsel 8,Viersen Lind,Nordrhein-Westfalen,41751
Mollstrasse 2,Weiterstadt,Hessen,64331
Kieler Strasse 69,Reit im Winkl,Freistaat Bayern,83237
Hedemannstasse 68,Wittlingen,Baden-Württemberg,79599
Konstanzer Strasse 56,Rothenberg,Hessen,64757
Am Borsigturm 99,Krefeld,Nordrhein-Westfalen,47798
Augsburger Strasse 88,Bereborn,Rheinland-Pfalz,56769
Jahnstrasse 45,Wurmsham,Freistaat Bayern,84189
Mühlenstrasse 32,Würzburg,Freistaat Bayern,97033
Landhausstraße 18,Oranienburg,Brandenburg,16505
Mühlenstrasse 4,Würzburg,Freistaat Bayern,97082
Sömmeringstr. 96,Germersheim,Rheinland-Pfalz,76726
Albrechtstrasse 47,Ingolstadt,Freistaat Bayern,85018
Kurfürstendamm 73,Rostock,Mecklenburg-Vorpommern,18013
Anhalter Strasse 36,Lambsborn,Rheinland-Pfalz,66894
Reeperbahn 60,Bad Schussenried,Baden-Württemberg,88427
Bleibtreustrasse 39,Nieheim,Nordrhein-Westfalen,33039
Michaelkirchstr. 60,Luhden,Niedersachsen,31711
Spresstrasse 46,Bielefeld Innenstadt,Nordrhein-Westfalen,33613
Spresstrasse 40,Bielefeld Altenhagen,Nordrhein-Westfalen,33729
Ufnau Strasse 34,Osterberg,Freistaat Bayern,89296
Stuttgarter Platz 32,Niederelbert,Rheinland-Pfalz,56412
Kieler Strasse 31,Engelsberg,Freistaat Bayern,84549
Am Borsigturm 30,Neuss Hafengebiet,Nordrhein-Westfalen,41460
Bayreuther Strasse 92,Ulm Lehr,Baden-Württemberg,89081
Waldowstr. 16,Obergröningen,Baden-Württemberg,73569
Am Borsigturm 51,Dormagen Nievenheim,Nordrhein-Westfalen,41542
Flotowstr. 50,Aschersleben,Sachsen-Anhalt,6433
Waßmannsdorfer Chaussee 73,Eichwalde,Brandenburg,15728
Inge Beisheim Platz 9,Artlenburg,Niedersachsen,21380
Eschenweg 94,Elsterberg,Freistaat Sachsen,7982
Paul-Nevermann-Platz 81,Schweinfurt,Freistaat Bayern,97408
Kantstraße 26,Gornau,Freistaat Sachsen,9405
Alt-Moabit 43,Grimma,Freistaat Sachsen,4661
Hoheluftchaussee 9,Altgarz,Brandenburg,16845
Oldesloer Strasse 39,Lobenstein,Freistaat Thüringen,7351
Luckenwalder Strasse 61,Westerholt,Niedersachsen,26556
An der Schillingbrucke 92,Riesbürg,Baden-Württemberg,73469
Luetzowplatz 81,Meerfeld,Rheinland-Pfalz,54531
Gotzkowskystrasse 42,Zehnhausen bei Rennerod,Rheinland-Pfalz,56477
Schillerstrasse 57,Gablingen,Freistaat Bayern,86454
Rosenstrasse 49,München,Freistaat Bayern,81545
Hans-Grade-Allee 23,Husum,Niedersachsen,31632
Hochstrasse 80,Stoltebüll,Schleswig-Holstein,24409
Stuttgarter Platz 2,Oberwies,Rheinland-Pfalz,56379
Rudower Strasse 13,Krautscheid,Rheinland-Pfalz,54673
Kantstraße 42,Bad Salzungen,Freistaat Thüringen,36425
Hans-Grade-Allee 20,Albsfelde,Schleswig-Holstein,23909
Flughafenstrasse 88,Ensdorf,Saarland,66806
Chausseestr. 55,Reinbek,Schleswig-Holstein,21451
Alsterkrugchaussee 59,Dietenhofen,Freistaat Bayern,90597
Stuttgarter Platz 8,Nassau,Rheinland-Pfalz,56377
Ollenhauer Str. 25,Stuttgart Lederberg,Baden-Württemberg,70619
Pasewalker Straße 58,Forbach,Baden-Württemberg,76596
Hoheluftchaussee 36,Wittstock,Brandenburg,16901
Hans-Grade-Allee 39,Alt Mölln,Schleswig-Holstein,23881
Brandenburgische Str 27,Otzweiler,Rheinland-Pfalz,55606
Lietzensee-Ufer 14,Spremberg,Brandenburg,3126
Heinrich Heine Platz 34,Aspach,Freistaat Thüringen,99880
Bissingzeile 22,Wrohm,Schleswig-Holstein,25799
Charlottenstrasse 72,Cottbus,Brandenburg,3003
Feldstrasse 72,Etgersleben,Sachsen-Anhalt,39448
Alt-Moabit 89,Torgau,Freistaat Sachsen,4852
Pasewalker Straße 45,Malsch,Baden-Württemberg,76316
Albrechtstrasse 45,Traunstein,Freistaat Bayern,83278
Fugger Strasse 9,Koblenz Asterstein,Rheinland-Pfalz,56077
Leipziger Strasse 72,Ludwigshafen am Rhein Gartenstadt,Rheinland-Pfalz,67067
Kurfuerstendamm 52,Ismaning,Freistaat Bayern,85737
Albrechtstrasse 81,Passau,Freistaat Bayern,94032
Kurfürstenstraße 68,Möglingen,Baden-Württemberg,71696
Knesebeckstrasse 74,Niedersteinebach,Rheinland-Pfalz,56593
Rhinstrasse 9,München,Freistaat Bayern,81203
Rohrdamm 90,Lachendorf,Niedersachsen,29331
Flotowstr. 92,Naumburg,Sachsen-Anhalt,6607
Motzstr. 24,Partenheim,Rheinland-Pfalz,55288
Konstanzer Strasse 39,Dieburg,Hessen,64807
Knesebeckstraße 93,Iserlohn,Nordrhein-Westfalen,58644
Gotzkowskystrasse 5,Waldmühlen,Rheinland-Pfalz,56479
Hochstrasse 1,Wittdün,Schleswig-Holstein,25941
Ufnau Strasse 67,Füssen,Freistaat Bayern,87629
Hedemannstasse 12,Lörrach Kernstadt,Baden-Württemberg,79541
Wallstrasse 47,Müllenbach,Rheinland-Pfalz,56761
Stresemannstr. 11,Beckingen,Freistaat Thüringen,66701
Scharnweberstrasse 84,Schwetzingen,Baden-Württemberg,68723
Pappelallee 24,Adorf,Freistaat Sachsen,8621
Genterstrasse 87,Kiel,Schleswig-Holstein,24042
Schoenebergerstrasse 97,Grevesmühlen,Mecklenburg-Vorpommern,23932
Jenaer Strasse 7,Königslutter am Elm,Niedersachsen,38154
Los-Angeles-Platz 69,Braunschweig,Niedersachsen,38102
Leopoldstraße 68,Bochum,Nordrhein-Westfalen,44801
Gubener Str. 11,Schliersee,Freistaat Bayern,83726
Büsingstrasse 82,Gilching,Freistaat Bayern,82205
Flotowstr. 45,Beyernaumburg,Sachsen-Anhalt,6528
Joachimstaler Str. 31,Endlichhofen,Rheinland-Pfalz,56355
Bissingzeile 71,Krummendeich,Niedersachsen,21732
Wallstrasse 72,Kaifenheim,Rheinland-Pfalz,56761
Ziegelstr. 96,Aidenbach,Freistaat Bayern,94497
Genslerstraße 59,Berlin Schmöckwitz,Berlin,12527
Feldstrasse 18,Beelitz,Brandenburg,14547
Rudolstaedter Strasse 23,Aschaffenburg,Freistaat Bayern,63708
Alter Wall 41,Burgsinn,Freistaat Bayern,97775
Mollstrasse 77,Schwabenheim an der Selz,Rheinland-Pfalz,55270
Waßmannsdorfer Chaussee 33,Berlin Zehlendorf,Berlin,14167
Rudolstaedter Strasse 56,Pohlheim,Hessen,35415
Schoenebergerstrasse 3,Johanngeorgenstadt,Freistaat Sachsen,8347
556  Red Dog Road,Charlotte,North Carolina,28202
Paul-Nevermann-Platz 76,Bad Neustadt,Freistaat Bayern,97602
Flughafenstrasse 88,Ensdorf,Saarland,66806
Gotthardstrasse 82,Chemnitz,Freistaat Sachsen,9005
Flughafenstrasse 73,Amberg,Freistaat Bayern,92224
Kirchenallee 12,Deggendorf,Freistaat Bayern,94458
Kurfuerstendamm 49,Germering,Freistaat Bayern,82104
Budapester Strasse 61,Langwedel,Niedersachsen,27299
An Der Urania 57,Hattstedt,Schleswig-Holstein,25856
Ollenhauer Str. 15,Stuttgart Vaihingen,Baden-Württemberg,70563
Stuttgarter Platz 41,Moschheim,Rheinland-Pfalz,56424
Knesebeckstrasse 80,Hümmerich,Rheinland-Pfalz,53547
Knesebeckstrasse 80,Hümmerich,Rheinland-Pfalz,53547
Sömmeringstr. 54,Pforzheim Weststadt,Baden-Württemberg,75172
Ansbacher Strasse 64,Niedersohren,Rheinland-Pfalz,55487
Alsterkrugchaussee 95,Schwabach,Freistaat Bayern,91103
Kantstraße 60,Zschopau,Freistaat Sachsen,9401
Rathausstrasse 71,Nürnberg,Freistaat Bayern,90020
Eichendorffstr. 29,Meersburg,Baden-Württemberg,88709
Chausseestr. 74,Quedlinburg,Sachsen-Anhalt,6471
Alt Reinickendorf 10,Ehingen,Freistaat Bayern,86741
Nuernbergerstrasse 77,Plön,Schleswig-Holstein,24303
Genterstrasse 28,Bremen Vegesack,Freie Hansestadt Bremen,28759
Kastanienallee 85,Friedrichstadt,Schleswig-Holstein,25838
Fugger Strasse 11,Koblenz Goldgrube,Rheinland-Pfalz,56073
Lützowplatz 2,Onsdorf,Rheinland-Pfalz,54456
Kieler Strasse 76,Reit im Winkl,Freistaat Bayern,83242
Neue Roßstr. 2,Esslingen Hegensberg,Baden-Württemberg,73732
Pappelallee 2,Leubsdorf,Rheinland-Pfalz,53547
Am Borsigturm 30,Neuss Hafengebiet,Nordrhein-Westfalen,41460
Schillerstrasse 65,Geretsried,Freistaat Bayern,82526
An Der Urania 55,Stelle-Wittenwurth,Schleswig-Holstein,25795
Fasanenstrasse 9,Hamburg Neustadt,Hamburg,20355
Pasewalker Straße 37,Pforzheim Innenstadt,Baden-Württemberg,75175
Knesebeckstraße 67,Linnich,Nordrhein-Westfalen,52441
An der Schillingbrucke 77,Deggingen,Baden-Württemberg,73326
Mühlenstrasse 37,Bamberg,Freistaat Bayern,96001
Neue Roßstr. 10,Bad Kreuznach Planig,Rheinland-Pfalz,55545
Schmarjestrasse 31,Bahro,Brandenburg,15898
Alt Reinickendorf 50,Immenstadt,Freistaat Bayern,87501
Ruschestrasse 63,Stendal,Sachsen-Anhalt,39560
An der Alster 34,Gommern,Sachsen-Anhalt,39242
Pasewalker Straße 45,Pforzheim Eutingen,Baden-Württemberg,75181
Park Str. 51,Düsseldorf Unterbilk,Nordrhein-Westfalen,40221
Schmarjestrasse 7,Buckau,Brandenburg,14793
Kieler Strasse 45,Seebruck,Freistaat Bayern,83356
Bayreuther Strasse 30,Frankfurt,Brandenburg,15232
Luckenwalder Strasse 91,Surwold,Niedersachsen,26903
Luebeckertordamm 25,Kirchensittenbach,Freistaat Bayern,91241
Unter den Linden 38,Magdeburg,Sachsen-Anhalt,39017
Hardenbergstraße 2,Bosenbach,Rheinland-Pfalz,66887
Michaelkirchstr. 86,Leese,Niedersachsen,31633
An Der Urania 5,Ahrenshöft,Schleswig-Holstein,25853
Gotzkowskystraße 52,Salzkotten,Nordrhein-Westfalen,33154
Albrechtstrasse 45,Traunstein,Freistaat Bayern,83278
Messedamm 50,Dresden,Freistaat Sachsen,1097
Alt Reinickendorf 48,Lengenwang,Freistaat Bayern,87663
Invalidenstrasse 88,Steinalben,Rheinland-Pfalz,66851
Landhausstraße 92,Oranienburg,Brandenburg,16501
Flotowstr. 47,Merseburg,Sachsen-Anhalt,6203
Gotzkowskystrasse 48,Liebenscheid,Rheinland-Pfalz,56479
Meinekestraße 55,Barnstorf,Niedersachsen,49406
Meininger Strasse 36,Hoppstädten,Rheinland-Pfalz,67744
Stresemannstr. 55,Nohfelden,Freistaat Thüringen,66624
Hardenbergstraße 17,Niederalben,Rheinland-Pfalz,66887
Invalidenstrasse 62,Trulben,Rheinland-Pfalz,66957
Guentzelstrasse 99,Sinntal,Hessen,36391
Knesebeckstrasse 24,Reiferscheid,Rheinland-Pfalz,57632
Rhinstrasse 75,München,Freistaat Bayern,81301
Leipziger Strasse 70,Gießen,Hessen,35398
Hoheluftchaussee 36,Burgscheidungen,Sachsen-Anhalt,6636
Billwerder Neuer Deich 11,Naila,Freistaat Bayern,95112
Schmarjestrasse 75,Zahna,Sachsen-Anhalt,6892
Mollstrasse 2,Weiterstadt,Hessen,64331
Hermannstrasse 9,Heidelberg Boxberg,Baden-Württemberg,69126
Kieler Strasse 30,Mühldorf,Freistaat Bayern,84444
Luebecker Strasse 36,Baunach,Freistaat Bayern,96148
Brandenburgische Str. 75,Althengstett,Baden-Württemberg,75382
Koepenicker Str. 68,Weiden,Freistaat Bayern,92612
Hermannstrasse 9,Beindersheim,Rheinland-Pfalz,67259
Mellingburgredder 54,Effeltrich,Freistaat Bayern,91090
Alt-Moabit 89,Torgau,Freistaat Sachsen,4852
Feldstrasse 72,Etgersleben,Sachsen-Anhalt,39448
Leopoldstraße 60,Berlin Friedrichsfelde,Berlin,10315
Holstenwall 33,Helbra,Sachsen-Anhalt,6311
Mellingburgredder 73,Erlangen,Freistaat Bayern,91002
Pasewalker Straße 47,Althütte,Baden-Württemberg,71566
Bissingzeile 31,Helgoland,Schleswig-Holstein,27484
Fasanenstrasse 16,Hamburg Niendorf,Hamburg,22459
Paul-Nevermann-Platz 62,Schweinfurt,Freistaat Bayern,97421
Holstenwall 28,Selbitz,Freistaat Bayern,95147
Flughafenstrasse 73,Amberg,Freistaat Bayern,92224
Frankfurter Allee 89,Stutensee,Baden-Württemberg,76297
Kantstraße 92,Oelsnitz,Freistaat Sachsen,8602
Jahnstrasse 83,Lengdorf,Freistaat Bayern,84435
Rudower Strasse 13,Krautscheid,Rheinland-Pfalz,54673
Büsingstrasse 20,Gilching,Freistaat Bayern,82195
Paderborner Strasse 41,Apfeltrach,Freistaat Bayern,87742
Oldesloer Strasse 7,Bad Klosterlausnitz,Freistaat Thüringen,7637
Boxhagener Str. 3,Hamburg Eidelstedt,Hamburg,22527
Koenigstrasse 15,Rohrbach,Rheinland-Pfalz,55776
Paul-Nevermann-Platz 7,Niederwerrn,Freistaat Bayern,97464
Chausseestr. 4,Feldberg,Baden-Württemberg,79868
Fugger Strasse 7,Potsdam,Brandenburg,14404
Billwerder Neuer Deich 15,Warmensteinach,Freistaat Bayern,95485
Holstenwall 90,Allstedt,Sachsen-Anhalt,6542
An der Schillingbrucke 92,Riesbürg,Baden-Württemberg,73469
Grolmanstraße 19,Bremen Aumund-Hammersbeck,Freie Hansestadt Bremen,28755
Heinrich Heine Platz 92,Neusalza-Spremberg,Freistaat Sachsen,2740
Konstanzer Strasse 92,Rodgau,Hessen,63110
Kurfuerstendamm 7,Ismaning,Freistaat Bayern,85731
Albrechtstrasse 90,Traunstein,Freistaat Bayern,83269
Stuttgarter Platz 36,Wirscheid,Rheinland-Pfalz,56237
Am Borsigturm 51,Dormagen Nievenheim,Nordrhein-Westfalen,41542
Luetzowplatz 91,Fließem,Rheinland-Pfalz,54636
Brandenburgische Strasse 42,Kapsweyer,Rheinland-Pfalz,76889
Büsingstrasse 91,Hebertshausen,Freistaat Bayern,85239
Brandenburgische Str. 75,Althengstett,Baden-Württemberg,75382
An der Alster 87,Neustrelitz,Mecklenburg-Vorpommern,17230
Langenhorner Chaussee 11,Übersee,Freistaat Bayern,83236
Spresstrasse 85,Flensburg,Schleswig-Holstein,24906
Fontenay 70,Gößweinstein,Freistaat Bayern,91327
Augsburger Strasse 34,Pomster,Rheinland-Pfalz,53534
Messedamm 75,Halle,Sachsen-Anhalt,6041
Chausseestr. 66,Holm,Schleswig-Holstein,25488
Jenaer Strasse 23,Königslutter am Elm,Niedersachsen,38154
Knesebeckstrasse 41,Oberlahr,Rheinland-Pfalz,57641
Neue Roßstr. 34,Esslingen Sulzgries,Baden-Württemberg,73733
Langenhorner Chaussee 66,Saaldorf,Freistaat Bayern,83416
Schoenebergerstrasse 98,Stralsund,Mecklenburg-Vorpommern,18413
Joachimstaler Str. 15,Wüschheim,Rheinland-Pfalz,55471
Buelowstrasse 27,Uersfeld,Rheinland-Pfalz,56767
Esplanade 57,Wenzenbach,Freistaat Bayern,93171
Wallstrasse 83,Polch,Rheinland-Pfalz,56751
Fugger Strasse 95,Potsdam,Brandenburg,14405
Anhalter Strasse 30,Mittelbrunn,Rheinland-Pfalz,66851
Paul-Nevermann-Platz 76,Bad Neustadt,Freistaat Bayern,97602
Flughafenstrasse 53,Amberg,Freistaat Bayern,92224
Budapester Strasse 94,Neumünster,Schleswig-Holstein,24507
Lietzensee-Ufer 48,Görlitz,Freistaat Sachsen,2808
Bayreuther Strasse 74,Reutlingen Betzingen,Baden-Württemberg,72770
Hoheluftchaussee 60,Schkeuditz,Freistaat Sachsen,4431
Grolmanstraße 76,Bremen Neustadt,Freie Hansestadt Bremen,28199
Schmarjestrasse 53,Kremmen,Brandenburg,16763
Knesebeckstrasse 4,Woldert,Rheinland-Pfalz,57614
Bleibtreustrasse 39,Nieheim,Nordrhein-Westfalen,33039
Jahnstrasse 97,Pittenhart,Freistaat Bayern,83132
Friedrichstrasse 38,Düsseldorf Hellerhof,Nordrhein-Westfalen,40595
Sonnenallee 47,Augsburg,Freistaat Bayern,86134
Budapester Strasse 94,Neumünster,Schleswig-Holstein,24507
Joachimstaler Str. 15,Wüschheim,Rheinland-Pfalz,55471
Potsdamer Platz 24,Mörnsheim,Freistaat Bayern,91804
Mühlenstrasse 64,Bamberg,Freistaat Bayern,96017
Paul-Nevermann-Platz 17,Wildflecken,Freistaat Bayern,97772
Fugger Strasse 69,Grube,Brandenburg,14469
Marseiller Strasse 11,Hohenthann,Freistaat Bayern,84098
Hermannstrasse 40,Heidelberg Ziegelhausen,Baden-Württemberg,69118
Pasewalker Straße 28,Birkenfeld,Baden-Württemberg,75217
Neuer Jungfernstieg 13,Schönau,Baden-Württemberg,79677
Hochstrasse 41,Nebel,Schleswig-Holstein,25946
Boxhagener Str. 5,Hamburg Fuhlsbüttel,Hamburg,22453
Kastanienallee 59,Wirdum,Niedersachsen,26529
Kantstrasse 13,Nürnberg,Freistaat Bayern,90403
Landhausstraße 18,Oranienburg,Brandenburg,16505
Stresemannstr. 77,Ottweiler,Freistaat Thüringen,66558
Los-Angeles-Platz 91,Hamburg Winterhude,Hamburg,22301
Paul-Nevermann-Platz 62,Schweinfurt,Freistaat Bayern,97421
Chausseestr. 2,Waren,Mecklenburg-Vorpommern,17187
Wallstrasse 81,Ettringen,Freistaat Bayern,86831
Bleibtreustrasse 83,Bad Lippspringe,Nordrhein-Westfalen,33175
Rohrdamm 74,Soltau,Niedersachsen,29614
Paderborner Strasse 79,Pöttmes,Freistaat Bayern,86554
Fugger Strasse 35,Potsdam,Brandenburg,14415
Lützowplatz 29,Taben-Rodt,Rheinland-Pfalz,54441
Brandenburgische Str. 86,Pfaffenhofen,Baden-Württemberg,74397
Unter den Linden 18,Magdeburg,Sachsen-Anhalt,39031
Charlottenstrasse 30,Tharandt,Freistaat Sachsen,1735
An der Schillingbrucke 47,Bernstadt,Freistaat Sachsen,2748
Knesebeckstrasse 25,Kraam,Rheinland-Pfalz,57635
Kastanienallee 85,Friedrichstadt,Schleswig-Holstein,25838
Sömmeringstr. 19,Weißenhorn,Freistaat Bayern,89258
Ufnau Strasse 82,Füssen,Freistaat Bayern,87622
Bleibtreustrasse 36,Paderborn Elsen,Nordrhein-Westfalen,33104
Fasanenstrasse 95,Hamburg Langenbek,Hamburg,21079
Bleibtreustraße 55,Volkertshausen,Baden-Württemberg,78269
Motzstr. 79,Appenheim,Rheinland-Pfalz,55437
Inge Beisheim Platz 4,Barendorf,Niedersachsen,21397
Gruenauer Strasse 52,Geesthacht,Schleswig-Holstein,21495
Budapester Strasse 65,Neumünster,Schleswig-Holstein,24503
Koenigstrasse 48,Zimmern,Baden-Württemberg,72369
Paul-Nevermann-Platz 17,Wildflecken,Freistaat Bayern,97772
Fugger Strasse 54,Dessau,Sachsen-Anhalt,6812
Jahnstrasse 83,Lengdorf,Freistaat Bayern,84435
Alter Wall 42,Arnstein,Freistaat Bayern,97448
Meinekestraße 58,Moringen,Niedersachsen,37186
Messedamm 50,Dresden,Freistaat Sachsen,1097
Los-Angeles-Platz 91,Hamburg Winterhude,Hamburg,22301
Paderborner Strasse 56,Bobingen,Freistaat Bayern,86399
Rohrdamm 60,Herford Falkendiek,Nordrhein-Westfalen,32049
Motzstr. 84,Gensingen,Rheinland-Pfalz,55457
Luebeckertordamm 89,Iphofen,Freistaat Bayern,97346
Motzstr. 79,Appenheim,Rheinland-Pfalz,55437
Eichendorffstr. 8,Konstanz Litzelstetten,Baden-Württemberg,78464
Albrechtstrasse 47,Ingolstadt,Freistaat Bayern,85018
Rathausstrasse 16,Asbach-Bäumenheim,Freistaat Bayern,86663
Amsinckstrasse 30,Sebnitz,Freistaat Sachsen,1851
Borstelmannsweg 7,Coburg,Freistaat Bayern,96418
Kantstrasse 16,Nürnberg,Freistaat Bayern,90227
Unter den Linden 32,Schwerin,Mecklenburg-Vorpommern,19033
Flotowstr. 45,Beyernaumburg,Sachsen-Anhalt,6528
Paderborner Strasse 68,Oberrieden,Freistaat Bayern,87769
Bissingzeile 14,Kührstedt,Niedersachsen,27624
Fontenay 4,Marktredwitz,Freistaat Bayern,95604
Hans-Grade-Allee 20,Albsfelde,Schleswig-Holstein,23909
Messedamm 51,Coswig,Freistaat Sachsen,1640
Sonnenallee 80,Augsburg,Freistaat Bayern,86007
Schmarjestrasse 31,Bahro,Brandenburg,15898
Bleibtreustraße 93,Weilheim,Baden-Württemberg,79809
Schaarsteinweg 59,Nittenau,Freistaat Bayern,93149
Kieler Strasse 31,Engelsberg,Freistaat Bayern,84549
Lietzenburger Strasse 15,Buchholz,Brandenburg,14823
Waßmannsdorfer Chaussee 89,Hamburg Bahrenfeld,Hamburg,22547
Leopoldstraße 62,Berlin Dahlem,Berlin,14195
Ziegelstr. 40,Postmünster,Freistaat Bayern,84389
Joachimstaler Str. 85,Biebern,Rheinland-Pfalz,55471
Stuttgarter Platz 6,Everswinkel,Nordrhein-Westfalen,48351
Sonnenallee 50,Augsburg,Freistaat Bayern,86032
Ollenhauer Str. 25,Stuttgart Lederberg,Baden-Württemberg,70619
Leipziger Strasse 72,Ludwigshafen am Rhein Gartenstadt,Rheinland-Pfalz,67067
Ruschestrasse 32,Stendal,Sachsen-Anhalt,39560
Koepenicker Str. 68,Weiden,Freistaat Bayern,92612
Schoenebergerstrasse 66,Bockau,Freistaat Sachsen,8322
Rudower Strasse 50,Eschfeld,Rheinland-Pfalz,54619
An Der Urania 89,Hohenlockstedt,Schleswig-Holstein,25549
Luebecker Strasse 43,Bundorf,Freistaat Bayern,97494
Mühlenstrasse 64,Bamberg,Freistaat Bayern,96017
Schönwalder Allee 51,Osdorf,Schleswig-Holstein,24251
Marseiller Strasse 65,Ohlstadt,Freistaat Bayern,82441
Rudower Strasse 50,Eschfeld,Rheinland-Pfalz,54619
Gruenauer Strasse 29,Oldendorf,Niedersachsen,21726
Fugger Strasse 45,Münster,Nordrhein-Westfalen,48167
Fischerinsel 41,Viersen Vorst,Nordrhein-Westfalen,41749
Gotthardstrasse 50,Erfurt,Freistaat Thüringen,99092
Invalidenstrasse 88,Steinalben,Rheinland-Pfalz,66851
Gruenauer Strasse 48,Kollow,Schleswig-Holstein,21527
Ansbacher Strasse 64,Niedersohren,Rheinland-Pfalz,55487
Grolmanstraße 69,Bremen Lehesterdeich,Freie Hansestadt Bremen,28357
Hollander Strasse 87,Hadamar,Hessen,65589
Büsingstrasse 98,Karlsfeld,Freistaat Bayern,85752
Chausseestr. 66,Holm,Schleswig-Holstein,25488
Eichendorffstr. 68,Amtzell,Baden-Württemberg,88279
Schoenebergerstrasse 24,Schwarzenberg,Freistaat Sachsen,8331
Lietzensee-Ufer 92,Plessa,Brandenburg,4926
Storkower Strasse 18,Leutesdorf,Rheinland-Pfalz,56599
Anhalter Strasse 25,Oberndorf,Niedersachsen,21787
Anhalter Strasse 92,Relsberg,Rheinland-Pfalz,67753
Anhalter Strasse 63,Mertesheim,Rheinland-Pfalz,67271
Bayreuther Strasse 3,Kaiserslautern Mölschbach,Rheinland-Pfalz,67661
Landhausstraße 52,Stahnsdorf,Brandenburg,14526
An Der Urania 93,Friedrichskoog,Schleswig-Holstein,25716
Leipziger Strasse 14,Wiesbaden,Hessen,65207
Prager Str 23,Weßling,Freistaat Bayern,82231
Pasewalker Straße 45,Pforzheim Eutingen,Baden-Württemberg,75181
Michaelkirchstr. 68,Liebenau,Niedersachsen,31618
Invalidenstrasse 88,Contwig,Rheinland-Pfalz,66497
Karl-Liebknecht-Strasse 50,Delmenhorst,Niedersachsen,27751
Hallesches Ufer 91,Schmelz,Freistaat Thüringen,66835
Nuernbergerstrasse 77,Plön,Schleswig-Holstein,24303
Inge Beisheim Platz 4,Barendorf,Niedersachsen,21397
Knesebeckstraße 67,Linnich,Nordrhein-Westfalen,52441
An Der Urania 5,Ahrenshöft,Schleswig-Holstein,25853
Borstelmannsweg 81,Coburg,Freistaat Bayern,96405
Gotzkowskystrasse 41,Bachenberg,Rheinland-Pfalz,57610
Knesebeckstrasse 64,Honerath,Rheinland-Pfalz,53518
Oldesloer Strasse 39,Lobenstein,Freistaat Thüringen,7351
Rudower Strasse 17,Merlscheid,Rheinland-Pfalz,54597
Mühlenstrasse 32,Würzburg,Freistaat Bayern,97033
Michaelkirchstr. 60,Luhden,Niedersachsen,31711
Kurfürstendamm 73,Rostock,Mecklenburg-Vorpommern,18013
Luetzowplatz 81,Meerfeld,Rheinland-Pfalz,54531
An der Alster 34,Gommern,Sachsen-Anhalt,39242
Augsburger Strasse 45,Fuchshof,Freistaat Bayern,91344
Mollstrasse 48,Flörsheim am Main,Hessen,65439
Budapester Straße 53,Niederkumbd,Rheinland-Pfalz,55469
Büsingstrasse 24,Hebertshausen,Freistaat Bayern,85239
Unter den Linden 60,Bremen Arbergen,Freie Hansestadt Bremen,28307
Bleibtreustrasse 77,Gütersloh Spexard,Nordrhein-Westfalen,33334
Michaelkirchstr. 50,Bad Oeynhausen Innenstadt,Nordrhein-Westfalen,32547
Alter Wall 41,Burgsinn,Freistaat Bayern,97775
Billwerder Neuer Deich 66,Stockheim,Freistaat Bayern,96342
Rhinstrasse 28,München,Freistaat Bayern,80754
Meinekestraße 59,Bakum,Niedersachsen,49456
Karl-Liebknecht-Strasse 8,Oyten,Niedersachsen,28876
Amsinckstrasse 16,Großröhrsdorf,Freistaat Sachsen,1897
Unter den Linden 38,Magdeburg,Sachsen-Anhalt,39007
Rudower Strasse 14,Winterscheid,Rheinland-Pfalz,54608
Rudower Strasse 50,Eschfeld,Rheinland-Pfalz,54619
Leipziger Strasse 3,Minden Aminghausen,Nordrhein-Westfalen,32423
Luetzowplatz 26,Kruchten,Rheinland-Pfalz,54675
Holstenwall 71,Mücheln,Sachsen-Anhalt,6249
Gubener Str. 54,Holzkirchen,Freistaat Bayern,83607
Langenhorner Chaussee 36,Burghausen,Freistaat Bayern,84479
Pappelallee 51,Dermbach,Freistaat Thüringen,36466
Scharnweberstrasse 11,Karlstein,Freistaat Bayern,63791
Hedemannstasse 57,Isny,Baden-Württemberg,88316
Guentzelstrasse 85,Kirtorf,Hessen,36320
Waßmannsdorfer Chaussee 33,Berlin Zehlendorf,Berlin,14167
Mühlenstrasse 4,Würzburg,Freistaat Bayern,97082
Luetzowplatz 91,Fließem,Rheinland-Pfalz,54636
Neuer Jungfernstieg 47,Eggenfelden,Freistaat Bayern,84302
Ziegelstr. 19,Pfarrkirchen,Freistaat Bayern,84344
Landhausstraße 89,Bernau,Baden-Württemberg,79872
Kantstraße 92,Oelsnitz,Freistaat Sachsen,8602
Eichendorffstr. 99,Wörnersberg,Baden-Württemberg,72299
Augsburger Strasse 34,Pomster,Rheinland-Pfalz,53534
Guentzelstrasse 10,Oberaula,Hessen,36280
Grolmanstraße 42,Bremen Neue Vahr Südost,Freie Hansestadt Bremen,28327
Alt Reinickendorf 48,Oberstdorf,Freistaat Bayern,87555
Gruenauer Strasse 17,Ahlerstedt,Niedersachsen,21702
Mollstrasse 85,Wackernheim,Rheinland-Pfalz,55263
Neue Roßstr. 83,Trier Olewig,Rheinland-Pfalz,54296
Eichendorffstr. 98,Konstanz Dingelsdorf,Baden-Württemberg,78465
Lietzenburger Straße 65,Stadensen,Niedersachsen,29596
Boxhagener Str. 17,Hamburg Eidelstedt,Hamburg,22547
Kantstraße 9,Limbach-Oberfrohna,Freistaat Sachsen,9207
Gotthardstrasse 97,Chemnitz,Freistaat Sachsen,9111
Marseiller Strasse 47,Unterammergau,Freistaat Bayern,82497
Hallesches Ufer 83,Lebach,Freistaat Thüringen,66822
Wallstrasse 41,Breitscheid,Rheinland-Pfalz,53547
Lietzensee-Ufer 92,Kamenz,Freistaat Sachsen,1911
Alt Reinickendorf 92,Burgberg,Freistaat Bayern,87545
Knesebeckstraße 62,Geilenkirchen,Nordrhein-Westfalen,52511
Knesebeckstrasse 74,Forst,Brandenburg,3141
Augsburger Straße 4,Hamm,Rheinland-Pfalz,67580
Joachimstaler Str. 85,Biebern,Rheinland-Pfalz,55471
An Der Urania 43,Breitenberg,Freistaat Bayern,94139
Bayreuther Strasse 3,Kaiserslautern Mölschbach,Rheinland-Pfalz,67661
Alt Reinickendorf 46,Rettenberg,Freistaat Bayern,87549
Mellingburgredder 2,Herzogenaurach,Freistaat Bayern,91065
An der Alster 24,Langenhagen,Niedersachsen,30855
Meinekestraße 17,Krebeck,Niedersachsen,37434
Paul-Nevermann-Platz 25,Sandberg,Freistaat Bayern,97657
Gruenauer Strasse 92,Stemmen,Niedersachsen,27389
Marseiller Strasse 11,Hohenthann,Freistaat Bayern,84098
Rohrdamm 6,Borgholzhausen,Nordrhein-Westfalen,33829
Anhalter Strasse 92,Relsberg,Rheinland-Pfalz,67753
Rudower Chaussee 11,Bad Kissingen,Freistaat Bayern,97671
An der Schillingbrucke 68,Drackenstein,Baden-Württemberg,73345
An Der Urania 64,Bergewöhrden,Schleswig-Holstein,25779
Holstenwall 73,Berga,Freistaat Thüringen,7977
Feldstrasse 43,Löcknitz,Mecklenburg-Vorpommern,17319
Marseiller Strasse 29,Eberfing,Freistaat Bayern,82390
Schoenebergerstrasse 66,Bockau,Freistaat Sachsen,8322
Schaarsteinweg 26,Straßkirchen,Freistaat Bayern,94340
Schaarsteinweg 59,Nittenau,Freistaat Bayern,93149
Hardenbergstraße 17,Niederalben,Rheinland-Pfalz,66887
Alt-Moabit 28,Rathenow,Brandenburg,14704
Kantstraße 42,Bad Salzungen,Freistaat Thüringen,36425
Hochstrasse 1,Wittdün,Schleswig-Holstein,25941
Paderborner Strasse 75,Langweid,Freistaat Bayern,86460
Ansbacher Strasse 46,Liesenich,Rheinland-Pfalz,56858
Chausseestr. 27,Ahrensburg,Schleswig-Holstein,22907
Albrechtstrasse 47,Ingolstadt,Freistaat Bayern,85018
Invalidenstrasse 39,Lindenberg,Rheinland-Pfalz,67473
Schaarsteinweg 74,Neunburg,Freistaat Bayern,92427
An der Schillingbrucke 11,Steinheim,Baden-Württemberg,89555
Jenaer Strasse 7,Königslutter am Elm,Niedersachsen,38154
Guentzelstrasse 60,Feusdorf,Rheinland-Pfalz,54584
Mellingburgredder 95,Langensendelbach,Freistaat Bayern,91094
Alt Reinickendorf 22,Blaichach,Freistaat Bayern,87542
Lange Strasse 12,Schwarmstedt,Niedersachsen,29690
Fasanenstrasse 85,Hamburg Rotherbaum,Hamburg,20357
Büsingstrasse 91,Hebertshausen,Freistaat Bayern,85239
Luckenwalder Strasse 61,Westerholt,Niedersachsen,26556
Büsingstrasse 24,Hebertshausen,Freistaat Bayern,85239
Flughafenstrasse 92,Pressath,Freistaat Bayern,92686
Spresstrasse 85,Flensburg,Schleswig-Holstein,24906
Knesebeckstraße 93,Iserlohn,Nordrhein-Westfalen,58644
Landhausstraße 18,Oranienburg,Brandenburg,16505
Ufnau Strasse 88,Nesselwang,Freistaat Bayern,87481
Fugger Strasse 46,Potsdam,Brandenburg,14478
Eschenweg 79,Sonneberg,Freistaat Thüringen,96501
Scharnweberstrasse 80,Mannheim Gartenstadt,Baden-Württemberg,68305
Rudolstaedter Strasse 71,Frammersbach,Freistaat Bayern,97830
Eichendorffstr. 14,Konstanz Petershausen,Baden-Württemberg,78467
Schönwalder Allee 70,Eckernförde,Schleswig-Holstein,24331
Mollstrasse 48,Flörsheim am Main,Hessen,65439
Lietzensee-Ufer 57,Görlitz,Freistaat Sachsen,2828
Ufnau Strasse 84,Hopferau,Freistaat Bayern,87659
Kantstraße 51,Elterlein,Freistaat Sachsen,9481
Gruenauer Strasse 48,Stade,Niedersachsen,21684
Fugger Strasse 45,Münster,Nordrhein-Westfalen,48167
Gruenauer Strasse 21,Sauensiek,Niedersachsen,21644
Fontenay 62,Helmbrechts,Freistaat Bayern,95224
Bleibtreustraße 93,Weilheim,Baden-Württemberg,79809
Ufnau Strasse 89,Memmingen,Freistaat Bayern,87681
Konstanzer Strasse 84,Ortenburg,Freistaat Bayern,94493
Hallesches Ufer 83,Lebach,Freistaat Thüringen,66822
Invalidenstrasse 88,Steinalben,Rheinland-Pfalz,66851
Luebecker Strasse 5,Zeil,Freistaat Bayern,97471
Motzstr. 79,Appenheim,Rheinland-Pfalz,55437
Paul-Nevermann-Platz 70,Bad Neustadt,Freistaat Bayern,97606
Alsterkrugchaussee 47,Schwabach,Freistaat Bayern,91102
Prager Str 63,Gröbenzell,Freistaat Bayern,82183
Ollenhauer Str. 31,Stuttgart Sillenbuch,Baden-Württemberg,70619
Gotzkowskystraße 27,Südlohn,Nordrhein-Westfalen,46354
Neue Roßstr. 34,Esslingen Sulzgries,Baden-Württemberg,73733
Neuer Jungfernstieg 13,Schönau,Baden-Württemberg,79677
Leipziger Straße 89,Pegestorf,Niedersachsen,37619
Koepenicker Str. 82,Pohl,Rheinland-Pfalz,56357
Alt Reinickendorf 10,Ehingen,Freistaat Bayern,86741
Büsingstrasse 98,Karlsfeld,Freistaat Bayern,85752
Spresstrasse 23,Flensburg,Schleswig-Holstein,24910
Waldowstr. 2,Frankenhardt,Baden-Württemberg,74586
Guentzelstrasse 85,Kirtorf,Hessen,36320
Alt Reinickendorf 10,Ehingen,Freistaat Bayern,86741
Ufnau Strasse 34,Osterberg,Freistaat Bayern,89296
Ziegelstr. 5,Jandelsbrunn,Freistaat Bayern,94118
Hollander Strasse 98,Birlenbach,Rheinland-Pfalz,65626
Wallstrasse 83,Polch,Rheinland-Pfalz,56751
Luetzowplatz 41,Geichlingen,Rheinland-Pfalz,54675
Augsburger Strasse 12,Schutzbach,Rheinland-Pfalz,57520
Hallesches Ufer 48,Frickenhausen,Freistaat Bayern,97252
Ellmenreichstrasse 50,Hiltpoltstein,Freistaat Bayern,91355
Prenzlauer Allee 74,Leipzig,Freistaat Sachsen,4302
Lange Strasse 31,Ottobrunn,Freistaat Bayern,85501
Augsburger Strasse 12,Schutzbach,Rheinland-Pfalz,57520
Hochstrasse 1,Wittdün,Schleswig-Holstein,25941
Los-Angeles-Platz 91,Hamburg Winterhude,Hamburg,22301
Boxhagener Str. 5,Hamburg Fuhlsbüttel,Hamburg,22453
Brandenburgische Straße 53,Berlin Niederschönhausen,Berlin,13158
Langenhorner Chaussee 24,Kirchanschöring,Freistaat Bayern,83417
Spresstrasse 78,Bremerhaven Wulsdorf,Freie Hansestadt Bremen,27572
Konstanzer Strasse 62,Weibersbrunn,Freistaat Bayern,63879
Rosenstrasse 49,München,Freistaat Bayern,81545
Schönwalder Allee 25,Kellenhusen,Schleswig-Holstein,23746
Lietzensee-Ufer 94,Olbersdorf,Freistaat Sachsen,2783
Fasanenstrasse 95,Hamburg Langenbek,Hamburg,21079
Hermannstrasse 46,Monzernheim,Rheinland-Pfalz,55234
Sonnenallee 59,Gundelfingen,Baden-Württemberg,79194
Knesebeckstrasse 51,Asbach,Rheinland-Pfalz,55758
Büsingstrasse 52,Brunnthal,Freistaat Bayern,85649
Kurfürstenstraße 96,Erligheim,Baden-Württemberg,74391
Landhausstraße 55,Zehdenick,Brandenburg,16787
Oldesloer Strasse 58,Schömberg,Baden-Württemberg,72355
Straße der Pariser Kommune 90,Bonn,Nordrhein-Westfalen,53119
Kieler Strasse 45,Seebruck,Freistaat Bayern,83356
Am Borsigturm 99,Krefeld,Nordrhein-Westfalen,47798
Bleibtreustraße 55,Volkertshausen,Baden-Württemberg,78269
Stresemannstr. 11,Beckingen,Freistaat Thüringen,66701
Meinekestraße 55,Barnstorf,Niedersachsen,49406
Amsinckstrasse 28,Glashütte,Freistaat Sachsen,1766
Inge Beisheim Platz 52,Wriedel,Niedersachsen,29565
Guentzelstrasse 24,Wartenberg,Freistaat Bayern,85453
Waldowstr. 2,Frankenhardt,Baden-Württemberg,74586
Koenigstrasse 37,Ichtershausen,Freistaat Thüringen,99332
Heinrich Heine Platz 93,Heilbad Heiligenstadt,Freistaat Thüringen,37301
Albrechtstrasse 81,Passau,Freistaat Bayern,94032
Schoenebergerstrasse 25,Stralsund,Mecklenburg-Vorpommern,18410
Luebeckertordamm 80,Hersbruck,Freistaat Bayern,91211
Bayreuther Strasse 74,Reutlingen Betzingen,Baden-Württemberg,72770
Jenaer Strasse 59,Wuppertal Elberfeld,Nordrhein-Westfalen,42115
Hollander Strasse 27,Hadamar,Hessen,65589
Luebecker Strasse 36,Baunach,Freistaat Bayern,96148
Straße der Pariser Kommune 90,Bonn,Nordrhein-Westfalen,53119
Stresemannstr. 17,Tholey,Saarland,66636
Amsinckstrasse 62,Bagenz,Brandenburg,3130
Leipziger Strasse 70,Gießen,Hessen,35398
Ansbacher Strasse 46,Liesenich,Rheinland-Pfalz,56858
Motzstr. 12,Sponheim,Rheinland-Pfalz,55595
Holstenwall 58,Bad Gottleuba,Freistaat Sachsen,1816
Jahnstrasse 37,Lengdorf,Freistaat Bayern,84435
Schoenebergerstrasse 24,Schwarzenberg,Freistaat Sachsen,8331
Bleibtreustrasse 7,Gütersloh Ebbesloh,Nordrhein-Westfalen,33334
Schönwalder Allee 51,Osdorf,Schleswig-Holstein,24251
Ollenhauer Str. 5,Stuttgart Süd,Baden-Württemberg,70199
Frankfurter Allee 40,Karlsruhe Mühlburg,Baden-Württemberg,76187
Lietzensee-Ufer 42,Groß Düben,Freistaat Sachsen,2959
Reeperbahn 12,Brünzow,Mecklenburg-Vorpommern,17509
Hans-Grade-Allee 20,Albsfelde,Schleswig-Holstein,23909
Langenhorner Chaussee 36,Burghausen,Freistaat Bayern,84479
Kastanienallee 61,Bergenhusen,Schleswig-Holstein,24861
An der Alster 27,Emden,Niedersachsen,26721
Leopoldstraße 68,Bochum,Nordrhein-Westfalen,44801
An der Alster 69,Barkow,Mecklenburg-Vorpommern,19372
Ufnau Strasse 89,Memmingen,Freistaat Bayern,87681
Schönwalder Allee 35,Osterrönfeld,Schleswig-Holstein,24783
Jahnstrasse 37,Lengdorf,Freistaat Bayern,84435
Leopoldstraße 60,Berlin Friedrichsfelde,Berlin,10315
Oldesloer Strasse 19,Lobenstein,Freistaat Thüringen,7352
Flotowstr. 83,Wolfen,Sachsen-Anhalt,6755
Sonnenallee 88,Augsburg,Freistaat Bayern,86015
Rudolstaedter Strasse 15,Bawinkel,Niedersachsen,49844
Augsburger Straße 4,Hamm,Rheinland-Pfalz,67580
Prenzlauer Allee 45,Leipzig,Freistaat Sachsen,4187
Motzstr. 34,Lorch,Hessen,65391
Rhinstrasse 89,München,Freistaat Bayern,80997
Sömmeringstr. 72,Illertissen,Freistaat Bayern,89253
Luebecker Strasse 27,Pfarrweisach,Freistaat Bayern,96176
Chausseestr. 74,Quedlinburg,Sachsen-Anhalt,6471
Augsburger Strasse 71,Sierscheid,Rheinland-Pfalz,53520
Lietzenburger Strasse 90,Euskirchen,Nordrhein-Westfalen,53881
Luebecker Strasse 74,Burgpreppach,Freistaat Bayern,97496
Lietzenburger Strasse 28,Bergisch Gladbach Katterbach,Nordrhein-Westfalen,51467
Boxhagener Str. 55,Hamburg Hohenfelde,Hamburg,22087
Inge Beisheim Platz 7,Tangstedt,Schleswig-Holstein,22889
Alt-Moabit 52,Luckenwalde,Brandenburg,14932
Bissingzeile 3,Bramstedt,Niedersachsen,27628
Ziegelstr. 77,Tittling,Freistaat Bayern,94100
Eichendorffstr. 73,Friedrichshafen Schnetzenhausen,Baden-Württemberg,88045
Neuer Jungfernstieg 13,Schönau,Baden-Württemberg,79677
Lützowplatz 7,Neroth,Rheinland-Pfalz,54570
Gotzkowskystrasse 37,Eichelhardt,Rheinland-Pfalz,57612
Rudower Strasse 14,Winterscheid,Rheinland-Pfalz,54608
Gotzkowskystrasse 42,Zehnhausen bei Rennerod,Rheinland-Pfalz,56477
Ellmenreichstrasse 51,Kulmbach,Freistaat Bayern,95306
Mellingburgredder 2,Herzogenaurach,Freistaat Bayern,91065
Jenaer Strasse 76,Oberhausen Alstaden,Nordrhein-Westfalen,46049
Hermannstrasse 14,Worms Leiselheim,Rheinland-Pfalz,67549
Park Str. 79,Solingen Burg,Nordrhein-Westfalen,42659
Alt-Moabit 52,Luckenwalde,Brandenburg,14932
Stuttgarter Platz 8,Nassau,Rheinland-Pfalz,56377
Ziegelstr. 77,Tittling,Freistaat Bayern,94100
Michaelkirchstr. 2,Spangenberg,Hessen,34286
Langenhorner Chaussee 61,Freilassing,Freistaat Bayern,83384
Leipziger Strasse 18,Osnabrück,Niedersachsen,49074
Waldowstr. 3,Teisendorf,Freistaat Bayern,83315
Lietzensee-Ufer 41,Lübbenau,Brandenburg,3216
Koenigstrasse 74,Dingelstädt,Freistaat Thüringen,37351
Gubener Str. 2,Rosenheim,Freistaat Bayern,83008
Alt Reinickendorf 69,Wertingen,Freistaat Bayern,86634
Alt Reinickendorf 48,Lengenwang,Freistaat Bayern,87663
Alt-Moabit 99,Brandenburg,Brandenburg,14732
Fugger Strasse 5,Potsdam,Brandenburg,14471
Albrechtstrasse 55,Traunstein,Freistaat Bayern,83267
Fugger Strasse 69,Grube,Brandenburg,14469
Fontenay 62,Helmbrechts,Freistaat Bayern,95224
An der Schillingbrucke 64,Herbrechtingen,Baden-Württemberg,89542
Michaelkirchstr. 93,Bad Essen,Niedersachsen,49152
Leipziger Strasse 72,Ludwigshafen am Rhein Gartenstadt,Rheinland-Pfalz,67067
Oldesloer Strasse 5,Mühltroff,Freistaat Sachsen,7917
Gruenauer Strasse 76,Kakenstorf,Niedersachsen,21255
An der Alster 87,Neustrelitz,Mecklenburg-Vorpommern,17230
Chausseestr. 27,Ahrensburg,Schleswig-Holstein,22907
Holstenwall 58,Bad Gottleuba,Freistaat Sachsen,1816
Holstenwall 58,Bad Gottleuba,Freistaat Sachsen,1816
Holstenwall 4,Löbejün,Sachsen-Anhalt,6191
Invalidenstrasse 88,Contwig,Rheinland-Pfalz,66497
Neuer Jungfernstieg 47,Eggenfelden,Freistaat Bayern,84302
Kantstraße 26,Gornau,Freistaat Sachsen,9405
Prager Str 95,Fürstenfeldbruck,Freistaat Bayern,82256
Alt-Moabit 28,Rathenow,Brandenburg,14704
Billwerder Neuer Deich 15,Warmensteinach,Freistaat Bayern,95485
Koenigstrasse 26,Weimar,Freistaat Thüringen,99408
Pasewalker Straße 43,Baden-Baden,Baden-Württemberg,76530
Flughafenstrasse 53,Amberg,Freistaat Bayern,92224
Langenhorner Chaussee 61,Freilassing,Freistaat Bayern,83384
Hollander Strasse 98,Birlenbach,Rheinland-Pfalz,65626
Invalidenstrasse 88,Steinalben,Rheinland-Pfalz,66851
Pappelallee 9,Kuhschnappel,Freistaat Sachsen,9356
Ellmenreichstrasse 18,Neudrossenfeld,Freistaat Bayern,95512
Alsterkrugchaussee 59,Dietenhofen,Freistaat Bayern,90597
Gotzkowskystraße 65,Bad Endbach,Hessen,35080
Joachimstaler Str. 31,Endlichhofen,Rheinland-Pfalz,56355
Stresemannstr. 77,Ottweiler,Freistaat Thüringen,66558
Konstanzer Strasse 39,Dieburg,Hessen,64807
Unter den Linden 18,Magdeburg,Sachsen-Anhalt,39031
Alt-Moabit 43,Jütebog,Brandenburg,14901
Lützowplatz 73,Heddert,Rheinland-Pfalz,54429
Stuttgarter Platz 32,Niederelbert,Rheinland-Pfalz,56412
Gotzkowskystrasse 61,Hemmelzen,Rheinland-Pfalz,57612
Flotowstr. 45,Wolfen,Sachsen-Anhalt,6756
Chausseestr. 4,Feldberg,Baden-Württemberg,79868
Pappelallee 9,Kuhschnappel,Freistaat Sachsen,9356
Flughafenstrasse 92,Pressath,Freistaat Bayern,92686
Konstanzer Strasse 58,Linsengericht,Hessen,63589
Wallstrasse 30,Roßbach,Rheinland-Pfalz,53547
Heinrich Heine Platz 65,Heiligenstadt,Freistaat Bayern,91331
Scharnweberstrasse 13,Heiligkreuzsteinach,Baden-Württemberg,69253
Schmarjestrasse 97,Friedland,Niedersachsen,37133
Ruschestrasse 54,Tangerhütte,Sachsen-Anhalt,39512
Landsberger Allee 67,München,Freistaat Bayern,80528
Koepenicker Str. 68,Weiden,Freistaat Bayern,92612
Motzstr. 42,Roxheim,Rheinland-Pfalz,55595
Chausseestr. 36,Halstenbek,Schleswig-Holstein,25469
Gotthardstrasse 37,Chemnitz,Freistaat Sachsen,9008
Brandenburgische Str 27,Otzweiler,Rheinland-Pfalz,55606
An Der Urania 93,Friedrichskoog,Schleswig-Holstein,25716
Stuttgarter Platz 26,Sassenburg,Niedersachsen,38524
Waßmannsdorfer Chaussee 97,Hamburg Altstadt,Hamburg,20457
Kieler Strasse 94,Waldkraiburg,Freistaat Bayern,84470
Stresemannstr. 44,Tholey,Freistaat Thüringen,66632
Motzstr. 62,Nack,Rheinland-Pfalz,55234
Spresstrasse 78,Bremerhaven Wulsdorf,Freie Hansestadt Bremen,27572
Koenigstrasse 15,Rohrbach,Rheinland-Pfalz,55776
Gotzkowskystrasse 68,Mündersbach,Rheinland-Pfalz,56271
Lützowplatz 73,Mückeln,Rheinland-Pfalz,54558
Jahnstrasse 37,Lengdorf,Freistaat Bayern,84435
Pasewalker Straße 61,Pforzheim Brötzingen,Baden-Württemberg,75179
Invalidenstrasse 12,Kallstadt,Rheinland-Pfalz,67169
Prager Str 89,Gröbenzell,Freistaat Bayern,82182
Hedemannstasse 21,Kandern,Baden-Württemberg,79400
Mollstrasse 77,Schwabenheim an der Selz,Rheinland-Pfalz,55270
Fontenay 68,Hohenberg,Freistaat Bayern,95691
Koepenicker Str. 38,Weyer,Rheinland-Pfalz,56357
Langenhorner Chaussee 86,Piding,Freistaat Bayern,83449
Prenzlauer Allee 78,Leipzig,Freistaat Sachsen,4259
An Der Urania 11,Nortorf,Schleswig-Holstein,24583
Rhinstrasse 28,München,Freistaat Bayern,80754
Hallesches Ufer 91,Perl,Saarland,66706
Koepenicker Str. 92,Reichenbach,Baden-Württemberg,73262
Brandenburgische Strasse 51,Weisenheim am Sand,Rheinland-Pfalz,67256
Ollenhauer Str. 76,Stuttgart Mitte,Baden-Württemberg,70184
Gotzkowskystraße 65,Bad Endbach,Hessen,35080
Budapester Strasse 94,Neumünster,Schleswig-Holstein,24507
Gotzkowskystrasse 37,Eichelhardt,Rheinland-Pfalz,57612
Schillerstrasse 65,Geretsried,Freistaat Bayern,82526
Nuernbergerstrasse 20,Wildeshausen,Niedersachsen,27793
Reeperbahn 87,Barth,Mecklenburg-Vorpommern,18352
Rudolstaedter Strasse 15,Bawinkel,Niedersachsen,49844
Alt Reinickendorf 69,Wertingen,Freistaat Bayern,86634
An der Schillingbrucke 77,Deggingen,Baden-Württemberg,73326
Budapester Strasse 49,Honigsee,Schleswig-Holstein,24211
Konstanzer Strasse 58,Linsengericht,Hessen,63589
Albrechtstrasse 81,Passau,Freistaat Bayern,94032
Gotthardstrasse 92,Chemnitz,Freistaat Sachsen,9039
Lützowplatz 99,Onsdorf,Rheinland-Pfalz,54456
Fontenay 81,Kronach,Freistaat Bayern,96313
Rudolstaedter Strasse 71,Frammersbach,Freistaat Bayern,97830
Motzstr. 23,Schornsheim,Rheinland-Pfalz,55288
Bleibtreustraße 72,Bad Säckingen,Baden-Württemberg,79713
Alsterkrugchaussee 47,Schwabach,Freistaat Bayern,91102
Gotthardstrasse 88,Kirchheim,Freistaat Bayern,85547
Leipziger Strasse 35,Wiesbaden,Hessen,65191
Wallstrasse 83,Polch,Rheinland-Pfalz,56751
Joachimstaler Str. 74,Geisig,Rheinland-Pfalz,56357
Gruenauer Strasse 92,Stemmen,Niedersachsen,27389
Luebecker Strasse 5,Zeil,Freistaat Bayern,97471
Heinrich Heine Platz 93,Heilbad Heiligenstadt,Freistaat Thüringen,37301
Wallstrasse 72,Kaifenheim,Rheinland-Pfalz,56761
Sonnenallee 80,Augsburg,Freistaat Bayern,86007
Prenzlauer Allee 54,Leipzig,Freistaat Sachsen,4233
Alsterkrugchaussee 92,Amerdingen,Freistaat Bayern,86735
Los-Angeles-Platz 20,Norderstedt,Schleswig-Holstein,22809
Meinekestraße 55,Barnstorf,Niedersachsen,49406
Charlottenstrasse 92,Dresden,Freistaat Sachsen,1221
Heinrich Heine Platz 5,Bad Langensalza,Freistaat Thüringen,99943
Hochstrasse 46,Ahneby,Schleswig-Holstein,24996
Langenhorner Chaussee 83,Inzell,Freistaat Bayern,83330
Paul-Nevermann-Platz 7,Niederwerrn,Freistaat Bayern,97464
Augsburger Strasse 79,Wallmenroth,Rheinland-Pfalz,57584
Bayreuther Strasse 52,Reutlingen Burgholz,Baden-Württemberg,72766
Landsberger Allee 63,München,Freistaat Bayern,80068
Augsburger Strasse 45,Fuchshof,Freistaat Bayern,91344
Michaelkirchstr. 8,Bad Karlshafen,Hessen,34385
Meininger Strasse 90,Riegelsberg,Saarland,66292
An der Alster 62,Amt Neuhaus,Niedersachsen,19273
Gotzkowskystrasse 5,Waldmühlen,Rheinland-Pfalz,56479
Brandenburgische Strasse 51,Weisenheim am Sand,Rheinland-Pfalz,67256
Pappelallee 9,Kuhschnappel,Freistaat Sachsen,9356
Gruenauer Strasse 50,Trittau,Schleswig-Holstein,22943
Michaelkirchstr. 64,Heuerßen,Niedersachsen,31700
Joachimstaler Str. 90,Riesweiler,Rheinland-Pfalz,55499
Luetzowplatz 26,Kruchten,Rheinland-Pfalz,54675
Ufnau Strasse 2,Memmingen,Freistaat Bayern,87683
Kantstraße 51,Elterlein,Freistaat Sachsen,9481
Luebeckertordamm 47,Vorra,Freistaat Bayern,91247
Guentzelstrasse 60,Feusdorf,Rheinland-Pfalz,54584
Ansbacher Strasse 2,Schneppenbach,Rheinland-Pfalz,55608
Stuttgarter Platz 11,Becheln,Rheinland-Pfalz,56132
Büsingstrasse 85,Wörth,Freistaat Bayern,84109
Waßmannsdorfer Chaussee 62,Barsbüttel,Schleswig-Holstein,22882
Fontenay 76,Hohenberg,Freistaat Bayern,95691
Ruschestrasse 63,Stendal,Sachsen-Anhalt,39560
Mühlenstrasse 65,Würzburg,Freistaat Bayern,97001
Rudower Chaussee 35,Bad Kissingen,Freistaat Bayern,97672
Pasewalker Straße 45,Malsch,Baden-Württemberg,76316
Marseiller Strasse 70,Mallersdorf-Pfaffenberg,Freistaat Bayern,84066
Büsingstrasse 98,Karlsfeld,Freistaat Bayern,85752
Rohrdamm 42,Höfer,Niedersachsen,29361
Koenigstrasse 52,Zimmern,Baden-Württemberg,72369
Lietzenburger Strasse 18,Königswinter,Nordrhein-Westfalen,53639
Spresstrasse 84,Bielefeld Brönninghausen,Nordrhein-Westfalen,33719
Rosenstrasse 96,München,Freistaat Bayern,81671
Rankestraße 24,Karlshuld,Freistaat Bayern,86668
Büsingstrasse 85,Wörth,Freistaat Bayern,84109
Eichendorffstr. 99,Wörnersberg,Baden-Württemberg,72299
Chausseestr. 55,Reinbek,Schleswig-Holstein,21451
Bayreuther Strasse 30,Frankfurt,Brandenburg,15232
Mollstrasse 86,Reinheim,Hessen,64354
Karl-Liebknecht-Strasse 50,Delmenhorst,Niedersachsen,27751
Gubener Str. 2,Rosenheim,Freistaat Bayern,83008
Neuer Jungfernstieg 47,Eggenfelden,Freistaat Bayern,84302
Rhinstrasse 79,München,Freistaat Bayern,81302
Schaarsteinweg 29,Mötzing,Freistaat Bayern,93099
Buelowstrasse 89,Höchstberg,Rheinland-Pfalz,56767
Pohlstrasse 25,Bad Harzburg,Niedersachsen,38667
Ziegelstr. 32,Winzer,Freistaat Bayern,94577
Brandenburgische Strasse 68,Kerzenheim,Rheinland-Pfalz,67304
Gubener Str. 21,Oberaudorf,Freistaat Bayern,83076
Ufnau Strasse 67,Füssen,Freistaat Bayern,87629
Hallesches Ufer 83,Lebach,Freistaat Thüringen,66822
Anhalter Strasse 54,Kalkofen,Rheinland-Pfalz,67822
Jenaer Strasse 34,Duisburg,Nordrhein-Westfalen,47138
Ansbacher Strasse 95,Krummenau,Rheinland-Pfalz,55483
Hardenbergstraße 12,Langenbach,Freistaat Bayern,85416
Stresemannstr. 85,Beckingen,Freistaat Thüringen,66701
Brandenburgische Str 38,Norath,Rheinland-Pfalz,56291
Scharnweberstrasse 75,Abtsteinach,Hessen,69518
Stuttgarter Platz 41,Moschheim,Rheinland-Pfalz,56424
Mollstrasse 21,Hofheim,Freistaat Bayern,97457
Hochstrasse 93,Glücksburg,Schleswig-Holstein,24960
Hochstrasse 15,Rantum,Schleswig-Holstein,25980
Langenhorner Chaussee 13,Berchtesgaden,Freistaat Bayern,83466
Kantstrasse 16,Nürnberg,Freistaat Bayern,90227
Gotthardstrasse 27,Erfurt,Freistaat Thüringen,99022
Hollander Strasse 96,Buseck,Hessen,35418
Paderborner Strasse 79,Pöttmes,Freistaat Bayern,86554
Karl-Liebknecht-Strasse 66,Syke,Niedersachsen,28857
Alt Reinickendorf 22,Blaichach,Freistaat Bayern,87542
Bayreuther Strasse 32,Frankfurt,Brandenburg,15207
Mollstrasse 8,Bubenheim,Rheinland-Pfalz,55270
Esplanade 61,Maxhütte-Haidhof,Freistaat Bayern,93139
Amsinckstrasse 11,Annaburg,Sachsen-Anhalt,6925
Billwerder Neuer Deich 66,Stockheim,Freistaat Bayern,96342
Ansbacher Strasse 79,Schwerbach,Rheinland-Pfalz,55624
Ruschestrasse 21,Genthin,Sachsen-Anhalt,39303
Gruenauer Strasse 17,Ahlerstedt,Niedersachsen,21702
Rosenstrasse 96,München,Freistaat Bayern,81671
Brandenburgische Strasse 34,Ranschbach,Rheinland-Pfalz,76829
An der Alster 69,Barkow,Mecklenburg-Vorpommern,19372
Messedamm 25,Coswig,Freistaat Sachsen,1631
Lietzensee-Ufer 88,Görlitz,Freistaat Sachsen,2816
Heinrich Heine Platz 65,Heiligenstadt,Freistaat Bayern,91331
Pohlstrasse 6,Hornburg,Niedersachsen,38315
Gotzkowskystrasse 42,Greimersburg,Rheinland-Pfalz,56814
Flotowstr. 56,Beyernaumburg,Sachsen-Anhalt,6528
Hollander Strasse 98,Birlenbach,Rheinland-Pfalz,65626
Meinekestraße 47,Bad Laer,Niedersachsen,49196
Buelowstrasse 27,Uersfeld,Rheinland-Pfalz,56767
Rohrdamm 27,Wendeburg,Niedersachsen,38176
Kantstrasse 81,Nürnberg,Freistaat Bayern,90431
Charlottenstrasse 50,Cottbus,Brandenburg,3053
Knesebeckstrasse 51,Asbach,Rheinland-Pfalz,55758
Grolmanstraße 19,Bremen Aumund-Hammersbeck,Freie Hansestadt Bremen,28755
Mellingburgredder 60,Erlangen,Freistaat Bayern,91001
Gotzkowskystraße 27,Südlohn,Nordrhein-Westfalen,46354
Rudolstaedter Strasse 56,Pohlheim,Hessen,35415
Landhausstraße 49,Schönwalde,Schleswig-Holstein,23744
Alt-Moabit 43,Jütebog,Brandenburg,14901
Michaelkirchstr. 68,Liebenau,Niedersachsen,31618
Boxhagener Str. 55,Hamburg Hohenfelde,Hamburg,22087
Fontenay 76,Hohenberg,Freistaat Bayern,95691
Inge Beisheim Platz 6,Bokel,Schleswig-Holstein,25364
Hardenbergstraße 12,Langenbach,Freistaat Bayern,85416
Kantstrasse 53,Bayreuth,Freistaat Bayern,95422
Ansbacher Strasse 46,Liesenich,Rheinland-Pfalz,56858
Knesebeckstrasse 51,Asbach,Rheinland-Pfalz,55758
Prager Str 95,Fürstenfeldbruck,Freistaat Bayern,82256
Anhalter Strasse 36,Lambsborn,Rheinland-Pfalz,66894
Bleibtreustraße 93,Weilheim,Baden-Württemberg,79809
Rhinstrasse 96,München,Freistaat Bayern,81241
Grolmanstraße 65,Bremen Buntentor,Freie Hansestadt Bremen,28201
Am Borsigturm 51,Dormagen Nievenheim,Nordrhein-Westfalen,41542
Mellingburgredder 60,Erlangen,Freistaat Bayern,91001
Hans-Grade-Allee 90,Schuby,Schleswig-Holstein,24849
Rhinstrasse 28,München,Freistaat Bayern,80754
Waßmannsdorfer Chaussee 62,Barsbüttel,Schleswig-Holstein,22882
Rosenstrasse 47,München,Freistaat Bayern,81506
Schaarsteinweg 76,Falkenstein,Freistaat Bayern,93165
Messedamm 75,Halle,Sachsen-Anhalt,6041
Ansbacher Strasse 30,Oberkirn,Rheinland-Pfalz,55624
Kantstraße 29,Annaberg-Buchholz,Freistaat Sachsen,9449
Invalidenstrasse 18,Hainfeld,Rheinland-Pfalz,76835
Stuttgarter Platz 32,Niederelbert,Rheinland-Pfalz,56412
An Der Urania 86,Wewelsfleth,Schleswig-Holstein,25599
Wallstrasse 97,Thalhausen,Rheinland-Pfalz,56584
Amsinckstrasse 49,Hosena,Brandenburg,1996
Lützowplatz 7,Neroth,Rheinland-Pfalz,54570
Gruenauer Strasse 1,Drage,Niedersachsen,21423
Los-Angeles-Platz 13,Kaiserslautern Dansenberg,Rheinland-Pfalz,67661
Hollander Strasse 69,Weroth,Rheinland-Pfalz,56414
Paderborner Strasse 81,Hiltenfingen,Freistaat Bayern,86856
Gubener Str. 52,Emmering,Freistaat Bayern,82275
Mollstrasse 77,Schwabenheim an der Selz,Rheinland-Pfalz,55270
Billwerder Neuer Deich 19,Hof,Freistaat Bayern,95013
Marseiller Strasse 65,Ohlstadt,Freistaat Bayern,82441
Sonnenallee 59,Gundelfingen,Baden-Württemberg,79194
Pappelallee 53,Niederwürschnitz,Freistaat Sachsen,9399
Hochstrasse 51,Westerland,Schleswig-Holstein,25963
Brandenburgische Straße 54,Berlin Lichtenberg,Berlin,10369
Unter den Linden 6,Magdeburg,Sachsen-Anhalt,39011
An Der Urania 11,Nortorf,Schleswig-Holstein,24583
Oldesloer Strasse 7,Bad Klosterlausnitz,Freistaat Thüringen,7637
Los-Angeles-Platz 84,Braunschweig,Niedersachsen,38116
Kantstrasse 81,Nürnberg,Freistaat Bayern,90431
Eschenweg 44,Jena,Freistaat Thüringen,7705
Landsberger Allee 67,München,Freistaat Bayern,80528
Schmarjestrasse 53,Kremmen,Brandenburg,16763
Lietzenburger Strasse 2,Lohmar,Nordrhein-Westfalen,53797
Hedemannstasse 40,Eichstegen,Baden-Württemberg,88361
Genslerstraße 96,Berlin Schöneberg,Berlin,12103
Reeperbahn 60,Bad Schussenried,Baden-Württemberg,88427
Langenhorner Chaussee 13,Berchtesgaden,Freistaat Bayern,83466
Flughafenstrasse 14,Oberviechtach,Freistaat Bayern,92526
Reeperbahn 76,Altenhagen,Mecklenburg-Vorpommern,18236
Alt Reinickendorf 92,Burgberg,Freistaat Bayern,87545
Stresemannstr. 44,Tholey,Freistaat Thüringen,66632
Meininger Strasse 15,Leisel,Rheinland-Pfalz,55767
Inge Beisheim Platz 4,Barendorf,Niedersachsen,21397
Kurfürstenstraße 89,Affalter,Freistaat Sachsen,8294
Genslerstraße 59,Berlin Schmöckwitz,Berlin,12527
Waßmannsdorfer Chaussee 97,Hamburg Altstadt,Hamburg,20457
Meinekestraße 33,Eggermühlen,Niedersachsen,49577
Anhalter Strasse 42,Bechhofen,Rheinland-Pfalz,66894
Landsberger Allee 35,München,Freistaat Bayern,80077
Kastanienallee 84,Leezdorf,Niedersachsen,26529
Feldstrasse 28,Drackenstedt,Sachsen-Anhalt,39365
Rankestraße 74,Lenting,Freistaat Bayern,85099
Stresemannstr. 11,Beckingen,Freistaat Thüringen,66701
Heinrich Heine Platz 59,Bischofswerda,Freistaat Sachsen,1873
Hermannstrasse 14,Worms Leiselheim,Rheinland-Pfalz,67549
Charlottenstrasse 80,Cottbus,Brandenburg,3014
Gubener Str. 2,Rosenheim,Freistaat Bayern,83008
An der Alster 4,Bergfriede,Sachsen-Anhalt,39646
Stresemannstr. 85,Beckingen,Freistaat Thüringen,66701
Ufnau Strasse 82,Füssen,Freistaat Bayern,87622
Kieler Strasse 45,Seebruck,Freistaat Bayern,83356
Genterstrasse 15,Kiel,Schleswig-Holstein,24146
Amsinckstrasse 28,Bad Liebenwerda,Brandenburg,4924
Michaelkirchstr. 8,Porta Westfalica,Nordrhein-Westfalen,32457
Pappelallee 53,Niederwürschnitz,Freistaat Sachsen,9399
Schillerstrasse 33,Landsberg,Freistaat Bayern,86896
Grolmanstraße 42,Bremen Neue Vahr Südost,Freie Hansestadt Bremen,28327
Waßmannsdorfer Chaussee 62,Barsbüttel,Schleswig-Holstein,22881
Brandenburgische Strasse 68,Kerzenheim,Rheinland-Pfalz,67304
Genterstrasse 79,Kiel,Schleswig-Holstein,24018
Marseiller Strasse 29,Eberfing,Freistaat Bayern,82390
Park Str. 79,Solingen Burg,Nordrhein-Westfalen,42659
Gotthardstrasse 66,Chemnitz,Freistaat Sachsen,9026
Lützowplatz 25,Irsch,Rheinland-Pfalz,54451
Ruschestrasse 7,Gleviner Burg,Mecklenburg-Vorpommern,18273
Rhinstrasse 9,München,Freistaat Bayern,81203
Flotowstr. 56,Beyernaumburg,Sachsen-Anhalt,6528
Güntzelstrasse 26,Zemmer,Rheinland-Pfalz,54313
Ufnau Strasse 82,Füssen,Freistaat Bayern,87622
Gotthardstrasse 68,Erfurt,Freistaat Thüringen,99091
Los-Angeles-Platz 91,Hamburg Winterhude,Hamburg,22301
Koepenicker Str. 82,Pohl,Rheinland-Pfalz,56357
Waldowstr. 33,Waakirchen,Freistaat Bayern,83662
Lietzensee-Ufer 41,Lübbenau,Brandenburg,3216
Eschenweg 23,Schmalkalden,Freistaat Thüringen,98570
Luetzowplatz 91,Fließem,Rheinland-Pfalz,54636
Kantstraße 9,Limbach-Oberfrohna,Freistaat Sachsen,9207
Alt Reinickendorf 76,Balzhausen,Freistaat Bayern,86483
Lietzensee-Ufer 57,Görlitz,Freistaat Sachsen,2828
Ellmenreichstrasse 51,Egloffstein,Freistaat Bayern,91349
Lietzenburger Strasse 18,Königswinter,Nordrhein-Westfalen,53639
Fugger Strasse 9,Koblenz Asterstein,Rheinland-Pfalz,56077
Eschenweg 71,Ilmenau,Freistaat Thüringen,98684
Michaelkirchstr. 56,Felsberg,Hessen,34587
Ufnau Strasse 82,Füssen,Freistaat Bayern,87622
Storkower Strasse 18,Leutesdorf,Rheinland-Pfalz,56599
Stresemannstr. 38,Gersheim,Saarland,66453
Am Borsigturm 75,Neuss Stadionviertel,Nordrhein-Westfalen,41464
Jenaer Strasse 39,Duisburg,Nordrhein-Westfalen,47166
Neuer Jungfernstieg 96,Dingolfing,Freistaat Bayern,84125
Sonnenallee 37,Augsburg,Freistaat Bayern,86034
Genslerstraße 79,Berlin Wedding,Berlin,13409
Grolmanstraße 76,Bremen Borgfeld,Freie Hansestadt Bremen,28357
Boxhagener Str. 50,Hamburg Fuhlsbüttel,Hamburg,22335
Straße der Pariser Kommune 48,Münster,Nordrhein-Westfalen,48151
Am Borsigturm 61,Dormagen Stürzelberg,Nordrhein-Westfalen,41541
Eichendorffstr. 52,Hergatz,Freistaat Bayern,88143
Schaarsteinweg 74,Neunburg,Freistaat Bayern,92427
Alter Wall 11,Miltenberg,Freistaat Bayern,63888
Hans-Grade-Allee 49,Todendorf,Schleswig-Holstein,22965
Meininger Strasse 36,Hoppstädten,Rheinland-Pfalz,67744
Lange Strasse 77,München,Freistaat Bayern,81927
Hedemannstasse 79,Hettingen,Baden-Württemberg,72513
Jahnstrasse 45,Wurmsham,Freistaat Bayern,84189
Ufnau Strasse 97,Ingenried,Freistaat Bayern,86980
Waldowstr. 6,Ilshofen,Baden-Württemberg,74532
Koenigstrasse 34,Camburg,Freistaat Thüringen,7771
Langenhorner Chaussee 13,Berchtesgaden,Freistaat Bayern,83466
Brandenburgische Str. 36,Talheim,Baden-Württemberg,74388
Langenhorner Chaussee 56,Siegsdorf,Freistaat Bayern,83310
Ellmenreichstrasse 23,Kulmbach,Freistaat Bayern,95302
Heinrich Heine Platz 50,Löbau,Freistaat Sachsen,2704
Chausseestr. 37,Pinneberg,Schleswig-Holstein,25412
Rathausstrasse 16,Asbach-Bäumenheim,Freistaat Bayern,86663
Chausseestr. 37,Pinneberg,Schleswig-Holstein,25412
Gotzkowskystrasse 41,Bachenberg,Rheinland-Pfalz,57610
Pasewalker Straße 45,Malsch,Baden-Württemberg,76316
Gotthardstrasse 50,Erfurt,Freistaat Thüringen,99092
Prenzlauer Allee 45,Leipzig,Freistaat Sachsen,4187
Grolmanstraße 76,Bremen Neustadt,Freie Hansestadt Bremen,28199
Wallstrasse 30,Roßbach,Rheinland-Pfalz,53547
Flughafenstrasse 69,Tirschenreuth,Freistaat Bayern,95637
Waldowstr. 16,Obergröningen,Baden-Württemberg,73569
Knesebeckstraße 5,Iserlohn,Nordrhein-Westfalen,58638
Fasanenstrasse 5,Hamburg Ochsenwerder,Hamburg,21037
Hochstrasse 57,Rantum,Schleswig-Holstein,25980
Amsinckstrasse 66,Abtsbessingen,Freistaat Thüringen,99713
Hoheluftchaussee 12,Meyenburg,Brandenburg,16942
Rohrdamm 67,Herford Laar,Nordrhein-Westfalen,32051
Hochstrasse 80,Stoltebüll,Schleswig-Holstein,24409
Joachimstaler Str. 30,Geisig,Rheinland-Pfalz,56357
Rosenstrasse 96,München,Freistaat Bayern,81671
Rankestraße 96,Inning,Freistaat Bayern,84416
Hallesches Ufer 12,Dettingen,Baden-Württemberg,72581
Flotowstr. 50,Aschersleben,Sachsen-Anhalt,6433
Waßmannsdorfer Chaussee 89,Hamburg Bahrenfeld,Hamburg,22547
Budapester Strasse 65,Neumünster,Schleswig-Holstein,24503
Budapester Strasse 18,Kirchtimke,Niedersachsen,27412
Konstanzer Strasse 92,Rodgau,Hessen,63110
Karl-Liebknecht-Strasse 19,Harpstedt,Niedersachsen,27243
Stuttgarter Platz 19,Sulzbach,Rheinland-Pfalz,56379
Schönhauser Allee 74,Eichstetten,Baden-Württemberg,79356
Genslerstraße 59,Berlin Schmöckwitz,Berlin,12527
Ollenhauer Str. 31,Stuttgart Sillenbuch,Baden-Württemberg,70619
Scharnweberstrasse 8,Mannheim Industriehafen,Baden-Württemberg,68169
Storkower Strasse 67,Andernach,Rheinland-Pfalz,56626
Friedrichstrasse 28,Düsseldorf Gerresheim,Nordrhein-Westfalen,40627
Kurfürstenstraße 89,Affalter,Freistaat Sachsen,8294
Alt-Moabit 52,Luckenwalde,Brandenburg,14932
Schaarsteinweg 94,Schwandorf,Freistaat Bayern,92401
Schaarsteinweg 94,Schwandorf,Freistaat Bayern,92401
Gruenauer Strasse 21,Sauensiek,Niedersachsen,21644
Alsterkrugchaussee 95,Bissingen,Freistaat Bayern,86656
Knesebeckstrasse 26,Obernau,Rheinland-Pfalz,57638
Grolmanstraße 4,Bremen Blockdiek,Freie Hansestadt Bremen,28327
Gotzkowskystrasse 94,Gieleroth,Rheinland-Pfalz,57610
Nuernbergerstrasse 20,Wildeshausen,Niedersachsen,27793
Fasanenstrasse 85,Hamburg Rotherbaum,Hamburg,20357
Stresemannstr. 77,Ottweiler,Freistaat Thüringen,66558
Jenaer Strasse 9,Wuppertal Elberfeld,Nordrhein-Westfalen,42111
Genslerstraße 37,Berlin Schmargendorf,Berlin,14199
Hedemannstasse 78,Veringenstadt,Baden-Württemberg,72519
Ollenhauer Str. 5,Stuttgart Süd,Baden-Württemberg,70199
Neue Roßstr. 12,Esslingen Serach,Baden-Württemberg,73732
Leopoldstraße 80,Berlin Borsigwalde,Berlin,13509
Fasanenstrasse 95,Hamburg Langenbek,Hamburg,21079
An Der Urania 5,Ahrenshöft,Schleswig-Holstein,25853
Knesebeckstrasse 74,Forst,Brandenburg,3141
Genslerstraße 96,Berlin Schöneberg,Berlin,12103
Rohrdamm 90,Lachendorf,Niedersachsen,29331
Rhinstrasse 79,München,Freistaat Bayern,81302
Am Borsigturm 61,Dormagen Stürzelberg,Nordrhein-Westfalen,41541
Alsterkrugchaussee 92,Amerdingen,Freistaat Bayern,86735
Hedemannstasse 54,Lörrach Stetten,Baden-Württemberg,79539
Feldstrasse 43,Löcknitz,Mecklenburg-Vorpommern,17319
An der Alster 67,Laage,Mecklenburg-Vorpommern,18293
Motzstr. 58,Wintersheim,Rheinland-Pfalz,67587
Eschenweg 44,Jena,Freistaat Thüringen,7705
Paderborner Strasse 40,Fuchstal,Freistaat Bayern,86925
Neuer Jungfernstieg 84,Geisenhausen,Freistaat Bayern,84144
Karl-Liebknecht-Strasse 8,Oyten,Niedersachsen,28876
Stuttgarter Platz 43,Olfen,Nordrhein-Westfalen,59399
Bayreuther Strasse 52,Reutlingen Burgholz,Baden-Württemberg,72766
Kieler Strasse 31,Engelsberg,Freistaat Bayern,84549
Leopoldstraße 60,Berlin Friedrichsfelde,Berlin,10315
Chausseestr. 35,Aumühle,Schleswig-Holstein,21518
Gubener Str. 54,Holzkirchen,Freistaat Bayern,83607
Ufnau Strasse 88,Nesselwang,Freistaat Bayern,87481
Knesebeckstraße 67,Linnich,Nordrhein-Westfalen,52441
Brandenburgische Straße 64,Berlin Kaulsdorf,Berlin,12621
Paul-Nevermann-Platz 74,Poppenhausen,Freistaat Bayern,97490
Alt-Moabit 43,Jütebog,Brandenburg,14901
Hardenbergstraße 85,Kollweiler,Rheinland-Pfalz,66879
Neue Roßstr. 83,Trier Olewig,Rheinland-Pfalz,54296
Alter Wall 42,Arnstein,Freistaat Bayern,97448
Genterstrasse 28,Bremen Vegesack,Freie Hansestadt Bremen,28759
Esplanade 66,Barbing,Freistaat Bayern,93092
Eichendorffstr. 68,Amtzell,Baden-Württemberg,88279
Rosenstrasse 67,München,Freistaat Bayern,81613
Chausseestr. 39,Pinneberg,Schleswig-Holstein,25410
Marseiller Strasse 65,Ohlstadt,Freistaat Bayern,82441
Hardenbergstraße 58,Knopp-Labach,Rheinland-Pfalz,66917
Wallstrasse 41,Breitscheid,Rheinland-Pfalz,53547
Schoenebergerstrasse 83,Hartmannsdorf,Brandenburg,15528
Scharnweberstrasse 15,Schwalbach am Taunus,Hessen,65824
Messedamm 50,Dresden,Freistaat Sachsen,1219
Fugger Strasse 72,Koblenz Kesselheim,Rheinland-Pfalz,56070
Spresstrasse 93,Bremerhaven Lehe,Freie Hansestadt Bremen,27568
Rhinstrasse 75,München,Freistaat Bayern,81301
Charlottenstrasse 50,Cottbus,Brandenburg,3053
An der Alster 27,Emden,Niedersachsen,26721
Hollander Strasse 87,Hadamar,Hessen,65589
Schaarsteinweg 72,Nittenau,Freistaat Bayern,93149
Mellingburgredder 3,Heroldsbach,Freistaat Bayern,91336
Luetzowplatz 81,Meerfeld,Rheinland-Pfalz,54531
Am Borsigturm 30,Neuss Hafengebiet,Nordrhein-Westfalen,41460
Alt Reinickendorf 48,Oberstdorf,Freistaat Bayern,87555
An der Alster 67,Laage,Mecklenburg-Vorpommern,18293
Flughafenstrasse 38,Windischeschenbach,Freistaat Bayern,92670
Rosenstrasse 89,München,Freistaat Bayern,81520
Kieler Strasse 31,Aufkirchen,Freistaat Bayern,82282
Unter den Linden 38,Magdeburg,Sachsen-Anhalt,39007
Rosenstrasse 37,München,Freistaat Bayern,81614
Landsberger Allee 35,München,Freistaat Bayern,80077
Hallesches Ufer 48,Frickenhausen,Freistaat Bayern,97252
Luetzowplatz 91,Fließem,Rheinland-Pfalz,54636
Koenigstrasse 15,Rohrbach,Rheinland-Pfalz,55776
Luebecker Strasse 91,Burglengenfeld,Freistaat Bayern,93133
Anhalter Strasse 54,Kalkofen,Rheinland-Pfalz,67822
Genslerstraße 79,Berlin Wedding,Berlin,13409
Inge Beisheim Platz 52,Wriedel,Niedersachsen,29565
Genterstrasse 32,Kiel,Schleswig-Holstein,24159
Ziegelstr. 32,Winzer,Freistaat Bayern,94577
Joachimstaler Str. 25,Hasselbach,Rheinland-Pfalz,56288
Fugger Strasse 97,Koblenz Ehrenbreitstein,Rheinland-Pfalz,56076
Friedrichstrasse 28,Düsseldorf Gerresheim,Nordrhein-Westfalen,40627
Schaarsteinweg 72,Nittenau,Freistaat Bayern,93149
Leipziger Strasse 70,Gießen,Hessen,35398
Storkower Strasse 13,Neuhäusel,Rheinland-Pfalz,56335
Alsterkrugchaussee 2,Cadolzburg,Freistaat Bayern,90553
Kurfuerstendamm 9,Hergolding,Freistaat Bayern,85599
Michaelkirchstr. 68,Liebenau,Niedersachsen,31618
Gotzkowskystraße 27,Südlohn,Nordrhein-Westfalen,46354
Knesebeckstrasse 26,Obernau,Rheinland-Pfalz,57638
Ansbacher Strasse 79,Schwerbach,Rheinland-Pfalz,55624
Rosenstrasse 89,München,Freistaat Bayern,81520
An Der Urania 86,Wewelsfleth,Schleswig-Holstein,25599
Fugger Strasse 86,Koblenz Oberwerth,Rheinland-Pfalz,56075
Rankestraße 96,Inning,Freistaat Bayern,84416
Anhalter Strasse 36,Lambsborn,Rheinland-Pfalz,66894
Rudower Strasse 14,Winterscheid,Rheinland-Pfalz,54608
Brandenburgische Strasse 85,Burrweiler,Rheinland-Pfalz,76835
Rankestraße 39,Karlshuld,Freistaat Bayern,86668
Inge Beisheim Platz 7,Tangstedt,Schleswig-Holstein,22889
Rudower Strasse 99,Fischbach-Oberraden,Rheinland-Pfalz,54675
Friedrichstrasse 38,Düsseldorf Hellerhof,Nordrhein-Westfalen,40595
Neuer Jungfernstieg 92,Landshut,Freistaat Bayern,84003
Hoheluftchaussee 9,Ablaß,Freistaat Sachsen,4769
Mohrenstrasse 19,Eschbronn,Baden-Württemberg,78664
Waßmannsdorfer Chaussee 62,Barsbüttel,Schleswig-Holstein,22882
Pasewalker Straße 28,Birkenfeld,Baden-Württemberg,75217
Konstanzer Strasse 62,Weibersbrunn,Freistaat Bayern,63879
Hedemannstasse 28,Krauchenwies,Baden-Württemberg,72505
Frankfurter Allee 40,Karlsruhe Mühlburg,Baden-Württemberg,76187
Oldesloer Strasse 76,Trusetal,Freistaat Thüringen,98594
Kantstrasse 64,Nürnberg,Freistaat Bayern,90491
An Der Urania 93,Friedrichskoog,Schleswig-Holstein,25716
Unter den Linden 81,Schwerin,Mecklenburg-Vorpommern,19017
Rankestraße 85,Greding,Freistaat Bayern,91171
Bissingzeile 71,Krummendeich,Niedersachsen,21732
Gubener Str. 11,Schliersee,Freistaat Bayern,83726
Prenzlauer Allee 7,Halle,Sachsen-Anhalt,6013
Bleibtreustraße 36,Oberwolfach,Baden-Württemberg,77709
Prager Str 95,Fürstenfeldbruck,Freistaat Bayern,82256
Anhalter Strasse 81,Bechhofen,Freistaat Bayern,91568
Albrechtstrasse 84,Nußdorf,Freistaat Bayern,83131
Brandenburgische Str. 58,Wüstenrot,Baden-Württemberg,71543
Pappelallee 94,Adorf,Freistaat Sachsen,8622
Ansbacher Strasse 39,Maring-Noviand,Rheinland-Pfalz,54484
Wallstrasse 30,Roßbach,Rheinland-Pfalz,53547
Borstelmannsweg 7,Coburg,Freistaat Bayern,96418
Gotthardstrasse 50,Erfurt,Freistaat Thüringen,99092
Hoheluftchaussee 9,Altgarz,Brandenburg,16845
Joachimstaler Str. 30,Geisig,Rheinland-Pfalz,56357
Schmarjestrasse 32,Arensdorf,Sachsen-Anhalt,6369
Paul-Nevermann-Platz 91,Aura,Freistaat Bayern,97773
Prager Str 39,Oberschweinbach,Freistaat Bayern,82294
Knesebeckstrasse 24,Reiferscheid,Rheinland-Pfalz,57632
Paderborner Strasse 68,Oberrieden,Freistaat Bayern,87769
Chausseestr. 93,Witzhave,Schleswig-Holstein,22969
Gotzkowskystrasse 3,Roes,Rheinland-Pfalz,56754
Bleibtreustrasse 40,Detmold Hakedahl,Nordrhein-Westfalen,32758
Gotzkowskystrasse 42,Greimersburg,Rheinland-Pfalz,56814
Michaelkirchstr. 26,Minden Päpinghausen,Nordrhein-Westfalen,32425
Hermannstrasse 9,Beindersheim,Rheinland-Pfalz,67259
Alt Reinickendorf 90,Salgen,Freistaat Bayern,87775
Invalidenstrasse 61,Sankt Martin,Rheinland-Pfalz,67488
Mollstrasse 8,Bubenheim,Rheinland-Pfalz,55270
Kurfuerstendamm 7,Ismaning,Freistaat Bayern,85731
Brandenburgische Straße 53,Berlin Niederschönhausen,Berlin,13158
Meinekestraße 58,Moringen,Niedersachsen,37186
Messedamm 50,Dresden,Freistaat Sachsen,1219
Ansbacher Strasse 57,Hahn,Rheinland-Pfalz,56850
Pappelallee 24,Adorf,Freistaat Sachsen,8621
Invalidenstrasse 12,Kallstadt,Rheinland-Pfalz,67169
Luebecker Strasse 27,Pfarrweisach,Freistaat Bayern,96176
Pasewalker Straße 58,Forbach,Baden-Württemberg,76596
Inge Beisheim Platz 32,Agathenburg,Niedersachsen,21684
Sömmeringstr. 54,Pforzheim Weststadt,Baden-Württemberg,75172
Bleibtreustrasse 77,Gütersloh Spexard,Nordrhein-Westfalen,33334
Bissingzeile 22,Wrohm,Schleswig-Holstein,25799
Brandenburgische Strasse 42,Kapsweyer,Rheinland-Pfalz,76889
Hardenbergstraße 58,Knopp-Labach,Rheinland-Pfalz,66917
Paul-Nevermann-Platz 81,Schweinfurt,Freistaat Bayern,97408
Ellmenreichstrasse 61,Forchheim,Freistaat Bayern,91291
Luebeckertordamm 25,Kirchensittenbach,Freistaat Bayern,91241
Chausseestr. 55,Reinbek,Schleswig-Holstein,21451
Invalidenstrasse 62,Trulben,Rheinland-Pfalz,66957
Hoheluftchaussee 9,Kyritz,Brandenburg,16861
Sonnenallee 59,Gundelfingen,Baden-Württemberg,79194
Knesebeckstrasse 4,Obersteinebach,Rheinland-Pfalz,56593
Fischerinsel 60,Remscheid Innen,Nordrhein-Westfalen,42857
Genterstrasse 15,Kiel,Schleswig-Holstein,24146
Meinekestraße 17,Krebeck,Niedersachsen,37434
Boxhagener Str. 20,Hamburg Eidelstedt,Hamburg,22457
Scharnweberstrasse 80,Mannheim Gartenstadt,Baden-Württemberg,68305
Karl-Liebknecht-Strasse 19,Harpstedt,Niedersachsen,27243
An Der Urania 64,Bergewöhrden,Schleswig-Holstein,25779
Hedemannstasse 10,Ostrach,Baden-Württemberg,88356
Fischerinsel 66,Mönchengladbach Hardt,Nordrhein-Westfalen,41169
Gruenauer Strasse 48,Kollow,Schleswig-Holstein,21527
Hoheluftchaussee 61,Goldschau,Sachsen-Anhalt,6721
Anhalter Strasse 81,Bechhofen,Freistaat Bayern,91568
An Der Urania 66,Oldersbek,Schleswig-Holstein,25873
Ollenhauer Str. 76,Stuttgart Mitte,Baden-Württemberg,70184
Eschenweg 44,Rudolstadt,Freistaat Thüringen,7395
Prager Str 44,Mammendorf,Freistaat Bayern,82291
Boxhagener Str. 20,Hamburg Eidelstedt,Hamburg,22457
Scharnweberstrasse 80,Mannheim Gartenstadt,Baden-Württemberg,68305
Mellingburgredder 3,Heroldsbach,Freistaat Bayern,91336
Stuttgarter Platz 11,Becheln,Rheinland-Pfalz,56132
Invalidenstrasse 61,Sankt Martin,Rheinland-Pfalz,67488
Ruschestrasse 21,Genthin,Sachsen-Anhalt,39303
Holstenwall 56,Oranienbaum,Sachsen-Anhalt,6782
Billwerder Neuer Deich 55,Bad Berneck,Freistaat Bayern,95458
Brandenburgische Strasse 51,Weisenheim am Sand,Rheinland-Pfalz,67256
Sonnenallee 46,Augsburg,Freistaat Bayern,86046
Mühlenstrasse 21,Veitshöchheim,Freistaat Bayern,97206
Genterstrasse 69,Kiel,Schleswig-Holstein,24113
Fugger Strasse 35,Potsdam,Brandenburg,14415
Oldesloer Strasse 58,Schömberg,Baden-Württemberg,72355
Lietzensee-Ufer 59,Ettenstatt,Freistaat Bayern,91796
Ruschestrasse 32,Stendal,Sachsen-Anhalt,39560
Motzstr. 34,Lorch,Hessen,65391
Augsburger Strasse 79,Wallmenroth,Rheinland-Pfalz,57584
Eichendorffstr. 14,Konstanz Petershausen,Baden-Württemberg,78467
Rudower Strasse 79,Niederpierscheid,Rheinland-Pfalz,54649
Paderborner Strasse 81,Hiltenfingen,Freistaat Bayern,86856
Ollenhauer Str. 25,Stuttgart Lederberg,Baden-Württemberg,70619
Genslerstraße 37,Berlin Schmargendorf,Berlin,14199
3518  Coleman Avenue,Carlsbad,California,92009
Pappelallee 19,Scheibenberg,Freistaat Sachsen,9479
Oldesloer Strasse 32,Suhl,Freistaat Thüringen,98501
Schoenebergerstrasse 98,Stralsund,Mecklenburg-Vorpommern,18413
Rudower Chaussee 11,Bad Kissingen,Freistaat Bayern,97671
Konstanzer Strasse 36,Dietzenbach,Hessen,63128
Chausseestr. 29,Pinneberg,Schleswig-Holstein,25409
Pappelallee 19,Scheibenberg,Freistaat Sachsen,9479
Brandenburgische Straße 53,Berlin Niederschönhausen,Berlin,13158
Fischerinsel 83,Viersen Rahser,Nordrhein-Westfalen,41747
Reeperbahn 12,Brünzow,Mecklenburg-Vorpommern,17509
Koenigstrasse 85,Rohrbach,Rheinland-Pfalz,55490
Fontenay 4,Marktredwitz,Freistaat Bayern,95604
Hedemannstasse 79,Hettingen,Baden-Württemberg,72513
Waldowstr. 63,Holzkirchen,Freistaat Bayern,83601
Genterstrasse 79,Kiel,Schleswig-Holstein,24018
Fasanenstrasse 9,Hamburg Neustadt,Hamburg,20355
Hedemannstasse 40,Eichstegen,Baden-Württemberg,88361
Heinrich Heine Platz 11,Waltershausen,Freistaat Thüringen,99878
Los-Angeles-Platz 84,Braunschweig,Niedersachsen,38116
Flughafenstrasse 73,Amberg,Freistaat Bayern,92224
Kurfuerstendamm 7,Ismaning,Freistaat Bayern,85731
Fontenay 81,Kronach,Freistaat Bayern,96313
Nuernbergerstrasse 60,Scharbeutz,Schleswig-Holstein,23677
Chausseestr. 19,Seevetal,Niedersachsen,21220
Büsingstrasse 4,Vierkirchen,Freistaat Bayern,85256
Chausseestr. 36,Quickborn,Schleswig-Holstein,25443
Koepenicker Str. 82,Pohl,Rheinland-Pfalz,56357
Hermannstrasse 46,Monzernheim,Rheinland-Pfalz,55234
Brandenburgische Str 66,Selzen,Rheinland-Pfalz,55278
Hochstrasse 51,Westerland,Schleswig-Holstein,25963
Wallstrasse 97,Thalhausen,Rheinland-Pfalz,56584
Budapester Strasse 18,Kirchtimke,Niedersachsen,27412
Oldesloer Strasse 7,Bad Klosterlausnitz,Freistaat Thüringen,7637
Schönhauser Allee 74,Eichstetten,Baden-Württemberg,79356
Kieler Strasse 3,Waldkraiburg,Freistaat Bayern,84468
Chausseestr. 22,Borstel-Hohenraden,Schleswig-Holstein,25494
An der Alster 11,Neustrelitz,Mecklenburg-Vorpommern,17230
Boxhagener Str. 3,Hamburg Eidelstedt,Hamburg,22527
Ruschestrasse 63,Stendal,Sachsen-Anhalt,39560
Kurfürstenstraße 96,Erligheim,Baden-Württemberg,74391
Ansbacher Strasse 39,Maring-Noviand,Rheinland-Pfalz,54484
Meinekestraße 8,Bippen,Niedersachsen,49626
Alsterkrugchaussee 95,Schwabach,Freistaat Bayern,91103
Genterstrasse 62,Schwanewede,Niedersachsen,28790
Charlottenstrasse 36,Cottbus,Brandenburg,3025
Rankestraße 74,Lenting,Freistaat Bayern,85099
Guentzelstrasse 15,Hüffelsheim,Rheinland-Pfalz,55595
Paderborner Strasse 2,Schrobenhausen,Freistaat Bayern,86521
Invalidenstrasse 88,Contwig,Rheinland-Pfalz,66497
Leipziger Straße 53,Badenhausen,Niedersachsen,37534
Jahnstrasse 26,Bad Endorf,Freistaat Bayern,83093
Meinekestraße 70,Lienen,Nordrhein-Westfalen,49536
Alt Reinickendorf 63,Unterthingau,Freistaat Bayern,87646
Rohrdamm 67,Herford Laar,Nordrhein-Westfalen,32051
Chausseestr. 39,Pinneberg,Schleswig-Holstein,25410
Koepenicker Str. 68,Weiden,Freistaat Bayern,92612
Ufnau Strasse 88,Nesselwang,Freistaat Bayern,87481
Rathausstrasse 24,Fürth,Freistaat Bayern,90713
Ziegelstr. 77,Tittling,Freistaat Bayern,94100
Feldstrasse 62,Benneckenstein,Sachsen-Anhalt,38877
Landhausstraße 49,Schönwalde,Schleswig-Holstein,23744
Sömmeringstr. 32,Rheinzabern,Rheinland-Pfalz,76764
Schmarjestrasse 79,Buckau,Brandenburg,14793
Genslerstraße 91,Berlin Weißensee,Berlin,13088
Motzstr. 58,Wintersheim,Rheinland-Pfalz,67587
Mellingburgredder 1,Eckental,Freistaat Bayern,90542
Chausseestr. 22,Borstel-Hohenraden,Schleswig-Holstein,25494
Eichendorffstr. 79,Hagnau,Baden-Württemberg,88709
Alsterkrugchaussee 85,Wemding,Freistaat Bayern,86650
Fischerinsel 60,Remscheid Innen,Nordrhein-Westfalen,42857
Landsberger Allee 63,München,Freistaat Bayern,80098
Koepenicker Str. 82,Pohl,Rheinland-Pfalz,56357
Mollstrasse 50,Nackenheim,Rheinland-Pfalz,55299
Grolmanstraße 69,Bremen Lehesterdeich,Freie Hansestadt Bremen,28357
Luebeckertordamm 80,Hersbruck,Freistaat Bayern,91211
An der Alster 77,Holzhausen,Freistaat Sachsen,4454
Wallstrasse 6,Urmersbach,Rheinland-Pfalz,56761
Brandenburgische Str 90,Becherbach bei Kirn,Rheinland-Pfalz,55608
Stuttgarter Platz 36,Wirscheid,Rheinland-Pfalz,56237
Holstenwall 90,Allstedt,Sachsen-Anhalt,6542
Brandenburgische Str. 58,Wüstenrot,Baden-Württemberg,71543
Inge Beisheim Platz 9,Artlenburg,Niedersachsen,21380
Knesebeckstraße 5,Iserlohn,Nordrhein-Westfalen,58638
Michaelkirchstr. 49,Bad Oeynhausen Lohe,Nordrhein-Westfalen,32545
Ruschestrasse 45,Staßfurt,Sachsen-Anhalt,39403
Alsterkrugchaussee 83,Wemding,Freistaat Bayern,86648
Koenigstrasse 37,Ichtershausen,Freistaat Thüringen,99332
Schoenebergerstrasse 83,Hartmannsdorf,Brandenburg,15528
Büsingstrasse 20,Gilching,Freistaat Bayern,82195
Adenauerallee 57,Adamshof,Mecklenburg-Vorpommern,17091
Fasanenstrasse 38,Hamburg Osdorf,Hamburg,22547
Meininger Strasse 54,Langweiler,Rheinland-Pfalz,67746
Koepenicker Str. 38,Weyer,Rheinland-Pfalz,56357
Sonnenallee 80,Augsburg,Freistaat Bayern,86007
Schoenebergerstrasse 91,Schneeberg,Freistaat Sachsen,8284
Knesebeckstrasse 15,Helmeroth,Rheinland-Pfalz,57612
Kantstrasse 81,Nürnberg,Freistaat Bayern,90431
Schoenebergerstrasse 95,Saal,Freistaat Bayern,93342
Kieler Strasse 30,Mühldorf,Freistaat Bayern,84444
Grolmanstraße 76,Bremen Borgfeld,Freie Hansestadt Bremen,28357
Stuttgarter Platz 16,Sulzbach,Rheinland-Pfalz,56379
Kirchenallee 72,Deggendorf,Freistaat Bayern,94460
Esplanade 57,Wenzenbach,Freistaat Bayern,93171
Charlottenstrasse 44,Dresden,Freistaat Sachsen,1281
Koenigstrasse 52,Zimmern,Baden-Württemberg,72369
Chausseestr. 19,Rellingen,Schleswig-Holstein,25452
Fugger Strasse 72,Koblenz Kesselheim,Rheinland-Pfalz,56070
Waldowstr. 21,Untermünkheim,Baden-Württemberg,74547
Grolmanstraße 25,Bremen Schönebeck,Freie Hansestadt Bremen,28757
Guentzelstrasse 85,Kirtorf,Hessen,36320
Koepenicker Str. 93,Breitenthal,Freistaat Bayern,86488
Nuernbergerstrasse 16,Friedeburg,Niedersachsen,26446
Pappelallee 94,Adorf,Freistaat Sachsen,8622
Brandenburgische Straße 54,Berlin Lichtenberg,Berlin,10369
Hedemannstasse 28,Krauchenwies,Baden-Württemberg,72505
Lietzensee-Ufer 59,Ettenstatt,Freistaat Bayern,91796
Guentzelstrasse 99,Sinntal,Hessen,36391
Schoenebergerstrasse 3,Johanngeorgenstadt,Freistaat Sachsen,8347
Hoheluftchaussee 61,Goldschau,Sachsen-Anhalt,6721
Borstelmannsweg 64,Altenkunstadt,Freistaat Bayern,96261
Luebeckertordamm 19,Röttenbach,Freistaat Bayern,91187
Hedemannstasse 96,Lörrach Tüllingen,Baden-Württemberg,79539
Rosenstrasse 37,München,Freistaat Bayern,81614
Flotowstr. 47,Merseburg,Sachsen-Anhalt,6203
Gubener Str. 52,Emmering,Freistaat Bayern,82275
Grosse Praesidenten Str. 36,Weinolsheim,Rheinland-Pfalz,55278
Konstanzer Strasse 62,Weibersbrunn,Freistaat Bayern,63879
Billwerder Neuer Deich 55,Bad Berneck,Freistaat Bayern,95458
Meininger Strasse 49,Marpingen,Freistaat Thüringen,66646
Gotzkowskystrasse 42,Zehnhausen bei Rennerod,Rheinland-Pfalz,56477
Bissingzeile 14,Kührstedt,Niedersachsen,27624
Scharnweberstrasse 84,Schwetzingen,Baden-Württemberg,68723
Gubener Str. 95,Raubling,Freistaat Bayern,83061
Lietzenburger Strasse 2,Lohmar,Nordrhein-Westfalen,53797
Spresstrasse 96,Bremerhaven Fischereihafen,Freie Hansestadt Bremen,27572
Marseiller Strasse 29,Eberfing,Freistaat Bayern,82390
Rathausstrasse 49,Fürth,Freistaat Bayern,90727
Hallesches Ufer 32,Wendlingen,Baden-Württemberg,73240
Genterstrasse 79,Kiel,Schleswig-Holstein,24018
Alt-Moabit 59,Ebersbach,Freistaat Sachsen,2728
Rudolstaedter Strasse 33,Friedrichsdorf,Hessen,61381
Luebecker Strasse 5,Bundorf,Freistaat Bayern,97494
Chausseestr. 2,Waren,Mecklenburg-Vorpommern,17187
Waßmannsdorfer Chaussee 62,Barsbüttel,Schleswig-Holstein,22881
Koenigstrasse 34,Camburg,Freistaat Thüringen,7771
Rudolstaedter Strasse 31,Schöllkrippen,Freistaat Bayern,63821
Knesebeckstraße 5,Iserlohn,Nordrhein-Westfalen,58638
Fontenay 76,Burgkunstadt,Freistaat Bayern,96220
Landhausstraße 55,Zehdenick,Brandenburg,16787
Gruenauer Strasse 1,Drage,Niedersachsen,21423
Esplanade 57,Wenzenbach,Freistaat Bayern,93171
Mühlenstrasse 21,Veitshöchheim,Freistaat Bayern,97206
Bayreuther Strasse 92,Ulm Lehr,Baden-Württemberg,89081
Hermannstrasse 9,Beindersheim,Rheinland-Pfalz,67259
Schoenebergerstrasse 83,Hartmannsdorf,Brandenburg,15528
Fugger Strasse 35,Potsdam,Brandenburg,14415
Luetzowplatz 26,Kruchten,Rheinland-Pfalz,54675
Mühlenstrasse 79,Würzburg,Freistaat Bayern,97004
Fischerinsel 60,Remscheid Innen,Nordrhein-Westfalen,42857
Luebecker Strasse 5,Bundorf,Freistaat Bayern,97494
An der Schillingbrucke 64,Herbrechtingen,Baden-Württemberg,89542
Leipziger Straße 16,Wollbrandshausen,Niedersachsen,37434
Knesebeckstrasse 74,Niedersteinebach,Rheinland-Pfalz,56593
Borstelmannsweg 50,Hirschau,Freistaat Bayern,92238
Bleibtreustrasse 40,Detmold Hakedahl,Nordrhein-Westfalen,32758
Billwerder Neuer Deich 7,Hof,Freistaat Bayern,95005
Schaarsteinweg 72,Nittenau,Freistaat Bayern,93149
Güntzelstrasse 26,Zemmer,Rheinland-Pfalz,54313
Rohrdamm 42,Höfer,Niedersachsen,29361
Leipziger Strasse 14,Wiesbaden,Hessen,65207
Brandenburgische Strasse 85,Burrweiler,Rheinland-Pfalz,76835
Meinekestraße 99,Gehrde,Niedersachsen,49596
Knesebeckstrasse 26,Obernau,Rheinland-Pfalz,57638
Rhinstrasse 79,München,Freistaat Bayern,81302
Langenhorner Chaussee 24,Kirchanschöring,Freistaat Bayern,83417
Brandenburgische Str. 51,Metzingen,Baden-Württemberg,72555
Lietzenburger Strasse 29,Marienheide,Nordrhein-Westfalen,51709
Lietzensee-Ufer 59,Ettenstatt,Freistaat Bayern,91796
Neuer Jungfernstieg 84,Geisenhausen,Freistaat Bayern,84144
Büsingstrasse 24,Hebertshausen,Freistaat Bayern,85239
Augsburger Strasse 71,Sierscheid,Rheinland-Pfalz,53520
Pasewalker Straße 43,Baden-Baden,Baden-Württemberg,76530
Eschenweg 44,Rudolstadt,Freistaat Thüringen,7395
Gotzkowskystrasse 37,Eichelhardt,Rheinland-Pfalz,57612
Kastanienallee 59,Wirdum,Niedersachsen,26529
Lützowplatz 25,Irsch,Rheinland-Pfalz,54451
Langenhorner Chaussee 53,Freilassing,Freistaat Bayern,83388
Büsingstrasse 31,Dachau,Freistaat Bayern,85207
Luebeckertordamm 89,Iphofen,Freistaat Bayern,97346
Mellingburgredder 36,Erlangen,Freistaat Bayern,91037
Neue Roßstr. 12,Esslingen Serach,Baden-Württemberg,73732
Fischerinsel 41,Viersen Vorst,Nordrhein-Westfalen,41749
Fischerinsel 41,Viersen Vorst,Nordrhein-Westfalen,41749
Anhalter Strasse 70,Dreisen,Rheinland-Pfalz,67816
Jahnstrasse 97,Pittenhart,Freistaat Bayern,83132
Rudolstaedter Strasse 15,Bawinkel,Niedersachsen,49844
Guentzelstrasse 26,Gutenberg,Rheinland-Pfalz,55595
Am Borsigturm 17,Neuss Erfttal,Nordrhein-Westfalen,41469
Scharnweberstrasse 11,Karlstein,Freistaat Bayern,63791
Waldowstr. 21,Untermünkheim,Baden-Württemberg,74547
Kurfuerstendamm 49,Germering,Freistaat Bayern,82104
Paul-Nevermann-Platz 20,Poppenhausen,Freistaat Bayern,97489
Lange Strasse 31,Ottobrunn,Freistaat Bayern,85501
Ruschestrasse 45,Staßfurt,Sachsen-Anhalt,39403
Fasanenstrasse 93,Hamburg Rönneburg,Hamburg,21079
Meininger Strasse 68,Schwollen,Rheinland-Pfalz,55767
Rohrdamm 67,Herford Laar,Nordrhein-Westfalen,32051
Rudower Chaussee 81,Hallstadt,Freistaat Bayern,96100
Eschenweg 71,Hildburghausen,Freistaat Thüringen,98642
Ruschestrasse 32,Stendal,Sachsen-Anhalt,39560
Luckenwalder Strasse 61,Westerholt,Niedersachsen,26556
Güntzelstrasse 26,Zemmer,Rheinland-Pfalz,54313
Brandenburgische Strasse 42,Kapsweyer,Rheinland-Pfalz,76889
Marseiller Strasse 91,Murnau,Freistaat Bayern,82413
Hardenbergstraße 88,Kirrweiler,Rheinland-Pfalz,67744
Motzstr. 12,Sponheim,Rheinland-Pfalz,55595
Gotthardstrasse 37,Chemnitz,Freistaat Sachsen,9008
Meinekestraße 17,Krebeck,Niedersachsen,37434
Luebecker Strasse 74,Burgpreppach,Freistaat Bayern,97496
Fischerinsel 8,Viersen Lind,Nordrhein-Westfalen,41751
Charlottenstrasse 92,Dresden,Freistaat Sachsen,1221
Grolmanstraße 25,Bremen Schönebeck,Freie Hansestadt Bremen,28757
Schoenebergerstrasse 33,Netzschkau,Freistaat Sachsen,8486
Fugger Strasse 7,Potsdam,Brandenburg,14404
Flughafenstrasse 48,Kümmersbruck,Freistaat Bayern,92245
An der Schillingbrucke 77,Deggingen,Baden-Württemberg,73326
Kurfuerstendamm 9,Hergolding,Freistaat Bayern,85599
Chausseestr. 19,Rellingen,Schleswig-Holstein,25452
Sonnenallee 50,Augsburg,Freistaat Bayern,86032
Kieler Strasse 69,Reit im Winkl,Freistaat Bayern,83237
Motzstr. 24,Partenheim,Rheinland-Pfalz,55288
Koenigstrasse 48,Zimmern,Baden-Württemberg,72369
Kastanienallee 84,Leezdorf,Niedersachsen,26529
Hollander Strasse 96,Buseck,Hessen,35418
Büsingstrasse 52,Brunnthal,Freistaat Bayern,85649
Joachimstaler Str. 74,Geisig,Rheinland-Pfalz,56357
Stuttgarter Platz 77,Selm,Nordrhein-Westfalen,59379
Hallesches Ufer 91,Schmelz,Freistaat Thüringen,66835
Alsterkrugchaussee 92,Amerdingen,Freistaat Bayern,86735
Rudolstaedter Strasse 85,Aschaffenburg,Freistaat Bayern,63723
Sonnenallee 37,Augsburg,Freistaat Bayern,86034
Kirchenallee 12,Deggendorf,Freistaat Bayern,94458
Mühlenstrasse 79,Würzburg,Freistaat Bayern,97004
Hollander Strasse 36,Holzheim,Rheinland-Pfalz,65558
Waßmannsdorfer Chaussee 97,Hamburg Altstadt,Hamburg,20457
Gotzkowskystrasse 94,Gieleroth,Rheinland-Pfalz,57610
Bissingzeile 71,Krummendeich,Niedersachsen,21732
An Der Urania 17,Itzehoe,Schleswig-Holstein,25504
Lützowplatz 73,Heddert,Rheinland-Pfalz,54429
Luebecker Strasse 27,Pfarrweisach,Freistaat Bayern,96176
Landsberger Allee 63,München,Freistaat Bayern,80068
Spresstrasse 61,Bremerhaven Mitte,Freie Hansestadt Bremen,27576
Paul-Nevermann-Platz 57,Bad Königshofen,Freistaat Bayern,97628
An Der Urania 64,Bergewöhrden,Schleswig-Holstein,25779
Lützowplatz 99,Onsdorf,Rheinland-Pfalz,54456
Konstanzer Strasse 56,Rothenberg,Hessen,64757
Bayreuther Strasse 52,Reutlingen Burgholz,Baden-Württemberg,72766
Gruenauer Strasse 52,Geesthacht,Schleswig-Holstein,21495
Albrechtstrasse 45,Traunstein,Freistaat Bayern,83278
Marseiller Strasse 95,Hainsfarth,Freistaat Bayern,86744
Alt Reinickendorf 48,Oberstdorf,Freistaat Bayern,87555
Ufnau Strasse 67,Füssen,Freistaat Bayern,87629
Hardenbergstraße 12,Langenbach,Freistaat Bayern,85416
Koenigstrasse 37,Ichtershausen,Freistaat Thüringen,99332
Fischerinsel 22,Viersen Beberich,Nordrhein-Westfalen,41747
Langenhorner Chaussee 86,Piding,Freistaat Bayern,83449
Ruschestrasse 54,Tangerhütte,Sachsen-Anhalt,39512
Reeperbahn 18,Heringsdorf,Schleswig-Holstein,23777
Luebeckertordamm 80,Hersbruck,Freistaat Bayern,91211
Konstanzer Strasse 15,Rothenbuch,Freistaat Bayern,63860
Mollstrasse 86,Reinheim,Hessen,64354
Alt-Moabit 59,Ebersbach,Freistaat Sachsen,2728
Rudower Strasse 99,Fischbach-Oberraden,Rheinland-Pfalz,54675
Gubener Str. 95,Raubling,Freistaat Bayern,83061
Alter Wall 42,Arnstein,Freistaat Bayern,97448
Lützowplatz 73,Heddert,Rheinland-Pfalz,54429
Hollander Strasse 36,Holzheim,Rheinland-Pfalz,65558
Gubener Str. 95,Raubling,Freistaat Bayern,83061
Mollstrasse 2,Weiterstadt,Hessen,64331
Leipziger Strasse 86,Minden,Rheinland-Pfalz,54310
Ziegelstr. 5,Jandelsbrunn,Freistaat Bayern,94118
Ollenhauer Str. 76,Stuttgart Mitte,Baden-Württemberg,70184
Paul-Nevermann-Platz 64,Bad Neustadt,Freistaat Bayern,97603
Ellmenreichstrasse 51,Egloffstein,Freistaat Bayern,91349
Brandenburgische Str. 58,Wüstenrot,Baden-Württemberg,71543
Prenzlauer Allee 4,Halle,Sachsen-Anhalt,6009
Amsinckstrasse 66,Abtsbessingen,Freistaat Thüringen,99713
Nuernbergerstrasse 67,Großenkneten,Niedersachsen,26197
Lietzensee-Ufer 59,Ettenstatt,Freistaat Bayern,91796
Karl-Liebknecht-Strasse 69,Affing,Freistaat Bayern,86442
Alsterkrugchaussee 42,Wilhermsdorf,Freistaat Bayern,91452
Scharnweberstrasse 11,Karlstein,Freistaat Bayern,63791
Fischerinsel 67,Mönchengladbach Hardt,Nordrhein-Westfalen,41169
Gotzkowskystrasse 57,Helmenzen,Rheinland-Pfalz,57612
Knesebeckstraße 62,Geilenkirchen,Nordrhein-Westfalen,52511
Rosenstrasse 47,München,Freistaat Bayern,81308
Stuttgarter Platz 14,Untershausen,Rheinland-Pfalz,56412
An der Alster 34,Gommern,Sachsen-Anhalt,39242
Gotthardstrasse 27,Erfurt,Freistaat Thüringen,99022
Meinekestraße 70,Lienen,Nordrhein-Westfalen,49536
Gotthardstrasse 37,Chemnitz,Freistaat Sachsen,9008
Brandenburgische Strasse 34,Ranschbach,Rheinland-Pfalz,76829
Alt Reinickendorf 22,Blaichach,Freistaat Bayern,87542
Invalidenstrasse 61,Sankt Martin,Rheinland-Pfalz,67488
Leopoldstraße 96,Berlin Buchholz,Berlin,13127
Oldesloer Strasse 32,Suhl,Freistaat Thüringen,98501
Lietzensee-Ufer 92,Kamenz,Freistaat Sachsen,1911
Eichendorffstr. 29,Meersburg,Baden-Württemberg,88709
Sonnenallee 92,Freiburg Tiengen,Baden-Württemberg,79112
Chausseestr. 19,Rellingen,Schleswig-Holstein,25452
Karl-Liebknecht-Strasse 8,Oyten,Niedersachsen,28876
Flotowstr. 29,Naumburg,Sachsen-Anhalt,6609
Leopoldstraße 80,Berlin Borsigwalde,Berlin,13509
Stresemannstr. 44,Tholey,Freistaat Thüringen,66632
Mollstrasse 50,Nackenheim,Rheinland-Pfalz,55299
Jahnstrasse 15,Obing,Freistaat Bayern,83117
An Der Urania 7,Kellinghusen,Schleswig-Holstein,25543
Kastanienallee 30,Lehe,Niedersachsen,26892
Borstelmannsweg 64,Altenkunstadt,Freistaat Bayern,96261
Alsterkrugchaussee 42,Wilhermsdorf,Freistaat Bayern,91452
Gruenauer Strasse 76,Kakenstorf,Niedersachsen,21255
Messedamm 58,Halle,Sachsen-Anhalt,6054
Storkower Strasse 13,Neuhäusel,Rheinland-Pfalz,56335
Rankestraße 39,Karlshuld,Freistaat Bayern,86668
Paderborner Strasse 63,Bobingen,Freistaat Bayern,86399
Luebecker Strasse 5,Zeil,Freistaat Bayern,97471
Hochstrasse 15,Rantum,Schleswig-Holstein,25980
Leipziger Strasse 14,Wiesbaden,Hessen,65207
Prager Str 44,Mammendorf,Freistaat Bayern,82291
Karl-Liebknecht-Strasse 66,Syke,Niedersachsen,28857
Koepenicker Str. 76,Oberbachheim,Rheinland-Pfalz,56355
Fasanenstrasse 5,Hamburg Ochsenwerder,Hamburg,21037
Grolmanstraße 76,Bremen Neustadt,Freie Hansestadt Bremen,28199
Meininger Strasse 36,Hoppstädten,Rheinland-Pfalz,67744
Brandenburgische Str. 86,Pfaffenhofen,Baden-Württemberg,74397
Luebeckertordamm 19,Röttenbach,Freistaat Bayern,91187
Lietzensee-Ufer 42,Groß Düben,Freistaat Sachsen,2959
Prager Str 39,Oberschweinbach,Freistaat Bayern,82294
Alter Wall 11,Miltenberg,Freistaat Bayern,63888
Langenhorner Chaussee 83,Inzell,Freistaat Bayern,83330
Paderborner Strasse 79,Pöttmes,Freistaat Bayern,86554
Mühlenstrasse 93,Regensburg,Freistaat Bayern,93027
Eschenweg 44,Rudolstadt,Freistaat Thüringen,7395
Nuernbergerstrasse 77,Plön,Schleswig-Holstein,24303
Feldstrasse 40,Arneburg,Sachsen-Anhalt,39592
Paul-Nevermann-Platz 81,Schweinfurt,Freistaat Bayern,97408
Rohrdamm 6,Borgholzhausen,Nordrhein-Westfalen,33829
Stuttgarter Platz 6,Everswinkel,Nordrhein-Westfalen,48351
Chausseestr. 19,Seevetal,Niedersachsen,21220
Kastanienallee 57,Lunden,Schleswig-Holstein,25772
Hollander Strasse 87,Hadamar,Hessen,65589
Koepenicker Str. 93,Breitenthal,Freistaat Bayern,86488
Jenaer Strasse 16,Essen,Nordrhein-Westfalen,45141
Fugger Strasse 11,Koblenz Goldgrube,Rheinland-Pfalz,56073
Bissingzeile 14,Kührstedt,Niedersachsen,27624
Billwerder Neuer Deich 19,Hof,Freistaat Bayern,95013
Gotthardstrasse 82,Chemnitz,Freistaat Sachsen,9005
Invalidenstrasse 95,Hornbach,Rheinland-Pfalz,66500
Koepenicker Str. 92,Reichenbach,Baden-Württemberg,73262
Messedamm 94,Dresden,Freistaat Sachsen,1109
Stuttgarter Platz 87,Oberwies,Rheinland-Pfalz,56379
An Der Urania 7,Kellinghusen,Schleswig-Holstein,25543
Kantstraße 29,Annaberg-Buchholz,Freistaat Sachsen,9449
Jahnstrasse 26,Bad Endorf,Freistaat Bayern,83093
Pappelallee 53,Niederwürschnitz,Freistaat Sachsen,9399
Meinekestraße 42,Georgsmarienhütte,Niedersachsen,49124
Park Str. 79,Solingen Burg,Nordrhein-Westfalen,42659
Gruenauer Strasse 29,Oldendorf,Niedersachsen,21726
Charlottenstrasse 36,Cottbus,Brandenburg,3025
Kurfuerstendamm 9,Hergolding,Freistaat Bayern,85599
Kastanienallee 46,Barlt,Schleswig-Holstein,25719
Bleibtreustrasse 59,Gütersloh Ebbesloh,Nordrhein-Westfalen,33334
Schönwalder Allee 70,Eckernförde,Schleswig-Holstein,24331
Kirchenallee 75,Deggendorf,Freistaat Bayern,94454
Brandenburgische Str. 75,Althengstett,Baden-Württemberg,75382
Hermannstrasse 9,Beindersheim,Rheinland-Pfalz,67259
Stuttgarter Platz 43,Olfen,Nordrhein-Westfalen,59399
Genterstrasse 28,Bremen Vegesack,Freie Hansestadt Bremen,28759
Oldesloer Strasse 5,Mühltroff,Freistaat Sachsen,7917
Rosenstrasse 47,München,Freistaat Bayern,81506
Leipziger Straße 53,Badenhausen,Niedersachsen,37534
Lange Strasse 77,München,Freistaat Bayern,81927
Unter den Linden 44,Schwerin,Mecklenburg-Vorpommern,19011
Ziegelstr. 77,Tittling,Freistaat Bayern,94100
Pasewalker Straße 47,Althütte,Baden-Württemberg,71566
Kantstrasse 53,Bayreuth,Freistaat Bayern,95422
Kurfuerstendamm 24,Heilbronn Sontheim,Baden-Württemberg,74081
Invalidenstrasse 19,Altdorf,Baden-Württemberg,71155
Flotowstr. 92,Naumburg,Sachsen-Anhalt,6607
Gruenauer Strasse 50,Trittau,Schleswig-Holstein,22943
Invalidenstrasse 12,Kallstadt,Rheinland-Pfalz,67169
Meininger Strasse 49,Marpingen,Freistaat Thüringen,66646
An der Schillingbrucke 11,Steinheim,Baden-Württemberg,89555
Gubener Str. 52,Emmering,Freistaat Bayern,82275
Kurfürstendamm 35,Rostock,Mecklenburg-Vorpommern,18055
Hollander Strasse 96,Buseck,Hessen,35418
Scharnweberstrasse 15,Schwalbach am Taunus,Hessen,65824
Rhinstrasse 89,München,Freistaat Bayern,80997
Brandenburgische Straße 54,Berlin Lichtenberg,Berlin,10369
Luebeckertordamm 25,Kirchensittenbach,Freistaat Bayern,91241
Motzstr. 98,Sankt Katharinen,Rheinland-Pfalz,55595
Ansbacher Strasse 39,Maring-Noviand,Rheinland-Pfalz,54484
Brandenburgische Str 27,Otzweiler,Rheinland-Pfalz,55606
Hans-Grade-Allee 49,Todendorf,Schleswig-Holstein,22965
Gruenauer Strasse 48,Kollow,Schleswig-Holstein,21527
Stresemannstr. 53,Nohfelden,Freistaat Thüringen,66625
Sonnenallee 88,Augsburg,Freistaat Bayern,86015
Gotthardstrasse 28,Erfurt,Freistaat Thüringen,99040
Jahnstrasse 84,Unterreit,Freistaat Bayern,83567
Lützowplatz 73,Mückeln,Rheinland-Pfalz,54558
Pohlstrasse 74,Cramme,Niedersachsen,38312
Stresemannstr. 55,Nohfelden,Freistaat Thüringen,66624
Gotthardstrasse 82,Chemnitz,Freistaat Sachsen,9005
Budapester Strasse 65,Neumünster,Schleswig-Holstein,24503
Koepenicker Str. 76,Oberbachheim,Rheinland-Pfalz,56355
Rohrdamm 60,Herford Falkendiek,Nordrhein-Westfalen,32049
Lietzensee-Ufer 48,Görlitz,Freistaat Sachsen,2808
Fontenay 75,Marktredwitz,Freistaat Bayern,95610
Lietzensee-Ufer 57,Görlitz,Freistaat Sachsen,2828
Motzstr. 24,Partenheim,Rheinland-Pfalz,55288
Albrechtstrasse 55,Traunstein,Freistaat Bayern,83267
Charlottenstrasse 72,Cottbus,Brandenburg,3003
Pasewalker Straße 58,Forbach,Baden-Württemberg,76596
Brandenburgische Str 66,Selzen,Rheinland-Pfalz,55278
Ufnau Strasse 97,Ingenried,Freistaat Bayern,86980
Brandenburgische Strasse 93,Landau in der Pfalz,Rheinland-Pfalz,76829
Inge Beisheim Platz 32,Agathenburg,Niedersachsen,21684
Esplanade 61,Maxhütte-Haidhof,Freistaat Bayern,93139
Budapester Strasse 18,Kirchtimke,Niedersachsen,27412
Kantstrasse 75,Schwaig,Freistaat Bayern,90567
Fugger Strasse 50,Potsdam,Brandenburg,14411
Schaarsteinweg 26,Straßkirchen,Freistaat Bayern,94340
Luckenwalder Strasse 47,Bad Münder am Deister,Niedersachsen,31848
Alt Reinickendorf 50,Immenstadt,Freistaat Bayern,87501
Kurfuerstendamm 24,Heilbronn Sontheim,Baden-Württemberg,74081
Schönwalder Allee 25,Kellenhusen,Schleswig-Holstein,23746
Meininger Strasse 54,Langweiler,Rheinland-Pfalz,67746
Büsingstrasse 31,Dachau,Freistaat Bayern,85207
Hedemannstasse 54,Lörrach Stetten,Baden-Württemberg,79539
Schmarjestrasse 7,Buckau,Brandenburg,14793
Koenigstrasse 34,Camburg,Freistaat Thüringen,7771
Langenhorner Chaussee 61,Freilassing,Freistaat Bayern,83384
Alt Reinickendorf 50,Immenstadt,Freistaat Bayern,87501
Prager Str 39,Oberschweinbach,Freistaat Bayern,82294
Feldstrasse 40,Arneburg,Sachsen-Anhalt,39592
Unter den Linden 76,Schwerin,Mecklenburg-Vorpommern,19003
Luebecker Strasse 91,Burglengenfeld,Freistaat Bayern,93133
Albrechtstrasse 84,Nußdorf,Freistaat Bayern,83131
Lange Strasse 6,Planegg,Freistaat Bayern,82143
An der Alster 96,Neustrelitz,Mecklenburg-Vorpommern,17223
Chausseestr. 4,Feldberg,Baden-Württemberg,79868
Lietzenburger Strasse 15,Buchholz,Brandenburg,14823
Langenhorner Chaussee 66,Saaldorf,Freistaat Bayern,83416
Motzstr. 24,Frei-Laubersheim,Rheinland-Pfalz,55546
Alt-Moabit 43,Grimma,Freistaat Sachsen,4661
Paul-Nevermann-Platz 91,Aura,Freistaat Bayern,97773
Brandenburgische Str. 51,Metzingen,Baden-Württemberg,72555
Alsterkrugchaussee 95,Bissingen,Freistaat Bayern,86656
Storkower Strasse 67,Andernach,Rheinland-Pfalz,56626
Leipziger Strasse 18,Osnabrück,Niedersachsen,49074
Marseiller Strasse 13,Hainsfarth,Freistaat Bayern,86744
Landhausstraße 49,Schönwalde,Schleswig-Holstein,23744
Scharnweberstrasse 37,Mannheim Schwetzingerstadt,Baden-Württemberg,68161
Stuttgarter Platz 41,Moschheim,Rheinland-Pfalz,56424
Luetzowplatz 53,Steinborn,Rheinland-Pfalz,54655
Lietzensee-Ufer 48,Görlitz,Freistaat Sachsen,2808
Neuer Jungfernstieg 13,Schönau,Baden-Württemberg,79677
Alsterkrugchaussee 59,Dietenhofen,Freistaat Bayern,90597
Los-Angeles-Platz 69,Braunschweig,Niedersachsen,38102
Rudolstaedter Strasse 31,Schöllkrippen,Freistaat Bayern,63821
Schoenebergerstrasse 63,Erlabrunn,Freistaat Bayern,97250
Motzstr. 42,Roxheim,Rheinland-Pfalz,55595
Rathausstrasse 24,Fürth,Freistaat Bayern,90713
Sömmeringstr. 32,Rheinzabern,Rheinland-Pfalz,76764
Hallesches Ufer 63,Nonnweiler,Freistaat Thüringen,66616
Genterstrasse 62,Schwanewede,Niedersachsen,28790
Landhausstraße 29,Fürstenwalde,Brandenburg,15517
Alsterkrugchaussee 2,Cadolzburg,Freistaat Bayern,90553
Kantstraße 92,Oelsnitz,Freistaat Sachsen,8602
Genslerstraße 37,Berlin Schmargendorf,Berlin,14199
Grolmanstraße 65,Bremen Buntentor,Freie Hansestadt Bremen,28201
Kantstraße 9,Limbach-Oberfrohna,Freistaat Sachsen,9207
Park Str. 68,Köln Innenstadt,Nordrhein-Westfalen,50672
Stuttgarter Platz 8,Nassau,Rheinland-Pfalz,56377
Alt-Moabit 99,Brandenburg,Brandenburg,14732
Schaarsteinweg 76,Falkenstein,Freistaat Bayern,93165
Büsingstrasse 52,Brunnthal,Freistaat Bayern,85649
Ellmenreichstrasse 50,Hiltpoltstein,Freistaat Bayern,91355
Brandenburgische Str 38,Norath,Rheinland-Pfalz,56291
Leopoldstraße 96,Berlin Buchholz,Berlin,13127
Amsinckstrasse 49,Hosena,Brandenburg,1996
Scharnweberstrasse 49,Mannheim Fahrlach,Baden-Württemberg,68165
Mellingburgredder 60,Erlangen,Freistaat Bayern,91001
Motzstr. 34,Lorch,Hessen,65391
Grosse Praesidenten Str. 36,Weinolsheim,Rheinland-Pfalz,55278
Motzstr. 42,Roxheim,Rheinland-Pfalz,55595
Chausseestr. 27,Ahrensburg,Schleswig-Holstein,22907
Am Borsigturm 99,Krefeld,Nordrhein-Westfalen,47798
Luebecker Strasse 91,Burglengenfeld,Freistaat Bayern,93133
Rudower Chaussee 81,Hallstadt,Freistaat Bayern,96100
Konstanzer Strasse 62,Weibersbrunn,Freistaat Bayern,63879
Hoheluftchaussee 9,Ablaß,Freistaat Sachsen,4769
Michaelkirchstr. 64,Heuerßen,Niedersachsen,31700
Unter den Linden 44,Schwerin,Mecklenburg-Vorpommern,19011
Lietzenburger Strasse 15,Buchholz,Brandenburg,14823
Leipziger Strasse 35,Wiesbaden,Hessen,65191
Waßmannsdorfer Chaussee 97,Hamburg Altstadt,Hamburg,20457
Ansbacher Strasse 64,Niedersohren,Rheinland-Pfalz,55487
Fasanenstrasse 38,Hamburg Osdorf,Hamburg,22547
Leipziger Straße 53,Badenhausen,Niedersachsen,37534
Luebecker Strasse 62,Burglengenfeld,Freistaat Bayern,93129
Gubener Str. 11,Schliersee,Freistaat Bayern,83726
Lietzenburger Straße 65,Stadensen,Niedersachsen,29596
Pappelallee 2,Leubsdorf,Rheinland-Pfalz,53547
Fasanenstrasse 82,Hamburg Sankt Pauli,Hamburg,22767
Chausseestr. 2,Waren,Mecklenburg-Vorpommern,17187
Oldesloer Strasse 58,Braunsdorf,Freistaat Sachsen,1737
Messedamm 97,Halle,Sachsen-Anhalt,6045
Rudower Chaussee 35,Bad Kissingen,Freistaat Bayern,97672
Knesebeckstrasse 24,Reiferscheid,Rheinland-Pfalz,57632
Paul-Nevermann-Platz 24,Hammelburg,Freistaat Bayern,97756
Neuer Jungfernstieg 96,Dingolfing,Freistaat Bayern,84125
Langenhorner Chaussee 71,Berchtesgaden,Freistaat Bayern,83461
Boxhagener Str. 17,Hamburg Eidelstedt,Hamburg,22547
Kirchenallee 12,Deggendorf,Freistaat Bayern,94458
Stuttgarter Platz 33,Niederahr,Rheinland-Pfalz,56414
Ruschestrasse 54,Tangerhütte,Sachsen-Anhalt,39512
Hoheluftchaussee 12,Meyenburg,Brandenburg,16942
Gruenauer Strasse 48,Stade,Niedersachsen,21684
Flughafenstrasse 48,Kümmersbruck,Freistaat Bayern,92245
Jenaer Strasse 34,Duisburg,Nordrhein-Westfalen,47138
Paul-Nevermann-Platz 62,Schweinfurt,Freistaat Bayern,97421
Pasewalker Straße 45,Pforzheim Eutingen,Baden-Württemberg,75181
Stuttgarter Platz 2,Oberwies,Rheinland-Pfalz,56379
Neue Roßstr. 2,Esslingen Hegensberg,Baden-Württemberg,73732
Chausseestr. 74,Quedlinburg,Sachsen-Anhalt,6471
Rathausstrasse 49,Fürth,Freistaat Bayern,90727
Neuer Jungfernstieg 92,Landshut,Freistaat Bayern,84003
Borstelmannsweg 50,Hirschau,Freistaat Bayern,92238
Feldstrasse 43,Löcknitz,Mecklenburg-Vorpommern,17319
An der Alster 27,Emden,Niedersachsen,26721
Lietzensee-Ufer 92,Plessa,Brandenburg,4926
Charlottenstrasse 92,Dresden,Freistaat Sachsen,1221
Fugger Strasse 50,Potsdam,Brandenburg,14411
Motzstr. 58,Wintersheim,Rheinland-Pfalz,67587
Hollander Strasse 66,Brechen,Hessen,65611
Scharnweberstrasse 13,Heiligkreuzsteinach,Baden-Württemberg,69253
Heinrich Heine Platz 11,Waltershausen,Freistaat Thüringen,99878
Meininger Strasse 90,Riegelsberg,Saarland,66292
Inge Beisheim Platz 23,Handorf,Niedersachsen,21447
Fischerinsel 67,Mönchengladbach Hardt,Nordrhein-Westfalen,41169
Am Borsigturm 85,Dormagen Dormagen-Nord,Nordrhein-Westfalen,41539
Alt Reinickendorf 92,Burgberg,Freistaat Bayern,87545
Fontenay 76,Burgkunstadt,Freistaat Bayern,96220
Pasewalker Straße 47,Althütte,Baden-Württemberg,71566
Rohrdamm 74,Soltau,Niedersachsen,29614
Grolmanstraße 19,Bremen Aumund-Hammersbeck,Freie Hansestadt Bremen,28755
Borstelmannsweg 64,Altenkunstadt,Freistaat Bayern,96261
Oldesloer Strasse 76,Trusetal,Freistaat Thüringen,98594
Ansbacher Strasse 26,Schönecken,Rheinland-Pfalz,54614
Holstenwall 92,Freist,Sachsen-Anhalt,6347
Motzstr. 62,Nack,Rheinland-Pfalz,55234
Kantstraße 51,Elterlein,Freistaat Sachsen,9481
Fischerinsel 22,Viersen Beberich,Nordrhein-Westfalen,41747
Schaarsteinweg 26,Straßkirchen,Freistaat Bayern,94340
Kantstraße 26,Gornau,Freistaat Sachsen,9405
Hollander Strasse 96,Buseck,Hessen,35418
Rankestraße 39,Karlshuld,Freistaat Bayern,86668
Langenhorner Chaussee 2,Bischofswiesen,Freistaat Bayern,83483
Hermannstrasse 40,Heidelberg Ziegelhausen,Baden-Württemberg,69118
Alt-Moabit 89,Torgau,Freistaat Sachsen,4852
Fontenay 81,Kronach,Freistaat Bayern,96313
Hollander Strasse 96,Buseck,Hessen,35418
Stuttgarter Platz 87,Oberwies,Rheinland-Pfalz,56379
Kantstraße 73,Meiningen,Freistaat Thüringen,98601
Waldowstr. 21,Untermünkheim,Baden-Württemberg,74547
Boxhagener Str. 59,Hamburg Dulsberg,Hamburg,22049
Fugger Strasse 95,Potsdam,Brandenburg,14405
Anhalter Strasse 92,Relsberg,Rheinland-Pfalz,67753
Schmarjestrasse 72,Dallgow,Brandenburg,14624
Ziegelstr. 19,Pfarrkirchen,Freistaat Bayern,84344
Hoheluftchaussee 36,Burgscheidungen,Sachsen-Anhalt,6636
Lietzensee-Ufer 41,Lübbenau,Brandenburg,3216
An Der Urania 57,Hattstedt,Schleswig-Holstein,25856
Alt Reinickendorf 63,Unterthingau,Freistaat Bayern,87646
Neue Roßstr. 10,Bad Kreuznach Planig,Rheinland-Pfalz,55545
Joachimstaler Str. 84,Keidelheim,Rheinland-Pfalz,55471
Kantstraße 42,Bad Salzungen,Freistaat Thüringen,36425
Lietzenburger Straße 59,Soltendieck,Niedersachsen,29594
Inge Beisheim Platz 23,Handorf,Niedersachsen,21447
Fasanenstrasse 16,Hamburg Niendorf,Hamburg,22459
An der Schillingbrucke 64,Herbrechtingen,Baden-Württemberg,89542
Gotzkowskystrasse 61,Hemmelzen,Rheinland-Pfalz,57612
An Der Urania 66,Oldersbek,Schleswig-Holstein,25873
Brandenburgische Strasse 20,Weisenheim am Berg,Rheinland-Pfalz,67273
Guentzelstrasse 10,Oberaula,Hessen,36280
Spresstrasse 85,Flensburg,Schleswig-Holstein,24906
Gubener Str. 90,Rotwandhaus,Freistaat Bayern,83727
Eschenweg 23,Schmalkalden,Freistaat Thüringen,98570
Pohlstrasse 74,Parsau,Niedersachsen,38470
Ziegelstr. 96,Aidenbach,Freistaat Bayern,94497
Rankestraße 24,Karlshuld,Freistaat Bayern,86668
Langenhorner Chaussee 71,Berchtesgaden,Freistaat Bayern,83461
Rohrdamm 27,Wendeburg,Niedersachsen,38176
Schoenebergerstrasse 3,Johanngeorgenstadt,Freistaat Sachsen,8347
Holstenwall 26,Mücheln,Sachsen-Anhalt,6248
Pohlstrasse 25,Bad Harzburg,Niedersachsen,38667
Genterstrasse 8,Kiel,Schleswig-Holstein,24028
Lietzenburger Strasse 28,Bergisch Gladbach Katterbach,Nordrhein-Westfalen,51467
Meinekestraße 47,Bad Laer,Niedersachsen,49196
Mühlenstrasse 37,Bamberg,Freistaat Bayern,96001
Genterstrasse 71,Kiel,Schleswig-Holstein,24123
Bayreuther Strasse 30,Frankfurt,Brandenburg,15232
Mühlenstrasse 65,Würzburg,Freistaat Bayern,97001
Reeperbahn 18,Heringsdorf,Schleswig-Holstein,23777
Holstenwall 71,Mücheln,Sachsen-Anhalt,6249
Bayreuther Strasse 3,Kaiserslautern Mölschbach,Rheinland-Pfalz,67661
Jenaer Strasse 23,Königslutter am Elm,Niedersachsen,38154
Flotowstr. 47,Merseburg,Sachsen-Anhalt,6203
Joachimstaler Str. 90,Riesweiler,Rheinland-Pfalz,55499
Hochstrasse 41,Nebel,Schleswig-Holstein,25946
Messedamm 25,Coswig,Freistaat Sachsen,1631
An Der Urania 92,Brunsbüttel,Schleswig-Holstein,25536
Ollenhauer Str. 5,Stuttgart Süd,Baden-Württemberg,70199
Fischerinsel 83,Viersen Rahser,Nordrhein-Westfalen,41747
Los-Angeles-Platz 62,Hamburg Winterhude,Hamburg,22305
Michaelkirchstr. 50,Bad Oeynhausen Innenstadt,Nordrhein-Westfalen,32547
Ziegelstr. 32,Winzer,Freistaat Bayern,94577
An der Alster 11,Neustrelitz,Mecklenburg-Vorpommern,17230
Bleibtreustrasse 83,Bad Lippspringe,Nordrhein-Westfalen,33175
Los-Angeles-Platz 20,Norderstedt,Schleswig-Holstein,22809
Jenaer Strasse 85,Mülheim an der Ruhr,Nordrhein-Westfalen,45470
Lietzensee-Ufer 14,Spremberg,Brandenburg,3126
Kurfürstenstraße 68,Möglingen,Baden-Württemberg,71696
Kirchenallee 72,Deggendorf,Freistaat Bayern,94460
Eichendorffstr. 52,Hergatz,Freistaat Bayern,88143
Hardenbergstraße 17,Niederalben,Rheinland-Pfalz,66887
Alt Reinickendorf 76,Balzhausen,Freistaat Bayern,86483
Borstelmannsweg 7,Coburg,Freistaat Bayern,96418
Billwerder Neuer Deich 7,Hof,Freistaat Bayern,95005
Augsburger Strasse 88,Bereborn,Rheinland-Pfalz,56769
Brandenburgische Strasse 93,Landau in der Pfalz,Rheinland-Pfalz,76829
Michaelkirchstr. 64,Heuerßen,Niedersachsen,31700
Sömmeringstr. 72,Illertissen,Freistaat Bayern,89253
Waldowstr. 2,Frankenhardt,Baden-Württemberg,74586
Rhinstrasse 96,München,Freistaat Bayern,81241
Fontenay 76,Hohenberg,Freistaat Bayern,95691
Meinekestraße 58,Moringen,Niedersachsen,37186
Budapester Strasse 49,Honigsee,Schleswig-Holstein,24211
Schoenebergerstrasse 97,Grevesmühlen,Mecklenburg-Vorpommern,23932
Spresstrasse 23,Flensburg,Schleswig-Holstein,24910
Knesebeckstraße 77,Werdohl,Nordrhein-Westfalen,58791
Invalidenstrasse 16,Hainfeld,Rheinland-Pfalz,76835
Lietzenburger Straße 65,Stadensen,Niedersachsen,29596
Michaelkirchstr. 64,Heuerßen,Niedersachsen,31700
Langenhorner Chaussee 83,Inzell,Freistaat Bayern,83330
Gotthardstrasse 29,Erfurt,Freistaat Thüringen,99097
Budapester Strasse 49,Honigsee,Schleswig-Holstein,24211
Spresstrasse 89,Bielefeld Innenstadt,Nordrhein-Westfalen,33611
Hochstrasse 80,Stoltebüll,Schleswig-Holstein,24409
Brandenburgische Strasse 68,Kerzenheim,Rheinland-Pfalz,67304
Rohrdamm 6,Borgholzhausen,Nordrhein-Westfalen,33829
Invalidenstrasse 95,Hornbach,Rheinland-Pfalz,66500
Augsburger Strasse 71,Sierscheid,Rheinland-Pfalz,53520
Genterstrasse 22,Stockelsdorf,Schleswig-Holstein,23613
Grolmanstraße 68,Bremen Ohlenhof,Freie Hansestadt Bremen,28239
Sonnenallee 92,Freiburg Tiengen,Baden-Württemberg,79112
Charlottenstrasse 44,Dresden,Freistaat Sachsen,1281
Fugger Strasse 50,Potsdam,Brandenburg,14411
Mühlenstrasse 79,Würzburg,Freistaat Bayern,97004
Kantstrasse 13,Nürnberg,Freistaat Bayern,90403
Kieler Strasse 63,Taufkirchen,Freistaat Bayern,82019
Chausseestr. 19,Seevetal,Niedersachsen,21220
Luebecker Strasse 62,Burglengenfeld,Freistaat Bayern,93129
Lange Strasse 6,Planegg,Freistaat Bayern,82143
Hallesches Ufer 63,Nonnweiler,Freistaat Thüringen,66616
544  Red Dog Road,Charlotte,North Carolina,28202
Storkower Strasse 7,Plaidt,Rheinland-Pfalz,56637
Sömmeringstr. 19,Weißenhorn,Freistaat Bayern,89258
Hedemannstasse 57,Isny,Baden-Württemberg,88316
Ansbacher Strasse 78,Gösenroth,Rheinland-Pfalz,55624
Pasewalker Straße 43,Baden-Baden,Baden-Württemberg,76530
Brandenburgische Strasse 93,Landau in der Pfalz,Rheinland-Pfalz,76829
Landhausstraße 92,Oranienburg,Brandenburg,16501
Gotthardstrasse 29,Erfurt,Freistaat Thüringen,99097
An der Schillingbrucke 47,Bernstadt,Freistaat Sachsen,2748
Spresstrasse 40,Bielefeld Altenhagen,Nordrhein-Westfalen,33729
Langenhorner Chaussee 71,Berchtesgaden,Freistaat Bayern,83461
Motzstr. 84,Gensingen,Rheinland-Pfalz,55457
Meinekestraße 8,Bippen,Niedersachsen,49626
Brandenburgische Strasse 93,Landau in der Pfalz,Rheinland-Pfalz,76829
Fischerinsel 66,Mönchengladbach Hardt,Nordrhein-Westfalen,41169
Heinrich Heine Platz 92,Neusalza-Spremberg,Freistaat Sachsen,2740
Hardenbergstraße 85,Kollweiler,Rheinland-Pfalz,66879
Leipziger Straße 89,Pegestorf,Niedersachsen,37619
Billwerder Neuer Deich 66,Stockheim,Freistaat Bayern,96342
Genslerstraße 91,Berlin Weißensee,Berlin,13088
Pasewalker Straße 33,Baden-Baden,Baden-Württemberg,76534
Pappelallee 51,Dermbach,Freistaat Thüringen,36466
Kastanienallee 86,Wymeer,Niedersachsen,26831
Ruschestrasse 45,Staßfurt,Sachsen-Anhalt,39403
Kurfürstendamm 87,Rostock,Mecklenburg-Vorpommern,18004
Luetzowplatz 6,Minderlittgen,Rheinland-Pfalz,54518
Chausseestr. 66,Holm,Schleswig-Holstein,25488
Am Borsigturm 85,Dormagen Dormagen-Nord,Nordrhein-Westfalen,41539
